{
  "type": "FeatureCollection",
  "features": [
    {
      "type": "Feature",
      "id": "poi-1",
      "properties": {
        "name": "Town Hall",
        "category": "administration",
        "website": "https://example.org/town-hall",
        "photo": "https://picsum.photos/seed/townhall/320/180"
      },
      "geometry": { "type": "Point", "coordinates": [-16.62, 28.29] }
    },
    {
      "type": "Feature",
      "id": "poi-2",
      "properties": { "name": "March Fair", "category": "event", "temporal": { "instant": "2026-03-14" } },
      "geometry": { "type": "Point", "coordinates": [-16.615, 28.285] }
    },
    {
      "type": "Feature",
      "id": "poi-3",
      "properties": {
        "name": "Old Shop",
        "category": "commerce",
        "temporal": { "range": { "from": "2018-01-01", "to": "2023-06-30" } }
      },
      "geometry": { "type": "Point", "coordinates": [-16.625, 28.292] }
    },
    {
      "type": "Feature",
      "id": "poi-4",
      "properties": {
        "name": "Sunday Market",
        "category": "market",
        "temporal": { "recurrence": { "rule": "FREQ=WEEKLY;BYDAY=SU" } }
      },
      "geometry": { "type": "Point", "coordinates": [-16.618, 28.288] }
    },
    {
      "type": "Feature",
      "id": "poi-5",
      "properties": {
        "name": "Temporary Market",
        "category": "market",
        "temporal": {
          "range": { "from": "2024-01-01", "to": "2024-12-31" },
          "recurrence": { "rule": "FREQ=WEEKLY;BYDAY=SA" }
        }
      },
      "geometry": { "type": "Point", "coordinates": [-16.63, 28.28] }
    }
  ]
}
