{
  "type": "FeatureCollection",
  "features": [
    {
      "type": "Feature",
      "id": "2026-07-01T2225-5cd029",
      "properties": {
        "title": "Suedthueringen",
        "date": "2026-07-01T22:25:00+02:00",
        "tags": [
          "Suedthueringen"
        ],
        "user": "me",
        "image": "worlds/moon-map-photos/assets/photos/2026-07-01T2225-5cd029.jpg",
        "thumb": "worlds/moon-map-photos/assets/photos/thumbs/2026-07-01T2225-5cd029.jpg",
        "moonPhaseDay": 17,
        "moonPhaseIcon": "worlds/moon-map-photos/assets/moon/day-17.svg",
        "moonPhaseLabel": "Gibosa Menguante",
        "temporal": {
          "instant": "2026-07-01"
        }
      },
      "geometry": {
        "type": "Point",
        "coordinates": [
          10.9,
          50.6
        ]
      }
    },
    {
      "type": "Feature",
      "id": "2026-07-01T2225-c71c9e",
      "properties": {
        "title": "Suedthueringen",
        "date": "2026-07-01T22:25:00+02:00",
        "tags": [
          "Suedthueringen"
        ],
        "user": "me",
        "image": "worlds/moon-map-photos/assets/photos/2026-07-01T2225-c71c9e.jpg",
        "thumb": "worlds/moon-map-photos/assets/photos/thumbs/2026-07-01T2225-c71c9e.jpg",
        "moonPhaseDay": 17,
        "moonPhaseIcon": "worlds/moon-map-photos/assets/moon/day-17.svg",
        "moonPhaseLabel": "Gibosa Menguante",
        "temporal": {
          "instant": "2026-07-01"
        }
      },
      "geometry": {
        "type": "Point",
        "coordinates": [
          10.9,
          50.6
        ]
      }
    },
    {
      "type": "Feature",
      "id": "2026-07-02T2227-b106dc",
      "properties": {
        "title": "Suedthueringen",
        "date": "2026-07-02T22:27:00+02:00",
        "tags": [
          "Suedthueringen"
        ],
        "user": "me",
        "image": "worlds/moon-map-photos/assets/photos/2026-07-02T2227-b106dc.jpg",
        "thumb": "worlds/moon-map-photos/assets/photos/thumbs/2026-07-02T2227-b106dc.jpg",
        "moonPhaseDay": 18,
        "moonPhaseIcon": "worlds/moon-map-photos/assets/moon/day-18.svg",
        "moonPhaseLabel": "Gibosa Menguante",
        "temporal": {
          "instant": "2026-07-02"
        }
      },
      "geometry": {
        "type": "Point",
        "coordinates": [
          10.9,
          50.6
        ]
      }
    },
    {
      "type": "Feature",
      "id": "2026-07-02T2228-d89a2a",
      "properties": {
        "title": "Suedthueringen",
        "date": "2026-07-02T22:28:00+02:00",
        "tags": [
          "Suedthueringen"
        ],
        "user": "me",
        "image": "worlds/moon-map-photos/assets/photos/2026-07-02T2228-d89a2a.jpg",
        "thumb": "worlds/moon-map-photos/assets/photos/thumbs/2026-07-02T2228-d89a2a.jpg",
        "moonPhaseDay": 18,
        "moonPhaseIcon": "worlds/moon-map-photos/assets/moon/day-18.svg",
        "moonPhaseLabel": "Gibosa Menguante",
        "temporal": {
          "instant": "2026-07-02"
        }
      },
      "geometry": {
        "type": "Point",
        "coordinates": [
          10.9,
          50.6
        ]
      }
    },
    {
      "type": "Feature",
      "id": "2026-07-02T2228-6c2643",
      "properties": {
        "title": "Suedthueringen",
        "date": "2026-07-02T22:28:00+02:00",
        "tags": [
          "Suedthueringen"
        ],
        "user": "me",
        "image": "worlds/moon-map-photos/assets/photos/2026-07-02T2228-6c2643.jpg",
        "thumb": "worlds/moon-map-photos/assets/photos/thumbs/2026-07-02T2228-6c2643.jpg",
        "moonPhaseDay": 18,
        "moonPhaseIcon": "worlds/moon-map-photos/assets/moon/day-18.svg",
        "moonPhaseLabel": "Gibosa Menguante",
        "temporal": {
          "instant": "2026-07-02"
        }
      },
      "geometry": {
        "type": "Point",
        "coordinates": [
          10.9,
          50.6
        ]
      }
    },
    {
      "type": "Feature",
      "id": "2026-07-03T0102-08b131",
      "properties": {
        "title": "Suedthueringen",
        "date": "2026-07-03T01:02:00+02:00",
        "tags": [
          "Suedthueringen"
        ],
        "user": "me",
        "image": "worlds/moon-map-photos/assets/photos/2026-07-03T0102-08b131.jpg",
        "thumb": "worlds/moon-map-photos/assets/photos/thumbs/2026-07-03T0102-08b131.jpg",
        "moonPhaseDay": 18,
        "moonPhaseIcon": "worlds/moon-map-photos/assets/moon/day-18.svg",
        "moonPhaseLabel": "Gibosa Menguante",
        "temporal": {
          "instant": "2026-07-03"
        }
      },
      "geometry": {
        "type": "Point",
        "coordinates": [
          10.9,
          50.6
        ]
      }
    },
    {
      "type": "Feature",
      "id": "2026-07-03T2248-332250",
      "properties": {
        "title": "Suedthueringen",
        "date": "2026-07-03T22:48:00+02:00",
        "tags": [
          "Suedthueringen"
        ],
        "user": "me",
        "image": "worlds/moon-map-photos/assets/photos/2026-07-03T2248-332250.jpg",
        "thumb": "worlds/moon-map-photos/assets/photos/thumbs/2026-07-03T2248-332250.jpg",
        "moonPhaseDay": 19,
        "moonPhaseIcon": "worlds/moon-map-photos/assets/moon/day-19.svg",
        "moonPhaseLabel": "Gibosa Menguante",
        "temporal": {
          "instant": "2026-07-03"
        }
      },
      "geometry": {
        "type": "Point",
        "coordinates": [
          10.9,
          50.6
        ]
      }
    },
    {
      "type": "Feature",
      "id": "2026-07-03T2302-f74783",
      "properties": {
        "title": "Asturias",
        "date": "2026-07-03T23:02:00+02:00",
        "tags": [
          "Asturias"
        ],
        "user": "me",
        "image": "worlds/moon-map-photos/assets/photos/2026-07-03T2302-f74783.jpg",
        "thumb": "worlds/moon-map-photos/assets/photos/thumbs/2026-07-03T2302-f74783.jpg",
        "moonPhaseDay": 19,
        "moonPhaseIcon": "worlds/moon-map-photos/assets/moon/day-19.svg",
        "moonPhaseLabel": "Gibosa Menguante",
        "temporal": {
          "instant": "2026-07-03"
        }
      },
      "geometry": {
        "type": "Point",
        "coordinates": [
          -6,
          43.3
        ]
      }
    },
    {
      "type": "Feature",
      "id": "2026-07-04T0038-1095be",
      "properties": {
        "title": "Suedthueringen",
        "date": "2026-07-04T00:38:00+02:00",
        "tags": [
          "Suedthueringen"
        ],
        "user": "me",
        "image": "worlds/moon-map-photos/assets/photos/2026-07-04T0038-1095be.jpg",
        "thumb": "worlds/moon-map-photos/assets/photos/thumbs/2026-07-04T0038-1095be.jpg",
        "moonPhaseDay": 19,
        "moonPhaseIcon": "worlds/moon-map-photos/assets/moon/day-19.svg",
        "moonPhaseLabel": "Gibosa Menguante",
        "temporal": {
          "instant": "2026-07-04"
        }
      },
      "geometry": {
        "type": "Point",
        "coordinates": [
          10.9,
          50.6
        ]
      }
    },
    {
      "type": "Feature",
      "id": "2026-07-04T0319-438bcc",
      "properties": {
        "title": "Asturias",
        "date": "2026-07-04T03:19:00+02:00",
        "tags": [
          "Asturias"
        ],
        "user": "me",
        "image": "worlds/moon-map-photos/assets/photos/2026-07-04T0319-438bcc.jpg",
        "thumb": "worlds/moon-map-photos/assets/photos/thumbs/2026-07-04T0319-438bcc.jpg",
        "moonPhaseDay": 19,
        "moonPhaseIcon": "worlds/moon-map-photos/assets/moon/day-19.svg",
        "moonPhaseLabel": "Gibosa Menguante",
        "temporal": {
          "instant": "2026-07-04"
        }
      },
      "geometry": {
        "type": "Point",
        "coordinates": [
          -6,
          43.3
        ]
      }
    },
    {
      "type": "Feature",
      "id": "2026-07-04T0320-30c0c4",
      "properties": {
        "title": "Suedthueringen",
        "date": "2026-07-04T03:20:00+02:00",
        "tags": [
          "Suedthueringen"
        ],
        "user": "me",
        "image": "worlds/moon-map-photos/assets/photos/2026-07-04T0320-30c0c4.jpg",
        "thumb": "worlds/moon-map-photos/assets/photos/thumbs/2026-07-04T0320-30c0c4.jpg",
        "moonPhaseDay": 19,
        "moonPhaseIcon": "worlds/moon-map-photos/assets/moon/day-19.svg",
        "moonPhaseLabel": "Gibosa Menguante",
        "temporal": {
          "instant": "2026-07-04"
        }
      },
      "geometry": {
        "type": "Point",
        "coordinates": [
          10.9,
          50.6
        ]
      }
    },
    {
      "type": "Feature",
      "id": "2026-07-04T2258-47920a",
      "properties": {
        "title": "Asturias",
        "date": "2026-07-04T22:58:00+02:00",
        "tags": [
          "Asturias"
        ],
        "user": "me",
        "image": "worlds/moon-map-photos/assets/photos/2026-07-04T2258-47920a.jpg",
        "thumb": "worlds/moon-map-photos/assets/photos/thumbs/2026-07-04T2258-47920a.jpg",
        "moonPhaseDay": 20,
        "moonPhaseIcon": "worlds/moon-map-photos/assets/moon/day-20.svg",
        "moonPhaseLabel": "Gibosa Menguante",
        "temporal": {
          "instant": "2026-07-04"
        }
      },
      "geometry": {
        "type": "Point",
        "coordinates": [
          -6,
          43.3
        ]
      }
    },
    {
      "type": "Feature",
      "id": "2026-07-04T2300-e8dd9f",
      "properties": {
        "title": "Suedthueringen",
        "date": "2026-07-04T23:00:00+02:00",
        "tags": [
          "Suedthueringen"
        ],
        "user": "me",
        "image": "worlds/moon-map-photos/assets/photos/2026-07-04T2300-e8dd9f.jpg",
        "thumb": "worlds/moon-map-photos/assets/photos/thumbs/2026-07-04T2300-e8dd9f.jpg",
        "moonPhaseDay": 20,
        "moonPhaseIcon": "worlds/moon-map-photos/assets/moon/day-20.svg",
        "moonPhaseLabel": "Gibosa Menguante",
        "temporal": {
          "instant": "2026-07-04"
        }
      },
      "geometry": {
        "type": "Point",
        "coordinates": [
          10.9,
          50.6
        ]
      }
    },
    {
      "type": "Feature",
      "id": "2026-07-04T2302-592189",
      "properties": {
        "title": "Asturias",
        "date": "2026-07-04T23:02:00+02:00",
        "tags": [
          "Asturias"
        ],
        "user": "me",
        "image": "worlds/moon-map-photos/assets/photos/2026-07-04T2302-592189.jpg",
        "thumb": "worlds/moon-map-photos/assets/photos/thumbs/2026-07-04T2302-592189.jpg",
        "moonPhaseDay": 20,
        "moonPhaseIcon": "worlds/moon-map-photos/assets/moon/day-20.svg",
        "moonPhaseLabel": "Gibosa Menguante",
        "temporal": {
          "instant": "2026-07-04"
        }
      },
      "geometry": {
        "type": "Point",
        "coordinates": [
          -6,
          43.3
        ]
      }
    },
    {
      "type": "Feature",
      "id": "2026-07-04T2303-83c4a5",
      "properties": {
        "title": "Suedthueringen",
        "date": "2026-07-04T23:03:00+02:00",
        "tags": [
          "Suedthueringen"
        ],
        "user": "me",
        "image": "worlds/moon-map-photos/assets/photos/2026-07-04T2303-83c4a5.jpg",
        "thumb": "worlds/moon-map-photos/assets/photos/thumbs/2026-07-04T2303-83c4a5.jpg",
        "moonPhaseDay": 20,
        "moonPhaseIcon": "worlds/moon-map-photos/assets/moon/day-20.svg",
        "moonPhaseLabel": "Gibosa Menguante",
        "temporal": {
          "instant": "2026-07-04"
        }
      },
      "geometry": {
        "type": "Point",
        "coordinates": [
          10.9,
          50.6
        ]
      }
    },
    {
      "type": "Feature",
      "id": "2026-07-05T0003-99e772",
      "properties": {
        "title": "Asturias",
        "date": "2026-07-05T00:03:00+02:00",
        "tags": [
          "Asturias"
        ],
        "user": "me",
        "image": "worlds/moon-map-photos/assets/photos/2026-07-05T0003-99e772.jpg",
        "thumb": "worlds/moon-map-photos/assets/photos/thumbs/2026-07-05T0003-99e772.jpg",
        "moonPhaseDay": 20,
        "moonPhaseIcon": "worlds/moon-map-photos/assets/moon/day-20.svg",
        "moonPhaseLabel": "Gibosa Menguante",
        "temporal": {
          "instant": "2026-07-05"
        }
      },
      "geometry": {
        "type": "Point",
        "coordinates": [
          -6,
          43.3
        ]
      }
    },
    {
      "type": "Feature",
      "id": "2026-07-05T0552-2ef101",
      "properties": {
        "title": "Suedthueringen",
        "date": "2026-07-05T05:52:00+02:00",
        "tags": [
          "Suedthueringen"
        ],
        "user": "me",
        "image": "worlds/moon-map-photos/assets/photos/2026-07-05T0552-2ef101.jpg",
        "thumb": "worlds/moon-map-photos/assets/photos/thumbs/2026-07-05T0552-2ef101.jpg",
        "moonPhaseDay": 20,
        "moonPhaseIcon": "worlds/moon-map-photos/assets/moon/day-20.svg",
        "moonPhaseLabel": "Gibosa Menguante",
        "temporal": {
          "instant": "2026-07-05"
        }
      },
      "geometry": {
        "type": "Point",
        "coordinates": [
          10.9,
          50.6
        ]
      }
    },
    {
      "type": "Feature",
      "id": "2026-07-05T0553-d71484",
      "properties": {
        "title": "Suedthueringen",
        "date": "2026-07-05T05:53:00+02:00",
        "tags": [
          "Suedthueringen"
        ],
        "user": "me",
        "image": "worlds/moon-map-photos/assets/photos/2026-07-05T0553-d71484.jpg",
        "thumb": "worlds/moon-map-photos/assets/photos/thumbs/2026-07-05T0553-d71484.jpg",
        "moonPhaseDay": 20,
        "moonPhaseIcon": "worlds/moon-map-photos/assets/moon/day-20.svg",
        "moonPhaseLabel": "Gibosa Menguante",
        "temporal": {
          "instant": "2026-07-05"
        }
      },
      "geometry": {
        "type": "Point",
        "coordinates": [
          10.9,
          50.6
        ]
      }
    },
    {
      "type": "Feature",
      "id": "2026-07-05T0554-8e8424",
      "properties": {
        "title": "Suedthueringen",
        "date": "2026-07-05T05:54:00+02:00",
        "tags": [
          "Suedthueringen"
        ],
        "user": "me",
        "image": "worlds/moon-map-photos/assets/photos/2026-07-05T0554-8e8424.jpg",
        "thumb": "worlds/moon-map-photos/assets/photos/thumbs/2026-07-05T0554-8e8424.jpg",
        "moonPhaseDay": 20,
        "moonPhaseIcon": "worlds/moon-map-photos/assets/moon/day-20.svg",
        "moonPhaseLabel": "Gibosa Menguante",
        "temporal": {
          "instant": "2026-07-05"
        }
      },
      "geometry": {
        "type": "Point",
        "coordinates": [
          10.9,
          50.6
        ]
      }
    },
    {
      "type": "Feature",
      "id": "2026-07-05T0554-13ad81",
      "properties": {
        "title": "Suedthueringen",
        "date": "2026-07-05T05:54:00+02:00",
        "tags": [
          "Suedthueringen"
        ],
        "user": "me",
        "image": "worlds/moon-map-photos/assets/photos/2026-07-05T0554-13ad81.jpg",
        "thumb": "worlds/moon-map-photos/assets/photos/thumbs/2026-07-05T0554-13ad81.jpg",
        "moonPhaseDay": 20,
        "moonPhaseIcon": "worlds/moon-map-photos/assets/moon/day-20.svg",
        "moonPhaseLabel": "Gibosa Menguante",
        "temporal": {
          "instant": "2026-07-05"
        }
      },
      "geometry": {
        "type": "Point",
        "coordinates": [
          10.9,
          50.6
        ]
      }
    },
    {
      "type": "Feature",
      "id": "2026-07-05T0754-285309",
      "properties": {
        "title": "Asturias",
        "date": "2026-07-05T07:54:00+02:00",
        "tags": [
          "Asturias"
        ],
        "user": "me",
        "image": "worlds/moon-map-photos/assets/photos/2026-07-05T0754-285309.jpg",
        "thumb": "worlds/moon-map-photos/assets/photos/thumbs/2026-07-05T0754-285309.jpg",
        "moonPhaseDay": 20,
        "moonPhaseIcon": "worlds/moon-map-photos/assets/moon/day-20.svg",
        "moonPhaseLabel": "Gibosa Menguante",
        "temporal": {
          "instant": "2026-07-05"
        }
      },
      "geometry": {
        "type": "Point",
        "coordinates": [
          -6,
          43.3
        ]
      }
    },
    {
      "type": "Feature",
      "id": "2026-07-05T0756-f05b41",
      "properties": {
        "title": "Asturias",
        "date": "2026-07-05T07:56:00+02:00",
        "tags": [
          "Asturias"
        ],
        "user": "me",
        "image": "worlds/moon-map-photos/assets/photos/2026-07-05T0756-f05b41.jpg",
        "thumb": "worlds/moon-map-photos/assets/photos/thumbs/2026-07-05T0756-f05b41.jpg",
        "moonPhaseDay": 20,
        "moonPhaseIcon": "worlds/moon-map-photos/assets/moon/day-20.svg",
        "moonPhaseLabel": "Gibosa Menguante",
        "temporal": {
          "instant": "2026-07-05"
        }
      },
      "geometry": {
        "type": "Point",
        "coordinates": [
          -6,
          43.3
        ]
      }
    },
    {
      "type": "Feature",
      "id": "2026-07-05T2344-5d9f6d",
      "properties": {
        "title": "Asturias",
        "date": "2026-07-05T23:44:00+02:00",
        "tags": [
          "Asturias"
        ],
        "user": "me",
        "image": "worlds/moon-map-photos/assets/photos/2026-07-05T2344-5d9f6d.jpg",
        "thumb": "worlds/moon-map-photos/assets/photos/thumbs/2026-07-05T2344-5d9f6d.jpg",
        "moonPhaseDay": 21,
        "moonPhaseIcon": "worlds/moon-map-photos/assets/moon/day-21.svg",
        "moonPhaseLabel": "Gibosa Menguante",
        "temporal": {
          "instant": "2026-07-05"
        }
      },
      "geometry": {
        "type": "Point",
        "coordinates": [
          -6,
          43.3
        ]
      }
    },
    {
      "type": "Feature",
      "id": "2026-07-05T2345-92f4fe",
      "properties": {
        "title": "Suedthueringen",
        "date": "2026-07-05T23:45:00+02:00",
        "tags": [
          "Suedthueringen"
        ],
        "user": "me",
        "image": "worlds/moon-map-photos/assets/photos/2026-07-05T2345-92f4fe.jpg",
        "thumb": "worlds/moon-map-photos/assets/photos/thumbs/2026-07-05T2345-92f4fe.jpg",
        "moonPhaseDay": 21,
        "moonPhaseIcon": "worlds/moon-map-photos/assets/moon/day-21.svg",
        "moonPhaseLabel": "Gibosa Menguante",
        "temporal": {
          "instant": "2026-07-05"
        }
      },
      "geometry": {
        "type": "Point",
        "coordinates": [
          10.9,
          50.6
        ]
      }
    },
    {
      "type": "Feature",
      "id": "2026-07-06T0159-756ac6",
      "properties": {
        "title": "Suedthueringen",
        "date": "2026-07-06T01:59:00+02:00",
        "tags": [
          "Suedthueringen"
        ],
        "user": "me",
        "image": "worlds/moon-map-photos/assets/photos/2026-07-06T0159-756ac6.jpg",
        "thumb": "worlds/moon-map-photos/assets/photos/thumbs/2026-07-06T0159-756ac6.jpg",
        "moonPhaseDay": 21,
        "moonPhaseIcon": "worlds/moon-map-photos/assets/moon/day-21.svg",
        "moonPhaseLabel": "Gibosa Menguante",
        "temporal": {
          "instant": "2026-07-06"
        }
      },
      "geometry": {
        "type": "Point",
        "coordinates": [
          10.9,
          50.6
        ]
      }
    },
    {
      "type": "Feature",
      "id": "2026-07-06T0159-6ce83c",
      "properties": {
        "title": "Suedthueringen",
        "date": "2026-07-06T01:59:00+02:00",
        "tags": [
          "Suedthueringen"
        ],
        "user": "me",
        "image": "worlds/moon-map-photos/assets/photos/2026-07-06T0159-6ce83c.jpg",
        "thumb": "worlds/moon-map-photos/assets/photos/thumbs/2026-07-06T0159-6ce83c.jpg",
        "moonPhaseDay": 21,
        "moonPhaseIcon": "worlds/moon-map-photos/assets/moon/day-21.svg",
        "moonPhaseLabel": "Gibosa Menguante",
        "temporal": {
          "instant": "2026-07-06"
        }
      },
      "geometry": {
        "type": "Point",
        "coordinates": [
          10.9,
          50.6
        ]
      }
    },
    {
      "type": "Feature",
      "id": "2026-07-06T0200-540272",
      "properties": {
        "title": "Suedthueringen",
        "date": "2026-07-06T02:00:00+02:00",
        "tags": [
          "Suedthueringen"
        ],
        "user": "me",
        "image": "worlds/moon-map-photos/assets/photos/2026-07-06T0200-540272.jpg",
        "thumb": "worlds/moon-map-photos/assets/photos/thumbs/2026-07-06T0200-540272.jpg",
        "moonPhaseDay": 21,
        "moonPhaseIcon": "worlds/moon-map-photos/assets/moon/day-21.svg",
        "moonPhaseLabel": "Gibosa Menguante",
        "temporal": {
          "instant": "2026-07-06"
        }
      },
      "geometry": {
        "type": "Point",
        "coordinates": [
          10.9,
          50.6
        ]
      }
    },
    {
      "type": "Feature",
      "id": "2026-07-06T0200-36eb74",
      "properties": {
        "title": "Suedthueringen",
        "date": "2026-07-06T02:00:00+02:00",
        "tags": [
          "Suedthueringen"
        ],
        "user": "me",
        "image": "worlds/moon-map-photos/assets/photos/2026-07-06T0200-36eb74.jpg",
        "thumb": "worlds/moon-map-photos/assets/photos/thumbs/2026-07-06T0200-36eb74.jpg",
        "moonPhaseDay": 21,
        "moonPhaseIcon": "worlds/moon-map-photos/assets/moon/day-21.svg",
        "moonPhaseLabel": "Gibosa Menguante",
        "temporal": {
          "instant": "2026-07-06"
        }
      },
      "geometry": {
        "type": "Point",
        "coordinates": [
          10.9,
          50.6
        ]
      }
    },
    {
      "type": "Feature",
      "id": "2026-07-06T0200-04417d",
      "properties": {
        "title": "Suedthueringen",
        "date": "2026-07-06T02:00:00+02:00",
        "tags": [
          "Suedthueringen"
        ],
        "user": "me",
        "image": "worlds/moon-map-photos/assets/photos/2026-07-06T0200-04417d.jpg",
        "thumb": "worlds/moon-map-photos/assets/photos/thumbs/2026-07-06T0200-04417d.jpg",
        "moonPhaseDay": 21,
        "moonPhaseIcon": "worlds/moon-map-photos/assets/moon/day-21.svg",
        "moonPhaseLabel": "Gibosa Menguante",
        "temporal": {
          "instant": "2026-07-06"
        }
      },
      "geometry": {
        "type": "Point",
        "coordinates": [
          10.9,
          50.6
        ]
      }
    },
    {
      "type": "Feature",
      "id": "2026-07-06T0639-1c0d1a",
      "properties": {
        "title": "Asturias",
        "date": "2026-07-06T06:39:00+02:00",
        "tags": [
          "Asturias"
        ],
        "user": "me",
        "image": "worlds/moon-map-photos/assets/photos/2026-07-06T0639-1c0d1a.jpg",
        "thumb": "worlds/moon-map-photos/assets/photos/thumbs/2026-07-06T0639-1c0d1a.jpg",
        "moonPhaseDay": 21,
        "moonPhaseIcon": "worlds/moon-map-photos/assets/moon/day-21.svg",
        "moonPhaseLabel": "Gibosa Menguante",
        "temporal": {
          "instant": "2026-07-06"
        }
      },
      "geometry": {
        "type": "Point",
        "coordinates": [
          -6,
          43.3
        ]
      }
    },
    {
      "type": "Feature",
      "id": "2026-07-06T0641-52563d",
      "properties": {
        "title": "Asturias",
        "date": "2026-07-06T06:41:00+02:00",
        "tags": [
          "Asturias"
        ],
        "user": "me",
        "image": "worlds/moon-map-photos/assets/photos/2026-07-06T0641-52563d.jpg",
        "thumb": "worlds/moon-map-photos/assets/photos/thumbs/2026-07-06T0641-52563d.jpg",
        "moonPhaseDay": 21,
        "moonPhaseIcon": "worlds/moon-map-photos/assets/moon/day-21.svg",
        "moonPhaseLabel": "Gibosa Menguante",
        "temporal": {
          "instant": "2026-07-06"
        }
      },
      "geometry": {
        "type": "Point",
        "coordinates": [
          -6,
          43.3
        ]
      }
    },
    {
      "type": "Feature",
      "id": "2026-07-16T1712-3d3dee",
      "properties": {
        "title": "Suedthueringen",
        "date": "2026-07-16T17:12:00+02:00",
        "tags": [
          "Suedthueringen"
        ],
        "user": "me",
        "image": "worlds/moon-map-photos/assets/photos/2026-07-16T1712-3d3dee.jpg",
        "thumb": "worlds/moon-map-photos/assets/photos/thumbs/2026-07-16T1712-3d3dee.jpg",
        "moonPhaseDay": 2,
        "moonPhaseIcon": "worlds/moon-map-photos/assets/moon/day-02.svg",
        "moonPhaseLabel": "Creciente",
        "temporal": {
          "instant": "2026-07-16"
        }
      },
      "geometry": {
        "type": "Point",
        "coordinates": [
          10.9,
          50.6
        ]
      }
    },
    {
      "type": "Feature",
      "id": "2026-07-18T2105-a1c92e",
      "properties": {
        "title": "Suedthueringen",
        "date": "2026-07-18T21:05:00+02:00",
        "tags": [
          "Suedthueringen"
        ],
        "user": "me",
        "image": "worlds/moon-map-photos/assets/photos/2026-07-18T2105-a1c92e.jpg",
        "thumb": "worlds/moon-map-photos/assets/photos/thumbs/2026-07-18T2105-a1c92e.jpg",
        "moonPhaseDay": 4,
        "moonPhaseIcon": "worlds/moon-map-photos/assets/moon/day-04.svg",
        "moonPhaseLabel": "Creciente",
        "temporal": {
          "instant": "2026-07-18"
        }
      },
      "geometry": {
        "type": "Point",
        "coordinates": [
          10.9,
          50.6
        ]
      }
    },
    {
      "type": "Feature",
      "id": "2026-07-18T2106-b3df5a",
      "properties": {
        "title": "Suedthueringen",
        "date": "2026-07-18T21:06:00+02:00",
        "tags": [
          "Suedthueringen"
        ],
        "user": "me",
        "image": "worlds/moon-map-photos/assets/photos/2026-07-18T2106-b3df5a.jpg",
        "thumb": "worlds/moon-map-photos/assets/photos/thumbs/2026-07-18T2106-b3df5a.jpg",
        "moonPhaseDay": 4,
        "moonPhaseIcon": "worlds/moon-map-photos/assets/moon/day-04.svg",
        "moonPhaseLabel": "Creciente",
        "temporal": {
          "instant": "2026-07-18"
        }
      },
      "geometry": {
        "type": "Point",
        "coordinates": [
          10.9,
          50.6
        ]
      }
    },
    {
      "type": "Feature",
      "id": "2026-07-18T2122-1f052c",
      "properties": {
        "title": "Suedthueringen",
        "date": "2026-07-18T21:22:00+02:00",
        "tags": [
          "Suedthueringen"
        ],
        "user": "me",
        "image": "worlds/moon-map-photos/assets/photos/2026-07-18T2122-1f052c.jpg",
        "thumb": "worlds/moon-map-photos/assets/photos/thumbs/2026-07-18T2122-1f052c.jpg",
        "moonPhaseDay": 4,
        "moonPhaseIcon": "worlds/moon-map-photos/assets/moon/day-04.svg",
        "moonPhaseLabel": "Creciente",
        "temporal": {
          "instant": "2026-07-18"
        }
      },
      "geometry": {
        "type": "Point",
        "coordinates": [
          10.9,
          50.6
        ]
      }
    },
    {
      "type": "Feature",
      "id": "2026-07-18T2123-7dbcab",
      "properties": {
        "title": "Suedthueringen",
        "date": "2026-07-18T21:23:00+02:00",
        "tags": [
          "Suedthueringen"
        ],
        "user": "me",
        "image": "worlds/moon-map-photos/assets/photos/2026-07-18T2123-7dbcab.jpg",
        "thumb": "worlds/moon-map-photos/assets/photos/thumbs/2026-07-18T2123-7dbcab.jpg",
        "moonPhaseDay": 4,
        "moonPhaseIcon": "worlds/moon-map-photos/assets/moon/day-04.svg",
        "moonPhaseLabel": "Creciente",
        "temporal": {
          "instant": "2026-07-18"
        }
      },
      "geometry": {
        "type": "Point",
        "coordinates": [
          10.9,
          50.6
        ]
      }
    },
    {
      "type": "Feature",
      "id": "2026-07-18T2123-675cb0",
      "properties": {
        "title": "Suedthueringen",
        "date": "2026-07-18T21:23:00+02:00",
        "tags": [
          "Suedthueringen"
        ],
        "user": "me",
        "image": "worlds/moon-map-photos/assets/photos/2026-07-18T2123-675cb0.jpg",
        "thumb": "worlds/moon-map-photos/assets/photos/thumbs/2026-07-18T2123-675cb0.jpg",
        "moonPhaseDay": 4,
        "moonPhaseIcon": "worlds/moon-map-photos/assets/moon/day-04.svg",
        "moonPhaseLabel": "Creciente",
        "temporal": {
          "instant": "2026-07-18"
        }
      },
      "geometry": {
        "type": "Point",
        "coordinates": [
          10.9,
          50.6
        ]
      }
    },
    {
      "type": "Feature",
      "id": "2026-07-18T2145-058db1",
      "properties": {
        "title": "Suedthueringen",
        "date": "2026-07-18T21:45:00+02:00",
        "tags": [
          "Suedthueringen"
        ],
        "user": "me",
        "image": "worlds/moon-map-photos/assets/photos/2026-07-18T2145-058db1.jpg",
        "thumb": "worlds/moon-map-photos/assets/photos/thumbs/2026-07-18T2145-058db1.jpg",
        "moonPhaseDay": 4,
        "moonPhaseIcon": "worlds/moon-map-photos/assets/moon/day-04.svg",
        "moonPhaseLabel": "Creciente",
        "temporal": {
          "instant": "2026-07-18"
        }
      },
      "geometry": {
        "type": "Point",
        "coordinates": [
          10.9,
          50.6
        ]
      }
    },
    {
      "type": "Feature",
      "id": "2026-07-18T2146-74ab5f",
      "properties": {
        "title": "Suedthueringen",
        "date": "2026-07-18T21:46:00+02:00",
        "tags": [
          "Suedthueringen"
        ],
        "user": "me",
        "image": "worlds/moon-map-photos/assets/photos/2026-07-18T2146-74ab5f.jpg",
        "thumb": "worlds/moon-map-photos/assets/photos/thumbs/2026-07-18T2146-74ab5f.jpg",
        "moonPhaseDay": 4,
        "moonPhaseIcon": "worlds/moon-map-photos/assets/moon/day-04.svg",
        "moonPhaseLabel": "Creciente",
        "temporal": {
          "instant": "2026-07-18"
        }
      },
      "geometry": {
        "type": "Point",
        "coordinates": [
          10.9,
          50.6
        ]
      }
    },
    {
      "type": "Feature",
      "id": "2026-07-19T2127-a62c87",
      "properties": {
        "title": "Suedthueringen",
        "date": "2026-07-19T21:27:00+02:00",
        "tags": [
          "Suedthueringen"
        ],
        "user": "me",
        "image": "worlds/moon-map-photos/assets/photos/2026-07-19T2127-a62c87.jpg",
        "thumb": "worlds/moon-map-photos/assets/photos/thumbs/2026-07-19T2127-a62c87.jpg",
        "moonPhaseDay": 5,
        "moonPhaseIcon": "worlds/moon-map-photos/assets/moon/day-05.svg",
        "moonPhaseLabel": "Creciente",
        "temporal": {
          "instant": "2026-07-19"
        }
      },
      "geometry": {
        "type": "Point",
        "coordinates": [
          10.9,
          50.6
        ]
      }
    },
    {
      "type": "Feature",
      "id": "2026-07-19T2153-1041a3",
      "properties": {
        "title": "Suedthueringen",
        "date": "2026-07-19T21:53:00+02:00",
        "tags": [
          "Suedthueringen"
        ],
        "user": "me",
        "image": "worlds/moon-map-photos/assets/photos/2026-07-19T2153-1041a3.jpg",
        "thumb": "worlds/moon-map-photos/assets/photos/thumbs/2026-07-19T2153-1041a3.jpg",
        "moonPhaseDay": 5,
        "moonPhaseIcon": "worlds/moon-map-photos/assets/moon/day-05.svg",
        "moonPhaseLabel": "Creciente",
        "temporal": {
          "instant": "2026-07-19"
        }
      },
      "geometry": {
        "type": "Point",
        "coordinates": [
          10.9,
          50.6
        ]
      }
    },
    {
      "type": "Feature",
      "id": "2026-07-19T2153-85044a",
      "properties": {
        "title": "Suedthueringen",
        "date": "2026-07-19T21:53:00+02:00",
        "tags": [
          "Suedthueringen"
        ],
        "user": "me",
        "image": "worlds/moon-map-photos/assets/photos/2026-07-19T2153-85044a.jpg",
        "thumb": "worlds/moon-map-photos/assets/photos/thumbs/2026-07-19T2153-85044a.jpg",
        "moonPhaseDay": 5,
        "moonPhaseIcon": "worlds/moon-map-photos/assets/moon/day-05.svg",
        "moonPhaseLabel": "Creciente",
        "temporal": {
          "instant": "2026-07-19"
        }
      },
      "geometry": {
        "type": "Point",
        "coordinates": [
          10.9,
          50.6
        ]
      }
    },
    {
      "type": "Feature",
      "id": "2026-07-19T2153-36516b",
      "properties": {
        "title": "Suedthueringen",
        "date": "2026-07-19T21:53:00+02:00",
        "tags": [
          "Suedthueringen"
        ],
        "user": "me",
        "image": "worlds/moon-map-photos/assets/photos/2026-07-19T2153-36516b.jpg",
        "thumb": "worlds/moon-map-photos/assets/photos/thumbs/2026-07-19T2153-36516b.jpg",
        "moonPhaseDay": 5,
        "moonPhaseIcon": "worlds/moon-map-photos/assets/moon/day-05.svg",
        "moonPhaseLabel": "Creciente",
        "temporal": {
          "instant": "2026-07-19"
        }
      },
      "geometry": {
        "type": "Point",
        "coordinates": [
          10.9,
          50.6
        ]
      }
    },
    {
      "type": "Feature",
      "id": "2026-07-20T1348-aa18ab",
      "properties": {
        "title": "Suedthueringen",
        "date": "2026-07-20T13:48:00+02:00",
        "tags": [
          "Suedthueringen"
        ],
        "user": "me",
        "image": "worlds/moon-map-photos/assets/photos/2026-07-20T1348-aa18ab.jpg",
        "thumb": "worlds/moon-map-photos/assets/photos/thumbs/2026-07-20T1348-aa18ab.jpg",
        "moonPhaseDay": 6,
        "moonPhaseIcon": "worlds/moon-map-photos/assets/moon/day-06.svg",
        "moonPhaseLabel": "Creciente",
        "temporal": {
          "instant": "2026-07-20"
        }
      },
      "geometry": {
        "type": "Point",
        "coordinates": [
          10.9,
          50.6
        ]
      }
    },
    {
      "type": "Feature",
      "id": "2026-07-20T1348-27b3bd",
      "properties": {
        "title": "Suedthueringen",
        "date": "2026-07-20T13:48:00+02:00",
        "tags": [
          "Suedthueringen"
        ],
        "user": "me",
        "image": "worlds/moon-map-photos/assets/photos/2026-07-20T1348-27b3bd.jpg",
        "thumb": "worlds/moon-map-photos/assets/photos/thumbs/2026-07-20T1348-27b3bd.jpg",
        "moonPhaseDay": 6,
        "moonPhaseIcon": "worlds/moon-map-photos/assets/moon/day-06.svg",
        "moonPhaseLabel": "Creciente",
        "temporal": {
          "instant": "2026-07-20"
        }
      },
      "geometry": {
        "type": "Point",
        "coordinates": [
          10.9,
          50.6
        ]
      }
    },
    {
      "type": "Feature",
      "id": "2026-07-20T1348-315839",
      "properties": {
        "title": "Suedthueringen",
        "date": "2026-07-20T13:48:00+02:00",
        "tags": [
          "Suedthueringen"
        ],
        "user": "me",
        "image": "worlds/moon-map-photos/assets/photos/2026-07-20T1348-315839.jpg",
        "thumb": "worlds/moon-map-photos/assets/photos/thumbs/2026-07-20T1348-315839.jpg",
        "moonPhaseDay": 6,
        "moonPhaseIcon": "worlds/moon-map-photos/assets/moon/day-06.svg",
        "moonPhaseLabel": "Creciente",
        "temporal": {
          "instant": "2026-07-20"
        }
      },
      "geometry": {
        "type": "Point",
        "coordinates": [
          10.9,
          50.6
        ]
      }
    },
    {
      "type": "Feature",
      "id": "2026-07-20T1348-c0e93c",
      "properties": {
        "title": "Suedthueringen",
        "date": "2026-07-20T13:48:00+02:00",
        "tags": [
          "Suedthueringen"
        ],
        "user": "me",
        "image": "worlds/moon-map-photos/assets/photos/2026-07-20T1348-c0e93c.jpg",
        "thumb": "worlds/moon-map-photos/assets/photos/thumbs/2026-07-20T1348-c0e93c.jpg",
        "moonPhaseDay": 6,
        "moonPhaseIcon": "worlds/moon-map-photos/assets/moon/day-06.svg",
        "moonPhaseLabel": "Creciente",
        "temporal": {
          "instant": "2026-07-20"
        }
      },
      "geometry": {
        "type": "Point",
        "coordinates": [
          10.9,
          50.6
        ]
      }
    },
    {
      "type": "Feature",
      "id": "2026-07-20T1349-10a658",
      "properties": {
        "title": "Suedthueringen",
        "date": "2026-07-20T13:49:00+02:00",
        "tags": [
          "Suedthueringen"
        ],
        "user": "me",
        "image": "worlds/moon-map-photos/assets/photos/2026-07-20T1349-10a658.jpg",
        "thumb": "worlds/moon-map-photos/assets/photos/thumbs/2026-07-20T1349-10a658.jpg",
        "moonPhaseDay": 6,
        "moonPhaseIcon": "worlds/moon-map-photos/assets/moon/day-06.svg",
        "moonPhaseLabel": "Creciente",
        "temporal": {
          "instant": "2026-07-20"
        }
      },
      "geometry": {
        "type": "Point",
        "coordinates": [
          10.9,
          50.6
        ]
      }
    },
    {
      "type": "Feature",
      "id": "2026-07-20T1349-c50e16",
      "properties": {
        "title": "Suedthueringen",
        "date": "2026-07-20T13:49:00+02:00",
        "tags": [
          "Suedthueringen"
        ],
        "user": "me",
        "image": "worlds/moon-map-photos/assets/photos/2026-07-20T1349-c50e16.jpg",
        "thumb": "worlds/moon-map-photos/assets/photos/thumbs/2026-07-20T1349-c50e16.jpg",
        "moonPhaseDay": 6,
        "moonPhaseIcon": "worlds/moon-map-photos/assets/moon/day-06.svg",
        "moonPhaseLabel": "Creciente",
        "temporal": {
          "instant": "2026-07-20"
        }
      },
      "geometry": {
        "type": "Point",
        "coordinates": [
          10.9,
          50.6
        ]
      }
    },
    {
      "type": "Feature",
      "id": "2026-07-20T1349-3b3c6a",
      "properties": {
        "title": "Suedthueringen",
        "date": "2026-07-20T13:49:00+02:00",
        "tags": [
          "Suedthueringen"
        ],
        "user": "me",
        "image": "worlds/moon-map-photos/assets/photos/2026-07-20T1349-3b3c6a.jpg",
        "thumb": "worlds/moon-map-photos/assets/photos/thumbs/2026-07-20T1349-3b3c6a.jpg",
        "moonPhaseDay": 6,
        "moonPhaseIcon": "worlds/moon-map-photos/assets/moon/day-06.svg",
        "moonPhaseLabel": "Creciente",
        "temporal": {
          "instant": "2026-07-20"
        }
      },
      "geometry": {
        "type": "Point",
        "coordinates": [
          10.9,
          50.6
        ]
      }
    },
    {
      "type": "Feature",
      "id": "2026-07-20T1349-9619cc",
      "properties": {
        "title": "Suedthueringen",
        "date": "2026-07-20T13:49:00+02:00",
        "tags": [
          "Suedthueringen"
        ],
        "user": "me",
        "image": "worlds/moon-map-photos/assets/photos/2026-07-20T1349-9619cc.jpg",
        "thumb": "worlds/moon-map-photos/assets/photos/thumbs/2026-07-20T1349-9619cc.jpg",
        "moonPhaseDay": 6,
        "moonPhaseIcon": "worlds/moon-map-photos/assets/moon/day-06.svg",
        "moonPhaseLabel": "Creciente",
        "temporal": {
          "instant": "2026-07-20"
        }
      },
      "geometry": {
        "type": "Point",
        "coordinates": [
          10.9,
          50.6
        ]
      }
    },
    {
      "type": "Feature",
      "id": "2026-07-20T1350-f439e0",
      "properties": {
        "title": "Suedthueringen",
        "date": "2026-07-20T13:50:00+02:00",
        "tags": [
          "Suedthueringen"
        ],
        "user": "me",
        "image": "worlds/moon-map-photos/assets/photos/2026-07-20T1350-f439e0.jpg",
        "thumb": "worlds/moon-map-photos/assets/photos/thumbs/2026-07-20T1350-f439e0.jpg",
        "moonPhaseDay": 6,
        "moonPhaseIcon": "worlds/moon-map-photos/assets/moon/day-06.svg",
        "moonPhaseLabel": "Creciente",
        "temporal": {
          "instant": "2026-07-20"
        }
      },
      "geometry": {
        "type": "Point",
        "coordinates": [
          10.9,
          50.6
        ]
      }
    },
    {
      "type": "Feature",
      "id": "2026-07-20T1350-3c4241",
      "properties": {
        "title": "Suedthueringen",
        "date": "2026-07-20T13:50:00+02:00",
        "tags": [
          "Suedthueringen"
        ],
        "user": "me",
        "image": "worlds/moon-map-photos/assets/photos/2026-07-20T1350-3c4241.jpg",
        "thumb": "worlds/moon-map-photos/assets/photos/thumbs/2026-07-20T1350-3c4241.jpg",
        "moonPhaseDay": 6,
        "moonPhaseIcon": "worlds/moon-map-photos/assets/moon/day-06.svg",
        "moonPhaseLabel": "Creciente",
        "temporal": {
          "instant": "2026-07-20"
        }
      },
      "geometry": {
        "type": "Point",
        "coordinates": [
          10.9,
          50.6
        ]
      }
    },
    {
      "type": "Feature",
      "id": "2026-07-20T1350-59c25f",
      "properties": {
        "title": "Suedthueringen",
        "date": "2026-07-20T13:50:00+02:00",
        "tags": [
          "Suedthueringen"
        ],
        "user": "me",
        "image": "worlds/moon-map-photos/assets/photos/2026-07-20T1350-59c25f.jpg",
        "thumb": "worlds/moon-map-photos/assets/photos/thumbs/2026-07-20T1350-59c25f.jpg",
        "moonPhaseDay": 6,
        "moonPhaseIcon": "worlds/moon-map-photos/assets/moon/day-06.svg",
        "moonPhaseLabel": "Creciente",
        "temporal": {
          "instant": "2026-07-20"
        }
      },
      "geometry": {
        "type": "Point",
        "coordinates": [
          10.9,
          50.6
        ]
      }
    },
    {
      "type": "Feature",
      "id": "2026-07-20T1350-d8d477",
      "properties": {
        "title": "Suedthueringen",
        "date": "2026-07-20T13:50:00+02:00",
        "tags": [
          "Suedthueringen"
        ],
        "user": "me",
        "image": "worlds/moon-map-photos/assets/photos/2026-07-20T1350-d8d477.jpg",
        "thumb": "worlds/moon-map-photos/assets/photos/thumbs/2026-07-20T1350-d8d477.jpg",
        "moonPhaseDay": 6,
        "moonPhaseIcon": "worlds/moon-map-photos/assets/moon/day-06.svg",
        "moonPhaseLabel": "Creciente",
        "temporal": {
          "instant": "2026-07-20"
        }
      },
      "geometry": {
        "type": "Point",
        "coordinates": [
          10.9,
          50.6
        ]
      }
    },
    {
      "type": "Feature",
      "id": "2026-07-20T1904-78c882",
      "properties": {
        "title": "Suedthueringen",
        "date": "2026-07-20T19:04:00+02:00",
        "tags": [
          "Suedthueringen"
        ],
        "user": "me",
        "image": "worlds/moon-map-photos/assets/photos/2026-07-20T1904-78c882.jpg",
        "thumb": "worlds/moon-map-photos/assets/photos/thumbs/2026-07-20T1904-78c882.jpg",
        "moonPhaseDay": 6,
        "moonPhaseIcon": "worlds/moon-map-photos/assets/moon/day-06.svg",
        "moonPhaseLabel": "Creciente",
        "temporal": {
          "instant": "2026-07-20"
        }
      },
      "geometry": {
        "type": "Point",
        "coordinates": [
          10.9,
          50.6
        ]
      }
    },
    {
      "type": "Feature",
      "id": "2026-07-20T2144-06bd21",
      "properties": {
        "title": "Suedthueringen",
        "date": "2026-07-20T21:44:00+02:00",
        "tags": [
          "Suedthueringen"
        ],
        "user": "me",
        "image": "worlds/moon-map-photos/assets/photos/2026-07-20T2144-06bd21.jpg",
        "thumb": "worlds/moon-map-photos/assets/photos/thumbs/2026-07-20T2144-06bd21.jpg",
        "moonPhaseDay": 6,
        "moonPhaseIcon": "worlds/moon-map-photos/assets/moon/day-06.svg",
        "moonPhaseLabel": "Creciente",
        "temporal": {
          "instant": "2026-07-20"
        }
      },
      "geometry": {
        "type": "Point",
        "coordinates": [
          10.9,
          50.6
        ]
      }
    },
    {
      "type": "Feature",
      "id": "2026-07-20T2145-7b99e4",
      "properties": {
        "title": "Suedthueringen",
        "date": "2026-07-20T21:45:00+02:00",
        "tags": [
          "Suedthueringen"
        ],
        "user": "me",
        "image": "worlds/moon-map-photos/assets/photos/2026-07-20T2145-7b99e4.jpg",
        "thumb": "worlds/moon-map-photos/assets/photos/thumbs/2026-07-20T2145-7b99e4.jpg",
        "moonPhaseDay": 6,
        "moonPhaseIcon": "worlds/moon-map-photos/assets/moon/day-06.svg",
        "moonPhaseLabel": "Creciente",
        "temporal": {
          "instant": "2026-07-20"
        }
      },
      "geometry": {
        "type": "Point",
        "coordinates": [
          10.9,
          50.6
        ]
      }
    },
    {
      "type": "Feature",
      "id": "2026-07-20T2145-ef7f3e",
      "properties": {
        "title": "Suedthueringen",
        "date": "2026-07-20T21:45:00+02:00",
        "tags": [
          "Suedthueringen"
        ],
        "user": "me",
        "image": "worlds/moon-map-photos/assets/photos/2026-07-20T2145-ef7f3e.jpg",
        "thumb": "worlds/moon-map-photos/assets/photos/thumbs/2026-07-20T2145-ef7f3e.jpg",
        "moonPhaseDay": 6,
        "moonPhaseIcon": "worlds/moon-map-photos/assets/moon/day-06.svg",
        "moonPhaseLabel": "Creciente",
        "temporal": {
          "instant": "2026-07-20"
        }
      },
      "geometry": {
        "type": "Point",
        "coordinates": [
          10.9,
          50.6
        ]
      }
    },
    {
      "type": "Feature",
      "id": "2026-07-20T2146-581793",
      "properties": {
        "title": "Suedthueringen",
        "date": "2026-07-20T21:46:00+02:00",
        "tags": [
          "Suedthueringen"
        ],
        "user": "me",
        "image": "worlds/moon-map-photos/assets/photos/2026-07-20T2146-581793.jpg",
        "thumb": "worlds/moon-map-photos/assets/photos/thumbs/2026-07-20T2146-581793.jpg",
        "moonPhaseDay": 6,
        "moonPhaseIcon": "worlds/moon-map-photos/assets/moon/day-06.svg",
        "moonPhaseLabel": "Creciente",
        "temporal": {
          "instant": "2026-07-20"
        }
      },
      "geometry": {
        "type": "Point",
        "coordinates": [
          10.9,
          50.6
        ]
      }
    },
    {
      "type": "Feature",
      "id": "2026-07-20T2146-07e6ed",
      "properties": {
        "title": "Suedthueringen",
        "date": "2026-07-20T21:46:00+02:00",
        "tags": [
          "Suedthueringen"
        ],
        "user": "me",
        "image": "worlds/moon-map-photos/assets/photos/2026-07-20T2146-07e6ed.jpg",
        "thumb": "worlds/moon-map-photos/assets/photos/thumbs/2026-07-20T2146-07e6ed.jpg",
        "moonPhaseDay": 6,
        "moonPhaseIcon": "worlds/moon-map-photos/assets/moon/day-06.svg",
        "moonPhaseLabel": "Creciente",
        "temporal": {
          "instant": "2026-07-20"
        }
      },
      "geometry": {
        "type": "Point",
        "coordinates": [
          10.9,
          50.6
        ]
      }
    },
    {
      "type": "Feature",
      "id": "2026-07-20T2146-b80af0",
      "properties": {
        "title": "Suedthueringen",
        "date": "2026-07-20T21:46:00+02:00",
        "tags": [
          "Suedthueringen"
        ],
        "user": "me",
        "image": "worlds/moon-map-photos/assets/photos/2026-07-20T2146-b80af0.jpg",
        "thumb": "worlds/moon-map-photos/assets/photos/thumbs/2026-07-20T2146-b80af0.jpg",
        "moonPhaseDay": 6,
        "moonPhaseIcon": "worlds/moon-map-photos/assets/moon/day-06.svg",
        "moonPhaseLabel": "Creciente",
        "temporal": {
          "instant": "2026-07-20"
        }
      },
      "geometry": {
        "type": "Point",
        "coordinates": [
          10.9,
          50.6
        ]
      }
    },
    {
      "type": "Feature",
      "id": "2026-07-20T2147-d880c9",
      "properties": {
        "title": "Suedthueringen",
        "date": "2026-07-20T21:47:00+02:00",
        "tags": [
          "Suedthueringen"
        ],
        "user": "me",
        "image": "worlds/moon-map-photos/assets/photos/2026-07-20T2147-d880c9.jpg",
        "thumb": "worlds/moon-map-photos/assets/photos/thumbs/2026-07-20T2147-d880c9.jpg",
        "moonPhaseDay": 6,
        "moonPhaseIcon": "worlds/moon-map-photos/assets/moon/day-06.svg",
        "moonPhaseLabel": "Creciente",
        "temporal": {
          "instant": "2026-07-20"
        }
      },
      "geometry": {
        "type": "Point",
        "coordinates": [
          10.9,
          50.6
        ]
      }
    },
    {
      "type": "Feature",
      "id": "2026-07-21T1536-5caafc",
      "properties": {
        "title": "Suedthueringen",
        "date": "2026-07-21T15:36:00+02:00",
        "tags": [
          "Suedthueringen"
        ],
        "user": "me",
        "image": "worlds/moon-map-photos/assets/photos/2026-07-21T1536-5caafc.jpg",
        "thumb": "worlds/moon-map-photos/assets/photos/thumbs/2026-07-21T1536-5caafc.jpg",
        "moonPhaseDay": 7,
        "moonPhaseIcon": "worlds/moon-map-photos/assets/moon/day-07.svg",
        "moonPhaseLabel": "Cuarto Creciente",
        "temporal": {
          "instant": "2026-07-21"
        }
      },
      "geometry": {
        "type": "Point",
        "coordinates": [
          10.9,
          50.6
        ]
      }
    },
    {
      "type": "Feature",
      "id": "2026-07-21T1713-b214d6",
      "properties": {
        "title": "Suedthueringen",
        "date": "2026-07-21T17:13:00+02:00",
        "tags": [
          "Suedthueringen"
        ],
        "user": "me",
        "image": "worlds/moon-map-photos/assets/photos/2026-07-21T1713-b214d6.jpg",
        "thumb": "worlds/moon-map-photos/assets/photos/thumbs/2026-07-21T1713-b214d6.jpg",
        "moonPhaseDay": 7,
        "moonPhaseIcon": "worlds/moon-map-photos/assets/moon/day-07.svg",
        "moonPhaseLabel": "Cuarto Creciente",
        "temporal": {
          "instant": "2026-07-21"
        }
      },
      "geometry": {
        "type": "Point",
        "coordinates": [
          10.9,
          50.6
        ]
      }
    },
    {
      "type": "Feature",
      "id": "2026-07-21T1714-e03e1e",
      "properties": {
        "title": "Suedthueringen",
        "date": "2026-07-21T17:14:00+02:00",
        "tags": [
          "Suedthueringen"
        ],
        "user": "me",
        "image": "worlds/moon-map-photos/assets/photos/2026-07-21T1714-e03e1e.jpg",
        "thumb": "worlds/moon-map-photos/assets/photos/thumbs/2026-07-21T1714-e03e1e.jpg",
        "moonPhaseDay": 7,
        "moonPhaseIcon": "worlds/moon-map-photos/assets/moon/day-07.svg",
        "moonPhaseLabel": "Cuarto Creciente",
        "temporal": {
          "instant": "2026-07-21"
        }
      },
      "geometry": {
        "type": "Point",
        "coordinates": [
          10.9,
          50.6
        ]
      }
    },
    {
      "type": "Feature",
      "id": "2026-07-21T1714-d3bdf3",
      "properties": {
        "title": "Suedthueringen",
        "date": "2026-07-21T17:14:00+02:00",
        "tags": [
          "Suedthueringen"
        ],
        "user": "me",
        "image": "worlds/moon-map-photos/assets/photos/2026-07-21T1714-d3bdf3.jpg",
        "thumb": "worlds/moon-map-photos/assets/photos/thumbs/2026-07-21T1714-d3bdf3.jpg",
        "moonPhaseDay": 7,
        "moonPhaseIcon": "worlds/moon-map-photos/assets/moon/day-07.svg",
        "moonPhaseLabel": "Cuarto Creciente",
        "temporal": {
          "instant": "2026-07-21"
        }
      },
      "geometry": {
        "type": "Point",
        "coordinates": [
          10.9,
          50.6
        ]
      }
    },
    {
      "type": "Feature",
      "id": "2026-07-21T1714-3b47e3",
      "properties": {
        "title": "Suedthueringen",
        "date": "2026-07-21T17:14:00+02:00",
        "tags": [
          "Suedthueringen"
        ],
        "user": "me",
        "image": "worlds/moon-map-photos/assets/photos/2026-07-21T1714-3b47e3.jpg",
        "thumb": "worlds/moon-map-photos/assets/photos/thumbs/2026-07-21T1714-3b47e3.jpg",
        "moonPhaseDay": 7,
        "moonPhaseIcon": "worlds/moon-map-photos/assets/moon/day-07.svg",
        "moonPhaseLabel": "Cuarto Creciente",
        "temporal": {
          "instant": "2026-07-21"
        }
      },
      "geometry": {
        "type": "Point",
        "coordinates": [
          10.9,
          50.6
        ]
      }
    },
    {
      "type": "Feature",
      "id": "2026-07-21T1714-4ec718",
      "properties": {
        "title": "Suedthueringen",
        "date": "2026-07-21T17:14:00+02:00",
        "tags": [
          "Suedthueringen"
        ],
        "user": "me",
        "image": "worlds/moon-map-photos/assets/photos/2026-07-21T1714-4ec718.jpg",
        "thumb": "worlds/moon-map-photos/assets/photos/thumbs/2026-07-21T1714-4ec718.jpg",
        "moonPhaseDay": 7,
        "moonPhaseIcon": "worlds/moon-map-photos/assets/moon/day-07.svg",
        "moonPhaseLabel": "Cuarto Creciente",
        "temporal": {
          "instant": "2026-07-21"
        }
      },
      "geometry": {
        "type": "Point",
        "coordinates": [
          10.9,
          50.6
        ]
      }
    },
    {
      "type": "Feature",
      "id": "2026-07-21T1722-739631",
      "properties": {
        "title": "Suedthueringen",
        "date": "2026-07-21T17:22:00+02:00",
        "tags": [
          "Suedthueringen"
        ],
        "user": "me",
        "image": "worlds/moon-map-photos/assets/photos/2026-07-21T1722-739631.jpg",
        "thumb": "worlds/moon-map-photos/assets/photos/thumbs/2026-07-21T1722-739631.jpg",
        "moonPhaseDay": 7,
        "moonPhaseIcon": "worlds/moon-map-photos/assets/moon/day-07.svg",
        "moonPhaseLabel": "Cuarto Creciente",
        "temporal": {
          "instant": "2026-07-21"
        }
      },
      "geometry": {
        "type": "Point",
        "coordinates": [
          10.9,
          50.6
        ]
      }
    },
    {
      "type": "Feature",
      "id": "2026-07-21T1724-5e035a",
      "properties": {
        "title": "Suedthueringen",
        "date": "2026-07-21T17:24:00+02:00",
        "tags": [
          "Suedthueringen"
        ],
        "user": "me",
        "image": "worlds/moon-map-photos/assets/photos/2026-07-21T1724-5e035a.jpg",
        "thumb": "worlds/moon-map-photos/assets/photos/thumbs/2026-07-21T1724-5e035a.jpg",
        "moonPhaseDay": 7,
        "moonPhaseIcon": "worlds/moon-map-photos/assets/moon/day-07.svg",
        "moonPhaseLabel": "Cuarto Creciente",
        "temporal": {
          "instant": "2026-07-21"
        }
      },
      "geometry": {
        "type": "Point",
        "coordinates": [
          10.9,
          50.6
        ]
      }
    },
    {
      "type": "Feature",
      "id": "2026-07-21T1725-fc4436",
      "properties": {
        "title": "Suedthueringen",
        "date": "2026-07-21T17:25:00+02:00",
        "tags": [
          "Suedthueringen"
        ],
        "user": "me",
        "image": "worlds/moon-map-photos/assets/photos/2026-07-21T1725-fc4436.jpg",
        "thumb": "worlds/moon-map-photos/assets/photos/thumbs/2026-07-21T1725-fc4436.jpg",
        "moonPhaseDay": 7,
        "moonPhaseIcon": "worlds/moon-map-photos/assets/moon/day-07.svg",
        "moonPhaseLabel": "Cuarto Creciente",
        "temporal": {
          "instant": "2026-07-21"
        }
      },
      "geometry": {
        "type": "Point",
        "coordinates": [
          10.9,
          50.6
        ]
      }
    },
    {
      "type": "Feature",
      "id": "2026-07-21T1931-c617fb",
      "properties": {
        "title": "Suedthueringen",
        "date": "2026-07-21T19:31:00+02:00",
        "tags": [
          "Suedthueringen"
        ],
        "user": "me",
        "image": "worlds/moon-map-photos/assets/photos/2026-07-21T1931-c617fb.jpg",
        "thumb": "worlds/moon-map-photos/assets/photos/thumbs/2026-07-21T1931-c617fb.jpg",
        "moonPhaseDay": 7,
        "moonPhaseIcon": "worlds/moon-map-photos/assets/moon/day-07.svg",
        "moonPhaseLabel": "Cuarto Creciente",
        "temporal": {
          "instant": "2026-07-21"
        }
      },
      "geometry": {
        "type": "Point",
        "coordinates": [
          10.9,
          50.6
        ]
      }
    },
    {
      "type": "Feature",
      "id": "2026-07-21T1932-357ac1",
      "properties": {
        "title": "Suedthueringen",
        "date": "2026-07-21T19:32:00+02:00",
        "tags": [
          "Suedthueringen"
        ],
        "user": "me",
        "image": "worlds/moon-map-photos/assets/photos/2026-07-21T1932-357ac1.jpg",
        "thumb": "worlds/moon-map-photos/assets/photos/thumbs/2026-07-21T1932-357ac1.jpg",
        "moonPhaseDay": 7,
        "moonPhaseIcon": "worlds/moon-map-photos/assets/moon/day-07.svg",
        "moonPhaseLabel": "Cuarto Creciente",
        "temporal": {
          "instant": "2026-07-21"
        }
      },
      "geometry": {
        "type": "Point",
        "coordinates": [
          10.9,
          50.6
        ]
      }
    },
    {
      "type": "Feature",
      "id": "2026-07-21T1933-949ec8",
      "properties": {
        "title": "Suedthueringen",
        "date": "2026-07-21T19:33:00+02:00",
        "tags": [
          "Suedthueringen"
        ],
        "user": "me",
        "image": "worlds/moon-map-photos/assets/photos/2026-07-21T1933-949ec8.jpg",
        "thumb": "worlds/moon-map-photos/assets/photos/thumbs/2026-07-21T1933-949ec8.jpg",
        "moonPhaseDay": 7,
        "moonPhaseIcon": "worlds/moon-map-photos/assets/moon/day-07.svg",
        "moonPhaseLabel": "Cuarto Creciente",
        "temporal": {
          "instant": "2026-07-21"
        }
      },
      "geometry": {
        "type": "Point",
        "coordinates": [
          10.9,
          50.6
        ]
      }
    },
    {
      "type": "Feature",
      "id": "2026-07-21T2005-d7e6c6",
      "properties": {
        "title": "Suedthueringen",
        "date": "2026-07-21T20:05:00+02:00",
        "tags": [
          "Suedthueringen"
        ],
        "user": "me",
        "image": "worlds/moon-map-photos/assets/photos/2026-07-21T2005-d7e6c6.jpg",
        "thumb": "worlds/moon-map-photos/assets/photos/thumbs/2026-07-21T2005-d7e6c6.jpg",
        "moonPhaseDay": 7,
        "moonPhaseIcon": "worlds/moon-map-photos/assets/moon/day-07.svg",
        "moonPhaseLabel": "Cuarto Creciente",
        "temporal": {
          "instant": "2026-07-21"
        }
      },
      "geometry": {
        "type": "Point",
        "coordinates": [
          10.9,
          50.6
        ]
      }
    },
    {
      "type": "Feature",
      "id": "2026-07-21T2010-c03c69",
      "properties": {
        "title": "Suedthueringen",
        "date": "2026-07-21T20:10:00+02:00",
        "tags": [
          "Suedthueringen"
        ],
        "user": "me",
        "image": "worlds/moon-map-photos/assets/photos/2026-07-21T2010-c03c69.jpg",
        "thumb": "worlds/moon-map-photos/assets/photos/thumbs/2026-07-21T2010-c03c69.jpg",
        "moonPhaseDay": 7,
        "moonPhaseIcon": "worlds/moon-map-photos/assets/moon/day-07.svg",
        "moonPhaseLabel": "Cuarto Creciente",
        "temporal": {
          "instant": "2026-07-21"
        }
      },
      "geometry": {
        "type": "Point",
        "coordinates": [
          10.9,
          50.6
        ]
      }
    },
    {
      "type": "Feature",
      "id": "2026-07-21T2109-d04c3f",
      "properties": {
        "title": "Suedthueringen",
        "date": "2026-07-21T21:09:00+02:00",
        "tags": [
          "Suedthueringen"
        ],
        "user": "me",
        "image": "worlds/moon-map-photos/assets/photos/2026-07-21T2109-d04c3f.jpg",
        "thumb": "worlds/moon-map-photos/assets/photos/thumbs/2026-07-21T2109-d04c3f.jpg",
        "moonPhaseDay": 7,
        "moonPhaseIcon": "worlds/moon-map-photos/assets/moon/day-07.svg",
        "moonPhaseLabel": "Cuarto Creciente",
        "temporal": {
          "instant": "2026-07-21"
        }
      },
      "geometry": {
        "type": "Point",
        "coordinates": [
          10.9,
          50.6
        ]
      }
    },
    {
      "type": "Feature",
      "id": "2026-07-21T2110-20a9e3",
      "properties": {
        "title": "Suedthueringen",
        "date": "2026-07-21T21:10:00+02:00",
        "tags": [
          "Suedthueringen"
        ],
        "user": "me",
        "image": "worlds/moon-map-photos/assets/photos/2026-07-21T2110-20a9e3.jpg",
        "thumb": "worlds/moon-map-photos/assets/photos/thumbs/2026-07-21T2110-20a9e3.jpg",
        "moonPhaseDay": 7,
        "moonPhaseIcon": "worlds/moon-map-photos/assets/moon/day-07.svg",
        "moonPhaseLabel": "Cuarto Creciente",
        "temporal": {
          "instant": "2026-07-21"
        }
      },
      "geometry": {
        "type": "Point",
        "coordinates": [
          10.9,
          50.6
        ]
      }
    },
    {
      "type": "Feature",
      "id": "2026-07-21T2110-23d682",
      "properties": {
        "title": "Suedthueringen",
        "date": "2026-07-21T21:10:00+02:00",
        "tags": [
          "Suedthueringen"
        ],
        "user": "me",
        "image": "worlds/moon-map-photos/assets/photos/2026-07-21T2110-23d682.jpg",
        "thumb": "worlds/moon-map-photos/assets/photos/thumbs/2026-07-21T2110-23d682.jpg",
        "moonPhaseDay": 7,
        "moonPhaseIcon": "worlds/moon-map-photos/assets/moon/day-07.svg",
        "moonPhaseLabel": "Cuarto Creciente",
        "temporal": {
          "instant": "2026-07-21"
        }
      },
      "geometry": {
        "type": "Point",
        "coordinates": [
          10.9,
          50.6
        ]
      }
    },
    {
      "type": "Feature",
      "id": "2026-07-21T2110-fe0aae",
      "properties": {
        "title": "Suedthueringen",
        "date": "2026-07-21T21:10:00+02:00",
        "tags": [
          "Suedthueringen"
        ],
        "user": "me",
        "image": "worlds/moon-map-photos/assets/photos/2026-07-21T2110-fe0aae.jpg",
        "thumb": "worlds/moon-map-photos/assets/photos/thumbs/2026-07-21T2110-fe0aae.jpg",
        "moonPhaseDay": 7,
        "moonPhaseIcon": "worlds/moon-map-photos/assets/moon/day-07.svg",
        "moonPhaseLabel": "Cuarto Creciente",
        "temporal": {
          "instant": "2026-07-21"
        }
      },
      "geometry": {
        "type": "Point",
        "coordinates": [
          10.9,
          50.6
        ]
      }
    },
    {
      "type": "Feature",
      "id": "2026-07-21T2111-ad8734",
      "properties": {
        "title": "Suedthueringen",
        "date": "2026-07-21T21:11:00+02:00",
        "tags": [
          "Suedthueringen"
        ],
        "user": "me",
        "image": "worlds/moon-map-photos/assets/photos/2026-07-21T2111-ad8734.jpg",
        "thumb": "worlds/moon-map-photos/assets/photos/thumbs/2026-07-21T2111-ad8734.jpg",
        "moonPhaseDay": 7,
        "moonPhaseIcon": "worlds/moon-map-photos/assets/moon/day-07.svg",
        "moonPhaseLabel": "Cuarto Creciente",
        "temporal": {
          "instant": "2026-07-21"
        }
      },
      "geometry": {
        "type": "Point",
        "coordinates": [
          10.9,
          50.6
        ]
      }
    },
    {
      "type": "Feature",
      "id": "2026-07-21T2111-9ec7d8",
      "properties": {
        "title": "Suedthueringen",
        "date": "2026-07-21T21:11:00+02:00",
        "tags": [
          "Suedthueringen"
        ],
        "user": "me",
        "image": "worlds/moon-map-photos/assets/photos/2026-07-21T2111-9ec7d8.jpg",
        "thumb": "worlds/moon-map-photos/assets/photos/thumbs/2026-07-21T2111-9ec7d8.jpg",
        "moonPhaseDay": 7,
        "moonPhaseIcon": "worlds/moon-map-photos/assets/moon/day-07.svg",
        "moonPhaseLabel": "Cuarto Creciente",
        "temporal": {
          "instant": "2026-07-21"
        }
      },
      "geometry": {
        "type": "Point",
        "coordinates": [
          10.9,
          50.6
        ]
      }
    },
    {
      "type": "Feature",
      "id": "2026-07-21T2112-a6772b",
      "properties": {
        "title": "Suedthueringen",
        "date": "2026-07-21T21:12:00+02:00",
        "tags": [
          "Suedthueringen"
        ],
        "user": "me",
        "image": "worlds/moon-map-photos/assets/photos/2026-07-21T2112-a6772b.jpg",
        "thumb": "worlds/moon-map-photos/assets/photos/thumbs/2026-07-21T2112-a6772b.jpg",
        "moonPhaseDay": 7,
        "moonPhaseIcon": "worlds/moon-map-photos/assets/moon/day-07.svg",
        "moonPhaseLabel": "Cuarto Creciente",
        "temporal": {
          "instant": "2026-07-21"
        }
      },
      "geometry": {
        "type": "Point",
        "coordinates": [
          10.9,
          50.6
        ]
      }
    },
    {
      "type": "Feature",
      "id": "2026-07-21T2112-c746aa",
      "properties": {
        "title": "Suedthueringen",
        "date": "2026-07-21T21:12:00+02:00",
        "tags": [
          "Suedthueringen"
        ],
        "user": "me",
        "image": "worlds/moon-map-photos/assets/photos/2026-07-21T2112-c746aa.jpg",
        "thumb": "worlds/moon-map-photos/assets/photos/thumbs/2026-07-21T2112-c746aa.jpg",
        "moonPhaseDay": 7,
        "moonPhaseIcon": "worlds/moon-map-photos/assets/moon/day-07.svg",
        "moonPhaseLabel": "Cuarto Creciente",
        "temporal": {
          "instant": "2026-07-21"
        }
      },
      "geometry": {
        "type": "Point",
        "coordinates": [
          10.9,
          50.6
        ]
      }
    },
    {
      "type": "Feature",
      "id": "2026-07-21T2209-0b22c5",
      "properties": {
        "title": "Suedthueringen",
        "date": "2026-07-21T22:09:00+02:00",
        "tags": [
          "Suedthueringen"
        ],
        "user": "me",
        "image": "worlds/moon-map-photos/assets/photos/2026-07-21T2209-0b22c5.jpg",
        "thumb": "worlds/moon-map-photos/assets/photos/thumbs/2026-07-21T2209-0b22c5.jpg",
        "moonPhaseDay": 7,
        "moonPhaseIcon": "worlds/moon-map-photos/assets/moon/day-07.svg",
        "moonPhaseLabel": "Cuarto Creciente",
        "temporal": {
          "instant": "2026-07-21"
        }
      },
      "geometry": {
        "type": "Point",
        "coordinates": [
          10.9,
          50.6
        ]
      }
    },
    {
      "type": "Feature",
      "id": "2026-07-21T2209-166e60",
      "properties": {
        "title": "Suedthueringen",
        "date": "2026-07-21T22:09:00+02:00",
        "tags": [
          "Suedthueringen"
        ],
        "user": "me",
        "image": "worlds/moon-map-photos/assets/photos/2026-07-21T2209-166e60.jpg",
        "thumb": "worlds/moon-map-photos/assets/photos/thumbs/2026-07-21T2209-166e60.jpg",
        "moonPhaseDay": 7,
        "moonPhaseIcon": "worlds/moon-map-photos/assets/moon/day-07.svg",
        "moonPhaseLabel": "Cuarto Creciente",
        "temporal": {
          "instant": "2026-07-21"
        }
      },
      "geometry": {
        "type": "Point",
        "coordinates": [
          10.9,
          50.6
        ]
      }
    },
    {
      "type": "Feature",
      "id": "2026-07-21T2209-77e2d5",
      "properties": {
        "title": "Suedthueringen",
        "date": "2026-07-21T22:09:00+02:00",
        "tags": [
          "Suedthueringen"
        ],
        "user": "me",
        "image": "worlds/moon-map-photos/assets/photos/2026-07-21T2209-77e2d5.jpg",
        "thumb": "worlds/moon-map-photos/assets/photos/thumbs/2026-07-21T2209-77e2d5.jpg",
        "moonPhaseDay": 7,
        "moonPhaseIcon": "worlds/moon-map-photos/assets/moon/day-07.svg",
        "moonPhaseLabel": "Cuarto Creciente",
        "temporal": {
          "instant": "2026-07-21"
        }
      },
      "geometry": {
        "type": "Point",
        "coordinates": [
          10.9,
          50.6
        ]
      }
    },
    {
      "type": "Feature",
      "id": "2026-07-22T1811-ccf648",
      "properties": {
        "title": "Suedthueringen",
        "date": "2026-07-22T18:11:00+02:00",
        "tags": [
          "Suedthueringen"
        ],
        "user": "me",
        "image": "worlds/moon-map-photos/assets/photos/2026-07-22T1811-ccf648.jpg",
        "thumb": "worlds/moon-map-photos/assets/photos/thumbs/2026-07-22T1811-ccf648.jpg",
        "moonPhaseDay": 8,
        "moonPhaseIcon": "worlds/moon-map-photos/assets/moon/day-08.svg",
        "moonPhaseLabel": "Cuarto Creciente",
        "temporal": {
          "instant": "2026-07-22"
        }
      },
      "geometry": {
        "type": "Point",
        "coordinates": [
          10.9,
          50.6
        ]
      }
    },
    {
      "type": "Feature",
      "id": "2026-07-22T2030-393c17",
      "properties": {
        "title": "Suedthueringen",
        "date": "2026-07-22T20:30:00+02:00",
        "tags": [
          "Suedthueringen"
        ],
        "user": "me",
        "image": "worlds/moon-map-photos/assets/photos/2026-07-22T2030-393c17.jpg",
        "thumb": "worlds/moon-map-photos/assets/photos/thumbs/2026-07-22T2030-393c17.jpg",
        "moonPhaseDay": 8,
        "moonPhaseIcon": "worlds/moon-map-photos/assets/moon/day-08.svg",
        "moonPhaseLabel": "Cuarto Creciente",
        "temporal": {
          "instant": "2026-07-22"
        }
      },
      "geometry": {
        "type": "Point",
        "coordinates": [
          10.9,
          50.6
        ]
      }
    },
    {
      "type": "Feature",
      "id": "2026-07-22T2259-313dee",
      "properties": {
        "title": "Suedthueringen",
        "date": "2026-07-22T22:59:00+02:00",
        "tags": [
          "Suedthueringen"
        ],
        "user": "me",
        "image": "worlds/moon-map-photos/assets/photos/2026-07-22T2259-313dee.jpg",
        "thumb": "worlds/moon-map-photos/assets/photos/thumbs/2026-07-22T2259-313dee.jpg",
        "moonPhaseDay": 8,
        "moonPhaseIcon": "worlds/moon-map-photos/assets/moon/day-08.svg",
        "moonPhaseLabel": "Cuarto Creciente",
        "temporal": {
          "instant": "2026-07-22"
        }
      },
      "geometry": {
        "type": "Point",
        "coordinates": [
          10.9,
          50.6
        ]
      }
    },
    {
      "type": "Feature",
      "id": "2026-07-22T2302-e98818",
      "properties": {
        "title": "Suedthueringen",
        "date": "2026-07-22T23:02:00+02:00",
        "tags": [
          "Suedthueringen"
        ],
        "user": "me",
        "image": "worlds/moon-map-photos/assets/photos/2026-07-22T2302-e98818.jpg",
        "thumb": "worlds/moon-map-photos/assets/photos/thumbs/2026-07-22T2302-e98818.jpg",
        "moonPhaseDay": 8,
        "moonPhaseIcon": "worlds/moon-map-photos/assets/moon/day-08.svg",
        "moonPhaseLabel": "Cuarto Creciente",
        "temporal": {
          "instant": "2026-07-22"
        }
      },
      "geometry": {
        "type": "Point",
        "coordinates": [
          10.9,
          50.6
        ]
      }
    },
    {
      "type": "Feature",
      "id": "2026-07-23T2036-dfb573",
      "properties": {
        "title": "Suedthueringen",
        "date": "2026-07-23T20:36:00+02:00",
        "tags": [
          "Suedthueringen"
        ],
        "user": "me",
        "image": "worlds/moon-map-photos/assets/photos/2026-07-23T2036-dfb573.jpg",
        "thumb": "worlds/moon-map-photos/assets/photos/thumbs/2026-07-23T2036-dfb573.jpg",
        "moonPhaseDay": 9,
        "moonPhaseIcon": "worlds/moon-map-photos/assets/moon/day-09.svg",
        "moonPhaseLabel": "Gibosa Creciente",
        "temporal": {
          "instant": "2026-07-23"
        }
      },
      "geometry": {
        "type": "Point",
        "coordinates": [
          10.9,
          50.6
        ]
      }
    },
    {
      "type": "Feature",
      "id": "2026-07-23T2036-587472",
      "properties": {
        "title": "Suedthueringen",
        "date": "2026-07-23T20:36:00+02:00",
        "tags": [
          "Suedthueringen"
        ],
        "user": "me",
        "image": "worlds/moon-map-photos/assets/photos/2026-07-23T2036-587472.jpg",
        "thumb": "worlds/moon-map-photos/assets/photos/thumbs/2026-07-23T2036-587472.jpg",
        "moonPhaseDay": 9,
        "moonPhaseIcon": "worlds/moon-map-photos/assets/moon/day-09.svg",
        "moonPhaseLabel": "Gibosa Creciente",
        "temporal": {
          "instant": "2026-07-23"
        }
      },
      "geometry": {
        "type": "Point",
        "coordinates": [
          10.9,
          50.6
        ]
      }
    },
    {
      "type": "Feature",
      "id": "2026-07-23T2209-1b3900",
      "properties": {
        "title": "Suedthueringen",
        "date": "2026-07-23T22:09:00+02:00",
        "tags": [
          "Suedthueringen"
        ],
        "user": "me",
        "image": "worlds/moon-map-photos/assets/photos/2026-07-23T2209-1b3900.jpg",
        "thumb": "worlds/moon-map-photos/assets/photos/thumbs/2026-07-23T2209-1b3900.jpg",
        "moonPhaseDay": 9,
        "moonPhaseIcon": "worlds/moon-map-photos/assets/moon/day-09.svg",
        "moonPhaseLabel": "Gibosa Creciente",
        "temporal": {
          "instant": "2026-07-23"
        }
      },
      "geometry": {
        "type": "Point",
        "coordinates": [
          10.9,
          50.6
        ]
      }
    },
    {
      "type": "Feature",
      "id": "2026-07-23T2210-018d00",
      "properties": {
        "title": "Suedthueringen",
        "date": "2026-07-23T22:10:00+02:00",
        "tags": [
          "Suedthueringen"
        ],
        "user": "me",
        "image": "worlds/moon-map-photos/assets/photos/2026-07-23T2210-018d00.jpg",
        "thumb": "worlds/moon-map-photos/assets/photos/thumbs/2026-07-23T2210-018d00.jpg",
        "moonPhaseDay": 9,
        "moonPhaseIcon": "worlds/moon-map-photos/assets/moon/day-09.svg",
        "moonPhaseLabel": "Gibosa Creciente",
        "temporal": {
          "instant": "2026-07-23"
        }
      },
      "geometry": {
        "type": "Point",
        "coordinates": [
          10.9,
          50.6
        ]
      }
    }
  ]
}
