{
  "type": "FeatureCollection",
  "features": [
    {
      "type": "Feature",
      "id": "poi-1",
      "properties": {
        "name": "Los Silos Park",
        "category": "park"
      },
      "geometry": {
        "type": "Point",
        "coordinates": [
          -16.815,
          28.367
        ]
      }
    },
    {
      "type": "Feature",
      "id": "poi-2",
      "properties": {
        "name": "Tegueste Park",
        "category": "park"
      },
      "geometry": {
        "type": "Point",
        "coordinates": [
          -16.312,
          28.518
        ]
      }
    },
    {
      "type": "Feature",
      "id": "poi-3",
      "properties": {
        "name": "Vilaflor Park",
        "category": "park"
      },
      "geometry": {
        "type": "Point",
        "coordinates": [
          -16.637,
          28.152
        ]
      }
    },
    {
      "type": "Feature",
      "id": "poi-4",
      "properties": {
        "name": "Adeje Restaurant",
        "category": "restaurant"
      },
      "geometry": {
        "type": "Point",
        "coordinates": [
          -16.723,
          28.121
        ]
      }
    },
    {
      "type": "Feature",
      "id": "poi-5",
      "properties": {
        "name": "Candelaria Restaurant",
        "category": "restaurant"
      },
      "geometry": {
        "type": "Point",
        "coordinates": [
          -16.363,
          28.357
        ]
      }
    },
    {
      "type": "Feature",
      "id": "poi-6",
      "properties": {
        "name": "Realejos Restaurant",
        "category": "restaurant"
      },
      "geometry": {
        "type": "Point",
        "coordinates": [
          -16.585,
          28.386
        ]
      }
    },
    {
      "type": "Feature",
      "id": "poi-7",
      "properties": {
        "name": "La Laguna Theatre",
        "category": "theatre"
      },
      "geometry": {
        "type": "Point",
        "coordinates": [
          -16.313,
          28.487
        ]
      }
    },
    {
      "type": "Feature",
      "id": "poi-8",
      "properties": {
        "name": "Santa Cruz Theatre",
        "category": "theatre"
      },
      "geometry": {
        "type": "Point",
        "coordinates": [
          -16.253,
          28.465
        ]
      }
    },
    {
      "type": "Feature",
      "id": "poi-9",
      "properties": {
        "name": "Orotava Theatre",
        "category": "theatre"
      },
      "geometry": {
        "type": "Point",
        "coordinates": [
          -16.52,
          28.392
        ]
      }
    }
  ]
}
