{
  "type": "FeatureCollection",
  "features": [
    {
      "type": "Feature",
      "id": "region-01-adeje",
      "properties": {
        "name": "Adeje"
      },
      "geometry": {
        "type": "Polygon",
        "coordinates": [
          [
            [
              -16.756,
              28.0975
            ],
            [
              -16.696,
              28.0975
            ],
            [
              -16.696,
              28.1475
            ],
            [
              -16.756,
              28.1475
            ],
            [
              -16.756,
              28.0975
            ]
          ]
        ]
      }
    },
    {
      "type": "Feature",
      "id": "region-02-arafo",
      "properties": {
        "name": "Arafo"
      },
      "geometry": {
        "type": "Polygon",
        "coordinates": [
          [
            [
              -16.427,
              28.298
            ],
            [
              -16.367,
              28.298
            ],
            [
              -16.367,
              28.348
            ],
            [
              -16.427,
              28.348
            ],
            [
              -16.427,
              28.298
            ]
          ]
        ]
      }
    },
    {
      "type": "Feature",
      "id": "region-03-arico",
      "properties": {
        "name": "Arico"
      },
      "geometry": {
        "type": "Polygon",
        "coordinates": [
          [
            [
              -16.525,
              28.179
            ],
            [
              -16.465,
              28.179
            ],
            [
              -16.465,
              28.229
            ],
            [
              -16.525,
              28.229
            ],
            [
              -16.525,
              28.179
            ]
          ]
        ]
      }
    },
    {
      "type": "Feature",
      "id": "region-04-arona",
      "properties": {
        "name": "Arona"
      },
      "geometry": {
        "type": "Polygon",
        "coordinates": [
          [
            [
              -16.711,
              28.076
            ],
            [
              -16.651,
              28.076
            ],
            [
              -16.651,
              28.126
            ],
            [
              -16.711,
              28.126
            ],
            [
              -16.711,
              28.076
            ]
          ]
        ]
      }
    },
    {
      "type": "Feature",
      "id": "region-05-buenavista-del-norte",
      "properties": {
        "name": "Buenavista del Norte"
      },
      "geometry": {
        "type": "Polygon",
        "coordinates": [
          [
            [
              -16.883,
              28.34
            ],
            [
              -16.823,
              28.34
            ],
            [
              -16.823,
              28.39
            ],
            [
              -16.883,
              28.39
            ],
            [
              -16.883,
              28.34
            ]
          ]
        ]
      }
    },
    {
      "type": "Feature",
      "id": "region-06-candelaria",
      "properties": {
        "name": "Candelaria"
      },
      "geometry": {
        "type": "Polygon",
        "coordinates": [
          [
            [
              -16.397,
              28.333
            ],
            [
              -16.337,
              28.333
            ],
            [
              -16.337,
              28.383
            ],
            [
              -16.397,
              28.383
            ],
            [
              -16.397,
              28.333
            ]
          ]
        ]
      }
    },
    {
      "type": "Feature",
      "id": "region-07-el-rosario",
      "properties": {
        "name": "El Rosario"
      },
      "geometry": {
        "type": "Polygon",
        "coordinates": [
          [
            [
              -16.353,
              28.418
            ],
            [
              -16.293,
              28.418
            ],
            [
              -16.293,
              28.468
            ],
            [
              -16.353,
              28.468
            ],
            [
              -16.353,
              28.418
            ]
          ]
        ]
      }
    },
    {
      "type": "Feature",
      "id": "region-08-el-sauzal",
      "properties": {
        "name": "El Sauzal"
      },
      "geometry": {
        "type": "Polygon",
        "coordinates": [
          [
            [
              -16.4736,
              28.3565
            ],
            [
              -16.4136,
              28.3565
            ],
            [
              -16.4136,
              28.4065
            ],
            [
              -16.4736,
              28.4065
            ],
            [
              -16.4736,
              28.3565
            ]
          ]
        ]
      }
    },
    {
      "type": "Feature",
      "id": "region-09-el-tanque",
      "properties": {
        "name": "El Tanque"
      },
      "geometry": {
        "type": "Polygon",
        "coordinates": [
          [
            [
              -16.805,
              28.346
            ],
            [
              -16.745,
              28.346
            ],
            [
              -16.745,
              28.396
            ],
            [
              -16.805,
              28.396
            ],
            [
              -16.805,
              28.346
            ]
          ]
        ]
      }
    },
    {
      "type": "Feature",
      "id": "region-10-fasnia",
      "properties": {
        "name": "Fasnia"
      },
      "geometry": {
        "type": "Polygon",
        "coordinates": [
          [
            [
              -16.457,
              28.258
            ],
            [
              -16.397,
              28.258
            ],
            [
              -16.397,
              28.308
            ],
            [
              -16.457,
              28.308
            ],
            [
              -16.457,
              28.258
            ]
          ]
        ]
      }
    },
    {
      "type": "Feature",
      "id": "region-11-garachico",
      "properties": {
        "name": "Garachico"
      },
      "geometry": {
        "type": "Polygon",
        "coordinates": [
          [
            [
              -16.7885,
              28.3456
            ],
            [
              -16.7285,
              28.3456
            ],
            [
              -16.7285,
              28.3956
            ],
            [
              -16.7885,
              28.3956
            ],
            [
              -16.7885,
              28.3456
            ]
          ]
        ]
      }
    },
    {
      "type": "Feature",
      "id": "region-12-granadilla-de-abona",
      "properties": {
        "name": "Granadilla de Abona"
      },
      "geometry": {
        "type": "Polygon",
        "coordinates": [
          [
            [
              -16.6114,
              28.0944
            ],
            [
              -16.5514,
              28.0944
            ],
            [
              -16.5514,
              28.1444
            ],
            [
              -16.6114,
              28.1444
            ],
            [
              -16.6114,
              28.0944
            ]
          ]
        ]
      }
    },
    {
      "type": "Feature",
      "id": "region-13-guia-de-isora",
      "properties": {
        "name": "Guía de Isora"
      },
      "geometry": {
        "type": "Polygon",
        "coordinates": [
          [
            [
              -16.7375,
              28.1869
            ],
            [
              -16.6775,
              28.1869
            ],
            [
              -16.6775,
              28.2369
            ],
            [
              -16.7375,
              28.2369
            ],
            [
              -16.7375,
              28.1869
            ]
          ]
        ]
      }
    },
    {
      "type": "Feature",
      "id": "region-14-guimar",
      "properties": {
        "name": "Güímar"
      },
      "geometry": {
        "type": "Polygon",
        "coordinates": [
          [
            [
              -16.441,
              28.292
            ],
            [
              -16.381,
              28.292
            ],
            [
              -16.381,
              28.342
            ],
            [
              -16.441,
              28.342
            ],
            [
              -16.441,
              28.292
            ]
          ]
        ]
      }
    },
    {
      "type": "Feature",
      "id": "region-15-icod-de-los-vinos",
      "properties": {
        "name": "Icod de los Vinos"
      },
      "geometry": {
        "type": "Polygon",
        "coordinates": [
          [
            [
              -16.7467,
              28.3417
            ],
            [
              -16.6867,
              28.3417
            ],
            [
              -16.6867,
              28.3917
            ],
            [
              -16.7467,
              28.3917
            ],
            [
              -16.7467,
              28.3417
            ]
          ]
        ]
      }
    },
    {
      "type": "Feature",
      "id": "region-16-la-guancha",
      "properties": {
        "name": "La Guancha"
      },
      "geometry": {
        "type": "Polygon",
        "coordinates": [
          [
            [
              -16.6967,
              28.3417
            ],
            [
              -16.6367,
              28.3417
            ],
            [
              -16.6367,
              28.3917
            ],
            [
              -16.6967,
              28.3917
            ],
            [
              -16.6967,
              28.3417
            ]
          ]
        ]
      }
    },
    {
      "type": "Feature",
      "id": "region-17-la-laguna",
      "properties": {
        "name": "La Laguna"
      },
      "geometry": {
        "type": "Polygon",
        "coordinates": [
          [
            [
              -16.3456,
              28.4624
            ],
            [
              -16.2856,
              28.4624
            ],
            [
              -16.2856,
              28.5124
            ],
            [
              -16.3456,
              28.5124
            ],
            [
              -16.3456,
              28.4624
            ]
          ]
        ]
      }
    },
    {
      "type": "Feature",
      "id": "region-18-la-matanza-de-acentejo",
      "properties": {
        "name": "La Matanza de Acentejo"
      },
      "geometry": {
        "type": "Polygon",
        "coordinates": [
          [
            [
              -16.4633,
              28.3583
            ],
            [
              -16.4033,
              28.3583
            ],
            [
              -16.4033,
              28.4083
            ],
            [
              -16.4633,
              28.4083
            ],
            [
              -16.4633,
              28.3583
            ]
          ]
        ]
      }
    },
    {
      "type": "Feature",
      "id": "region-19-la-orotava",
      "properties": {
        "name": "La Orotava"
      },
      "geometry": {
        "type": "Polygon",
        "coordinates": [
          [
            [
              -16.5525,
              28.3653
            ],
            [
              -16.4925,
              28.3653
            ],
            [
              -16.4925,
              28.4153
            ],
            [
              -16.5525,
              28.4153
            ],
            [
              -16.5525,
              28.3653
            ]
          ]
        ]
      }
    },
    {
      "type": "Feature",
      "id": "region-20-la-victoria-de-acentejo",
      "properties": {
        "name": "La Victoria de Acentejo"
      },
      "geometry": {
        "type": "Polygon",
        "coordinates": [
          [
            [
              -16.4467,
              28.3583
            ],
            [
              -16.3867,
              28.3583
            ],
            [
              -16.3867,
              28.4083
            ],
            [
              -16.4467,
              28.4083
            ],
            [
              -16.4467,
              28.3583
            ]
          ]
        ]
      }
    },
    {
      "type": "Feature",
      "id": "region-21-los-realejos",
      "properties": {
        "name": "Los Realejos"
      },
      "geometry": {
        "type": "Polygon",
        "coordinates": [
          [
            [
              -16.6133,
              28.3583
            ],
            [
              -16.5533,
              28.3583
            ],
            [
              -16.5533,
              28.4083
            ],
            [
              -16.6133,
              28.4083
            ],
            [
              -16.6133,
              28.3583
            ]
          ]
        ]
      }
    },
    {
      "type": "Feature",
      "id": "region-22-los-silos",
      "properties": {
        "name": "Los Silos"
      },
      "geometry": {
        "type": "Polygon",
        "coordinates": [
          [
            [
              -16.8467,
              28.3417
            ],
            [
              -16.7867,
              28.3417
            ],
            [
              -16.7867,
              28.3917
            ],
            [
              -16.8467,
              28.3917
            ],
            [
              -16.8467,
              28.3417
            ]
          ]
        ]
      }
    },
    {
      "type": "Feature",
      "id": "region-23-puerto-de-la-cruz",
      "properties": {
        "name": "Puerto de la Cruz"
      },
      "geometry": {
        "type": "Polygon",
        "coordinates": [
          [
            [
              -16.5786,
              28.3886
            ],
            [
              -16.5186,
              28.3886
            ],
            [
              -16.5186,
              28.4386
            ],
            [
              -16.5786,
              28.4386
            ],
            [
              -16.5786,
              28.3886
            ]
          ]
        ]
      }
    },
    {
      "type": "Feature",
      "id": "region-24-santa-cruz-de-tenerife",
      "properties": {
        "name": "Santa Cruz de Tenerife"
      },
      "geometry": {
        "type": "Polygon",
        "coordinates": [
          [
            [
              -16.2819,
              28.4386
            ],
            [
              -16.2219,
              28.4386
            ],
            [
              -16.2219,
              28.4886
            ],
            [
              -16.2819,
              28.4886
            ],
            [
              -16.2819,
              28.4386
            ]
          ]
        ]
      }
    },
    {
      "type": "Feature",
      "id": "region-25-santa-ursula",
      "properties": {
        "name": "Santa Úrsula"
      },
      "geometry": {
        "type": "Polygon",
        "coordinates": [
          [
            [
              -16.5133,
              28.3917
            ],
            [
              -16.4533,
              28.3917
            ],
            [
              -16.4533,
              28.4417
            ],
            [
              -16.5133,
              28.4417
            ],
            [
              -16.5133,
              28.3917
            ]
          ]
        ]
      }
    },
    {
      "type": "Feature",
      "id": "region-26-santiago-del-teide",
      "properties": {
        "name": "Santiago del Teide"
      },
      "geometry": {
        "type": "Polygon",
        "coordinates": [
          [
            [
              -16.8467,
              28.2583
            ],
            [
              -16.7867,
              28.2583
            ],
            [
              -16.7867,
              28.3083
            ],
            [
              -16.8467,
              28.3083
            ],
            [
              -16.8467,
              28.2583
            ]
          ]
        ]
      }
    },
    {
      "type": "Feature",
      "id": "region-27-san-juan-de-la-rambla",
      "properties": {
        "name": "San Juan de la Rambla"
      },
      "geometry": {
        "type": "Polygon",
        "coordinates": [
          [
            [
              -16.68,
              28.3583
            ],
            [
              -16.62,
              28.3583
            ],
            [
              -16.62,
              28.4083
            ],
            [
              -16.68,
              28.4083
            ],
            [
              -16.68,
              28.3583
            ]
          ]
        ]
      }
    },
    {
      "type": "Feature",
      "id": "region-28-san-miguel-de-abona",
      "properties": {
        "name": "San Miguel de Abona"
      },
      "geometry": {
        "type": "Polygon",
        "coordinates": [
          [
            [
              -16.6467,
              28.0583
            ],
            [
              -16.5867,
              28.0583
            ],
            [
              -16.5867,
              28.1083
            ],
            [
              -16.6467,
              28.1083
            ],
            [
              -16.6467,
              28.0583
            ]
          ]
        ]
      }
    },
    {
      "type": "Feature",
      "id": "region-29-tacoronte",
      "properties": {
        "name": "Tacoronte"
      },
      "geometry": {
        "type": "Polygon",
        "coordinates": [
          [
            [
              -16.4467,
              28.4583
            ],
            [
              -16.3867,
              28.4583
            ],
            [
              -16.3867,
              28.5083
            ],
            [
              -16.4467,
              28.5083
            ],
            [
              -16.4467,
              28.4583
            ]
          ]
        ]
      }
    },
    {
      "type": "Feature",
      "id": "region-30-tegueste",
      "properties": {
        "name": "Tegueste"
      },
      "geometry": {
        "type": "Polygon",
        "coordinates": [
          [
            [
              -16.3467,
              28.4917
            ],
            [
              -16.2867,
              28.4917
            ],
            [
              -16.2867,
              28.5417
            ],
            [
              -16.3467,
              28.5417
            ],
            [
              -16.3467,
              28.4917
            ]
          ]
        ]
      }
    },
    {
      "type": "Feature",
      "id": "region-31-vilaflor-de-chasna",
      "properties": {
        "name": "Vilaflor de Chasna"
      },
      "geometry": {
        "type": "Polygon",
        "coordinates": [
          [
            [
              -16.6686,
              28.125
            ],
            [
              -16.6086,
              28.125
            ],
            [
              -16.6086,
              28.175
            ],
            [
              -16.6686,
              28.175
            ],
            [
              -16.6686,
              28.125
            ]
          ]
        ]
      }
    }
  ]
}
