{
  "type": "FeatureCollection",
  "features": [
    {
      "type": "Feature",
      "id": "pp-1",
      "properties": {
        "name": "Iglesia de la Concepción",
        "municipality": "La Orotava",
        "province": "Santa Cruz de Tenerife",
        "autonomousCommunity": "Canarias",
        "category": "Lugares de Poder",
        "categories": ["Lugares de Poder", "Brujería"],
        "description": "Templo parroquial del siglo XVI con misterios relacionados con el simbolismo de su arquitectura y decoración. La potencia energética de este lugar es especialmente palpable cerca del altar. Las columnas muestran figuras triangulares (convencional e invertida) formando parte de escenas como el Sueño de Jacob. En el exterior destacan gárgolas exhibicionistas que recuerdan a ídolos paganos celtas de fertilidad (Sheela na Gigs).",
        "phenomena": [
          "Energía telúrica intensa",
          "Simbolismo masónico oculto",
          "Gárgolas con simbolismo pagano",
          "Punto de poder energético"
        ],
        "tags": [
          "lugares de poder",
          "siglo XVI",
          "iglesia",
          "visitable",
          "energía telúrica",
          "simbolismo masónico",
          "arquitectura sagrada"
        ],
        "verificationLevel": "Documentado",
        "popularity": 4,
        "era": "Siglo XVI",
        "activityHours": "Diurno - Energía constante",
        "dangerLevel": "Baja",
        "accessibility": "Público - Horario de culto",
        "bestSeason": "Todo el año",
        "investigators": ["José Gregorio González", "Expertos en arquitectura masónica"],
        "video": {
          "title": "Free Tour Misterios La Orotava",
          "url": "https://www.civitatis.com/es/la-orotava/free-tour-misterios-leyendas-orotava/"
        },
        "fullHistory": "La Iglesia de la Concepción es uno de los templos más enigmáticos de Canarias. Su ubicación fue elegida con criterios telúricos, aprovechando las líneas de energía natural del terreno. Los arquitectos incorporaron simbología masónica y hermética en su diseño, visible en las columnas con triángulos invertidos que representan conceptos esotéricos. Las gárgolas de la parte trasera son especialmente curiosas, ya que representan figuras exhibicionistas similares a los antiguos ídolos celtas de fertilidad, algo muy inusual en una iglesia católica.",
        "howToGetThere": "Centro histórico de La Orotava, cerca de la Plaza de la Constitución",
        "recommendations": "Visitar durante el día. Observar las columnas del altar y buscar las gárgolas en la parte trasera del templo.",
        "sources": [
          "Diario de Avisos - Los 10 lugares más misteriosos de Tenerife",
          "Rutas Misteriosas - La Orotava Misteriosa"
        ]
      },
      "geometry": { "type": "Point", "coordinates": [-16.5245, 28.389] }
    },
    {
      "type": "Feature",
      "id": "pp-2",
      "properties": {
        "name": "Casa Lercaro",
        "municipality": "La Orotava",
        "province": "Santa Cruz de Tenerife",
        "autonomousCommunity": "Canarias",
        "category": "Apariciones",
        "categories": ["Apariciones", "Tragedias"],
        "description": "Antigua mansión relacionada con la famosa Casa Lercaro de La Laguna. Según la leyenda local, tras el suicidio de Catalina Lercaro en La Laguna, la familia se trasladó al Valle de La Orotava, posiblemente huyendo de la vergüenza o del fantasma de Catalina. Se reportan apariciones fantasmales y presencias en esta ubicación.",
        "phenomena": [
          "Apariciones fantasmales",
          "Presencias invisibles",
          "Ruidos inexplicables",
          "Cambios de temperatura"
        ],
        "tags": [
          "apariciones",
          "siglo XVII",
          "casa",
          "historia trágica",
          "muy activo",
          "novia suicida"
        ],
        "verificationLevel": "Leyenda Popular",
        "popularity": 3,
        "era": "Siglo XVII-XVIII",
        "activityHours": "Nocturno principalmente",
        "dangerLevel": "Baja",
        "accessibility": "Acceso restringido - Propiedad privada",
        "bestSeason": "Otoño-Invierno",
        "fullHistory": "La conexión de La Orotava con la tragedia de Catalina Lercaro es menos conocida que la casa principal en La Laguna, pero igualmente inquietante. Tras el suicidio de Catalina, que se arrojó a un pozo antes de su boda forzada, la familia Lercaro abandonó su residencia en La Laguna y se estableció en el Valle de La Orotava. Algunos creen que buscaban huir del fantasma de Catalina, otros que simplemente escapaban de la vergüenza social. Las leyendas locales sugieren que el espíritu de Catalina siguió a la familia.",
        "howToGetThere": "Casco antiguo de La Orotava",
        "recommendations": "Respetar la propiedad privada. Se puede observar desde el exterior.",
        "sources": ["Princess Hotels - Historias de miedo de Tenerife"]
      },
      "geometry": { "type": "Point", "coordinates": [-16.525, 28.39] }
    },
    {
      "type": "Feature",
      "id": "pp-3",
      "properties": {
        "name": "Liceo de Taoro",
        "municipality": "La Orotava",
        "province": "Santa Cruz de Tenerife",
        "autonomousCommunity": "Canarias",
        "category": "Apariciones",
        "categories": ["Apariciones"],
        "description": "Emblemático edificio cultural de La Orotava donde se reportan fenómenos paranormales inexplicables. Los testigos describen presencias, ruidos sin explicación y fenómenos que han sido objeto de investigación por parte de expertos en lo paranormal.",
        "phenomena": [
          "Fenómenos paranormales variados",
          "Presencias invisibles",
          "Ruidos inexplicables",
          "Actividad nocturna"
        ],
        "tags": [
          "apariciones",
          "edificio histórico",
          "siglo XIX",
          "actividad esporádica",
          "visitable"
        ],
        "verificationLevel": "Testimonios Múltiples",
        "popularity": 3,
        "era": "Siglo XIX-XX",
        "activityHours": "Nocturno",
        "dangerLevel": "Baja",
        "accessibility": "Público - Eventos culturales",
        "bestSeason": "Todo el año",
        "investigators": ["Rutas Misteriosas"],
        "video": {
          "title": "Rutas Misteriosas - La Orotava",
          "url": "https://rutasmisteriosas.es/reservar/la-orotava-misteriosa/"
        },
        "fullHistory": "El Liceo de Taoro es un importante centro cultural de La Orotava con más de un siglo de historia. A lo largo de los años, trabajadores y visitantes han reportado experiencias inexplicables en el edificio, especialmente durante la noche. Las investigaciones paranormales han documentado estos fenómenos, aunque se mantiene cierta reserva para no afectar las actividades culturales del centro.",
        "howToGetThere": "Centro de La Orotava, edificio histórico emblemático",
        "recommendations": "Visitar durante eventos culturales. Preguntar a los trabajadores antiguos sobre las historias.",
        "sources": ["Rutas Misteriosas - La Orotava Misteriosa"]
      },
      "geometry": { "type": "Point", "coordinates": [-16.524, 28.3895] }
    },
    {
      "type": "Feature",
      "id": "pp-4",
      "properties": {
        "name": "Auditorio Teobaldo Power",
        "municipality": "La Orotava",
        "province": "Santa Cruz de Tenerife",
        "autonomousCommunity": "Canarias",
        "category": "Apariciones",
        "categories": ["Apariciones"],
        "description": "Auditorio municipal donde se han reportado sucesos inexplicables, especialmente durante ensayos nocturnos y en áreas poco transitadas del edificio. Algunos trabajadores y artistas han descrito experiencias paranormales.",
        "phenomena": [
          "Ruidos en zonas vacías",
          "Sensación de presencias",
          "Fenómenos durante ensayos nocturnos"
        ],
        "tags": [
          "apariciones",
          "edificio moderno",
          "siglo XX",
          "actividad esporádica",
          "teatro"
        ],
        "verificationLevel": "Testimonios Múltiples",
        "popularity": 2,
        "era": "Contemporáneo",
        "activityHours": "Nocturno - Durante ensayos",
        "dangerLevel": "Baja",
        "accessibility": "Público - Durante eventos",
        "bestSeason": "Todo el año",
        "fullHistory": "El Auditorio Teobaldo Power, a pesar de ser una construcción relativamente moderna, ha acumulado reportes de fenómenos inexplicables. Los testimonios provienen principalmente de personal técnico y artistas que ensayan en horarios nocturnos. Se describen ruidos sin fuente aparente, especialmente en los camerinos y zonas técnicas.",
        "howToGetThere": "Centro de La Orotava",
        "recommendations": "Asistir a eventos culturales. El personal puede compartir experiencias.",
        "sources": ["Rutas Misteriosas"]
      },
      "geometry": { "type": "Point", "coordinates": [-16.5235, 28.3885] }
    },
    {
      "type": "Feature",
      "id": "pp-5",
      "properties": {
        "name": "Placita Rosales - Sombra Verde",
        "municipality": "La Orotava",
        "province": "Santa Cruz de Tenerife",
        "autonomousCommunity": "Canarias",
        "category": "Apariciones",
        "categories": ["Apariciones"],
        "description": "Pequeña plaza del casco histórico conocida por la leyenda de la 'Sombra Verde', una presencia fantasmal que se manifiesta como una figura de color verde que deambula por la zona, especialmente al atardecer y durante la noche.",
        "phenomena": [
          "Aparición de figura verdosa",
          "Sombra que se desplaza",
          "Avistamientos al atardecer",
          "Presencia inquietante"
        ],
        "tags": [
          "apariciones",
          "figura verde",
          "nocturno",
          "plaza",
          "leyenda local",
          "muy activo"
        ],
        "verificationLevel": "Leyenda Popular",
        "popularity": 3,
        "era": "Indeterminada",
        "activityHours": "Atardecer y noche",
        "dangerLevel": "Baja",
        "accessibility": "Público - Plaza abierta",
        "bestSeason": "Todo el año",
        "investigators": ["Rutas Misteriosas"],
        "fullHistory": "La Sombra Verde es una de las leyendas urbanas más persistentes de La Orotava. Los vecinos de la zona han reportado durante generaciones el avistamiento de una figura de tonalidad verdosa que aparece en la placita Rosales, especialmente cuando cae el sol. No se conoce el origen de esta aparición, aunque algunos la relacionan con antiguas historias del barrio.",
        "howToGetThere": "Casco antiguo de La Orotava, cerca de la calle San Francisco",
        "recommendations": "Visitar al atardecer. Preguntar a vecinos antiguos de la zona.",
        "sources": ["Rutas Misteriosas - La Orotava Misteriosa"]
      },
      "geometry": { "type": "Point", "coordinates": [-16.5248, 28.3892] }
    },
    {
      "type": "Feature",
      "id": "pp-6",
      "properties": {
        "name": "Cruz de los Ahorcados",
        "municipality": "La Orotava",
        "province": "Santa Cruz de Tenerife",
        "autonomousCommunity": "Canarias",
        "category": "Tragedias",
        "categories": ["Tragedias", "Apariciones"],
        "description": "Lugar histórico marcado por ejecuciones del pasado. La cruz señala el punto donde se realizaban ahorcamientos públicos. Se reportan apariciones y fenómenos relacionados con las almas de los ajusticiados.",
        "phenomena": [
          "Apariciones de ajusticiados",
          "Presencias inquietantes",
          "Sensaciones de angustia",
          "Fenómenos nocturnos"
        ],
        "tags": [
          "tragedias",
          "ejecuciones",
          "historia negra",
          "cruz",
          "siglos pasados",
          "muy activo"
        ],
        "verificationLevel": "Documentado",
        "popularity": 3,
        "era": "Siglos XVI-XIX",
        "activityHours": "Nocturno",
        "dangerLevel": "Media - Zona poco iluminada",
        "accessibility": "Público",
        "bestSeason": "Todo el año",
        "investigators": ["Rutas Misteriosas"],
        "fullHistory": "La Cruz de los Ahorcados marca un lugar de triste memoria en La Orotava. Durante siglos, este fue el punto donde se ejecutaban las sentencias de muerte por ahorcamiento. Las almas de los condenados, según la tradición, permanecen ligadas a este lugar, manifestándose especialmente durante la noche.",
        "howToGetThere": "Indicaciones disponibles en tours de misterios",
        "recommendations": "Visitar en grupo y con guía. Zona poco iluminada por la noche.",
        "sources": ["Rutas Misteriosas"]
      },
      "geometry": { "type": "Point", "coordinates": [-16.5242, 28.3888] }
    },
    {
      "type": "Feature",
      "id": "pp-7",
      "properties": {
        "name": "Barranco de Araujo",
        "municipality": "La Orotava",
        "province": "Santa Cruz de Tenerife",
        "autonomousCommunity": "Canarias",
        "category": "Tragedias",
        "categories": ["Tragedias", "Apariciones"],
        "description": "Barranco que esconde una historia relacionada con una muerte trágica. El lugar mantiene una atmósfera inquietante y se reportan fenómenos paranormales relacionados con el suceso que tuvo lugar allí.",
        "phenomena": [
          "Apariciones fantasmales",
          "Sensación de tragedia",
          "Presencias",
          "Atmósfera inquietante"
        ],
        "tags": [
          "tragedias",
          "barranco",
          "muerte trágica",
          "naturaleza",
          "historia local"
        ],
        "verificationLevel": "Leyenda Popular",
        "popularity": 2,
        "era": "Indeterminada",
        "activityHours": "Todo el día",
        "dangerLevel": "Media - Terreno irregular",
        "accessibility": "Acceso restringido - Barranco",
        "bestSeason": "Primavera-Verano",
        "fullHistory": "El Barranco de Araujo es conocido en La Orotava por una tragedia del pasado cuyos detalles específicos se han difuminado con el tiempo. Los tours de misterios locales incluyen este punto en sus recorridos, relatando la historia de la muerte trágica que marcó el lugar.",
        "howToGetThere": "Desde el casco histórico de La Orotava",
        "recommendations": "Ir con guía local. Calzado apropiado para barranco.",
        "sources": ["Civitatis - Free Tour Misterios y Leyendas"]
      },
      "geometry": { "type": "Point", "coordinates": [-16.526, 28.388] }
    },
    {
      "type": "Feature",
      "id": "pp-8",
      "properties": {
        "name": "Casa de los Balcones",
        "municipality": "La Orotava",
        "province": "Santa Cruz de Tenerife",
        "autonomousCommunity": "Canarias",
        "category": "Apariciones",
        "categories": ["Apariciones"],
        "description": "Hermosa mansión canaria del siglo XVII, joya arquitectónica de La Orotava. Se reportan fenómenos paranormales como apariciones de figuras fantasmales y la sensación constante de ser observado por presencias invisibles. Según las leyendas, la casa fue construida sobre un antiguo cementerio, y los espíritus de los difuntos aún rondan el lugar.",
        "phenomena": [
          "Figuras fantasmales",
          "Sensación de ser observado",
          "Presencias invisibles",
          "Actividad paranormal variada"
        ],
        "tags": [
          "apariciones",
          "siglo XVII",
          "mansión",
          "muy activo",
          "visitable",
          "cementerio antiguo",
          "arquitectura canaria"
        ],
        "verificationLevel": "Testimonios Múltiples",
        "popularity": 4,
        "era": "Siglo XVII",
        "activityHours": "Todo el día - Más intenso de noche",
        "dangerLevel": "Baja",
        "accessibility": "Público - Museo y tienda",
        "bestSeason": "Todo el año",
        "fullHistory": "La Casa de los Balcones es uno de los edificios más emblemáticos de La Orotava y un importante atractivo turístico. Esta mansión del siglo XVII alberga actualmente un museo de artesanía canaria. Sin embargo, bajo su belleza arquitectónica se esconde una historia más oscura. Según la tradición local, el edificio se construyó sobre terreno que anteriormente fue un cementerio. Los visitantes y trabajadores han reportado durante años la aparición de figuras fantasmales en diferentes zonas de la casa, así como una constante sensación de ser observados por presencias invisibles. Algunos testigos describen cambios bruscos de temperatura y una atmósfera particularmente densa en ciertas habitaciones.",
        "howToGetThere": "Calle San Francisco, centro histórico de La Orotava. Edificio emblemático fácilmente reconocible.",
        "recommendations": "Abierto al público como museo. Se puede visitar durante el horario comercial. Prestar atención a las sensaciones en las habitaciones del piso superior.",
        "sources": ["Informativos Canarias - Lugares aterradores de Tenerife"]
      },
      "geometry": { "type": "Point", "coordinates": [-16.5244, 28.3891] }
    },
    {
      "type": "Feature",
      "id": "pp-9",
      "properties": {
        "name": "Casa Lercaro (Museo de Historia y Antropología de Tenerife)",
        "municipality": "San Cristóbal de La Laguna",
        "province": "Santa Cruz de Tenerife",
        "autonomousCommunity": "Canarias",
        "category": "Apariciones",
        "categories": ["Apariciones", "Tragedias"],
        "description": "Palacio del siglo XVI en la calle San Agustín, hoy sede del Museo de Historia y Antropología de Tenerife. Es el origen de la leyenda de Catalina Lercaro, la joven que se habría arrojado a un pozo del patio trasero el mismo día de su boda forzada, y cuyo espíritu recorrería aún las salas del edificio.",
        "phenomena": [
          "Apariciones fantasmales",
          "Ruidos y pasos sin explicación en salas cerradas",
          "Sensación de presencia junto al pozo del patio"
        ],
        "tags": ["apariciones", "siglo XVI", "museo", "novia suicida", "patrimonio de la humanidad"],
        "verificationLevel": "Leyenda Popular",
        "popularity": 5,
        "era": "Siglo XVI",
        "activityHours": "Nocturno principalmente",
        "dangerLevel": "Baja",
        "accessibility": "Público - Museo con horario de visita",
        "bestSeason": "Todo el año",
        "fullHistory": "La leyenda sitúa en este palacio a Catalina Lercaro, obligada a casarse contra su voluntad, que se habría suicidado arrojándose a un pozo del patio el mismo día de la boda. Al ser un suicidio, la Iglesia se negó a darle sepultura cristiana, por lo que la tradición sostiene que su cuerpo quedó enterrado en una de las estancias de la casa. Una investigación de los gestores del museo en los libros parroquiales de enterramientos no halló constancia documental de que existiera una Catalina fallecida joven en el palacio, por lo que hoy se considera una leyenda urbana sin base histórica confirmada, aunque sigue siendo la más citada de La Laguna.",
        "howToGetThere": "Calle San Agustín, 22, casco histórico de San Cristóbal de La Laguna",
        "recommendations": "Visitar en horario de museo (L-S 9:00-19:00, domingos y festivos 10:00-17:00). Preguntar por la leyenda en la visita guiada.",
        "sources": [
          "Museos de Tenerife - Casa Lercaro",
          "Naukas - El Museo de Historia y Antropología de Tenerife o cómo crear una casa encantada",
          "Revista Fama Tenerife - El fantasma de Catalina Lercaro"
        ]
      },
      "geometry": { "type": "Point", "coordinates": [-16.3166, 28.4885] }
    },
    {
      "type": "Feature",
      "id": "pp-10",
      "properties": {
        "name": "Convento de Santa Catalina de Siena",
        "municipality": "San Cristóbal de La Laguna",
        "province": "Santa Cruz de Tenerife",
        "autonomousCommunity": "Canarias",
        "category": "Objetos Malditos",
        "categories": ["Objetos Malditos", "Lugares de Poder"],
        "description": "Monasterio de clausura fundado en 1611 en la Plaza del Adelantado, el más antiguo de la Orden de Predicadores en Canarias. En su interior se conserva el cuerpo incorrupto de María de Jesús de León y Delgado, conocida como 'La Siervita', exhumado en 1731 a petición del célebre corsario Amaro Rodríguez Felipe, 'Amaro Pargo'.",
        "phenomena": [
          "Cuerpo incorrupto conservado desde el siglo XVIII",
          "Relatos de curaciones y favores atribuidos a la Siervita",
          "Atmósfera de recogimiento descrita como 'cargada' por visitantes"
        ],
        "tags": ["objetos malditos", "cuerpo incorrupto", "siglo XVII", "convento de clausura", "amaro pargo"],
        "verificationLevel": "Documentado",
        "popularity": 3,
        "era": "Siglo XVII-XVIII",
        "activityHours": "Todo el día",
        "dangerLevel": "Baja",
        "accessibility": "Parcial - Convento de clausura, visitas limitadas",
        "bestSeason": "Todo el año",
        "fullHistory": "Fundado en 1600 por Juan de Cabrejas y María de Salas sobre las antiguas casas del adelantado Alonso Fernández de Lugo, el convento abrió en 1611 con cuatro religiosas llegadas de Sevilla y llegó a albergar un centenar de monjas. Su fama actual procede del cuerpo incorrupto de la monja María de Jesús de León y Delgado, fallecida en 1731 y exhumada tres años después a petición de Amaro Rodríguez Felipe, quien costeó un ataúd de madera para ella, algo inusual ya que las religiosas se enterraban directamente en tierra. El hallazgo del cuerpo sin descomponer alimentó su fama de santidad popular.",
        "howToGetThere": "Plaza del Adelantado, casco histórico de San Cristóbal de La Laguna",
        "recommendations": "Consultar horarios de visita del convento, que sigue habitado por religiosas de clausura.",
        "sources": [
          "Dominicos - Santa Catalina de Siena en San Cristóbal de La Laguna",
          "Wikipedia - Convento de Santa Catalina de Siena (San Cristóbal de La Laguna)"
        ]
      },
      "geometry": { "type": "Point", "coordinates": [-16.3162, 28.488] }
    },
    {
      "type": "Feature",
      "id": "pp-11",
      "properties": {
        "name": "Teatro Leal",
        "municipality": "San Cristóbal de La Laguna",
        "province": "Santa Cruz de Tenerife",
        "autonomousCommunity": "Canarias",
        "category": "Apariciones",
        "categories": ["Apariciones"],
        "description": "Teatro construido en 1915 por encargo de Antonio Leal, en la calle Obispo Rey Redondo del casco histórico lagunero. Las rutas de misterio de la ciudad lo incluyen habitualmente junto al Palacio Lercaro como escenario de fenómenos paranormales reportados por personal técnico y artistas.",
        "phenomena": [
          "Ruidos y pasos en el escenario vacío",
          "Sensación de presencias entre bambalinas",
          "Fenómenos reportados durante ensayos nocturnos"
        ],
        "tags": ["apariciones", "teatro", "siglo XX", "casco histórico", "rutas de misterio"],
        "verificationLevel": "Testimonios Múltiples",
        "popularity": 2,
        "era": "Siglo XX",
        "activityHours": "Nocturno - Durante ensayos y funciones",
        "dangerLevel": "Baja",
        "accessibility": "Público - Programación cultural regular",
        "bestSeason": "Todo el año",
        "investigators": ["Rutas Misteriosas"],
        "fullHistory": "Construido en 1915 según planos del arquitecto Antonio Pintor y reabierto tras una restauración en 2008, el Teatro Leal es uno de los escenarios históricos más activos de La Laguna. Las visitas guiadas de temática paranormal de la ciudad lo citan junto al Palacio Lercaro como punto donde el personal ha reportado fenómenos inexplicables, aunque a diferencia de este último no existe una leyenda concreta asociada, sino relatos sueltos de trabajadores y artistas.",
        "howToGetThere": "Calle Obispo Rey Redondo, casco histórico de San Cristóbal de La Laguna",
        "recommendations": "Asistir a una función y preguntar al personal técnico por sus experiencias.",
        "sources": ["Rutas Misteriosas - La Laguna Paranormal"]
      },
      "geometry": { "type": "Point", "coordinates": [-16.3155, 28.487] }
    },
    {
      "type": "Feature",
      "id": "pp-12",
      "properties": {
        "name": "Plaza del Juego de los Bolos",
        "municipality": "San Cristóbal de La Laguna",
        "province": "Santa Cruz de Tenerife",
        "autonomousCommunity": "Canarias",
        "category": "Apariciones",
        "categories": ["Apariciones"],
        "description": "Plaza histórica, también conocida como Plaza de la Junta Suprema de Canarias, escenario en la segunda mitad del siglo XIX de la célebre leyenda del 'Fantasma de la Plaza del Juego de los Bolos': una figura envuelta en sábanas y arrastrando cadenas que aterrorizaba a los serenos nocturnos junto a la fuente antes de desaparecer por el Callejón del Osario.",
        "phenomena": [
          "Figura envuelta en sábanas junto a la fuente",
          "Ruido de cadenas arrastradas",
          "Desaparición súbita en el Callejón del Osario"
        ],
        "tags": ["apariciones", "leyenda urbana", "siglo XIX", "sereno", "fantasma desenmascarado"],
        "verificationLevel": "Documentado",
        "popularity": 2,
        "era": "Siglo XIX",
        "activityHours": "Nocturno",
        "dangerLevel": "Baja",
        "accessibility": "Público - Plaza abierta",
        "bestSeason": "Todo el año",
        "fullHistory": "La noche del 2 de noviembre de 1865 los serenos de La Laguna comenzaron a reportar un fantasma junto a la fuente de la Plaza del Juego de los Bolos: una figura envuelta en sábanas que arrastraba cadenas y se desvanecía por el Callejón del Osario. La leyenda, muy popular durante meses, terminó por resolverse: tras la sábana se escondía un joven acomodado de apellido Gallardo que aprovechaba la superstición de los vecinos y el miedo de los serenos para citarse a escondidas con su amada, usando el disfraz de aparición para despejar la plaza sin levantar sospechas. Es uno de los pocos casos laguneros de leyenda paranormal con desenlace documentado y no sobrenatural.",
        "howToGetThere": "Casco histórico de San Cristóbal de La Laguna, cerca del Lomo de la Concepción",
        "recommendations": "Ideal para contrastar con el resto del recorrido: aquí el misterio tiene solución conocida.",
        "sources": ["La Laguna Ahora - La leyenda del Fantasma de la lagunera Plaza del Juego de Los Bolos"]
      },
      "geometry": { "type": "Point", "coordinates": [-16.3175, 28.4863] }
    },
    {
      "type": "Feature",
      "id": "pp-13",
      "properties": {
        "name": "Teatro Guimerá",
        "municipality": "Santa Cruz de Tenerife",
        "province": "Santa Cruz de Tenerife",
        "autonomousCommunity": "Canarias",
        "category": "Apariciones",
        "categories": ["Apariciones", "Tragedias"],
        "description": "Inaugurado en 1851, el teatro más antiguo de Canarias, en la Plaza Isla de La Madera. Las rutas de misterio de la capital citan entre su personal y artistas el relato recurrente de una mujer despechada que habría muerto durante una función, cuya figura seguiría apareciéndose entre bambalinas y palcos en las noches sin espectáculo.",
        "phenomena": [
          "Figura femenina entre bambalinas",
          "Ruidos y pasos en palcos vacíos",
          "Sensación de ser observado desde el gallinero"
        ],
        "tags": ["apariciones", "teatro", "siglo XIX", "casco histórico", "santa cruz tenebrosa"],
        "verificationLevel": "Testimonios Múltiples",
        "popularity": 3,
        "era": "Siglo XIX",
        "activityHours": "Nocturno - Fuera de función",
        "dangerLevel": "Baja",
        "accessibility": "Público - Programación cultural regular",
        "bestSeason": "Todo el año",
        "investigators": ["Rutas Misteriosas"],
        "fullHistory": "El Teatro Guimerá, inaugurado el 25 de julio de 1851, es el teatro más antiguo de las Islas Canarias y sigue en activo como sala de programación regular. La leyenda más repetida por el personal técnico y las rutas nocturnas de la ciudad habla de una mujer despechada que habría muerto durante una representación y cuyo espíritu continuaría rondando el edificio, especialmente los palcos y el espacio tras el escenario, en las noches en que no hay función.",
        "howToGetThere": "Plaza Isla de La Madera, s/n, 38003 Santa Cruz de Tenerife",
        "recommendations": "Asistir a una función y preguntar al personal técnico por sus experiencias entre bambalinas.",
        "sources": ["Rutas Misteriosas - Santa Cruz Tenebrosa", "Los Mitos y Leyendas - Mitos y Leyendas de Santa Cruz de Tenerife"]
      },
      "geometry": { "type": "Point", "coordinates": [-16.2508, 28.4667] }
    },
    {
      "type": "Feature",
      "id": "pp-14",
      "properties": {
        "name": "Parque García Sanabria",
        "municipality": "Santa Cruz de Tenerife",
        "province": "Santa Cruz de Tenerife",
        "autonomousCommunity": "Canarias",
        "category": "Apariciones",
        "categories": ["Apariciones", "Lugares de Poder"],
        "description": "El principal parque urbano de Santa Cruz, inaugurado en los años 20, esconde tras su trazado ajardinado varias leyendas nocturnas: la aparición de la 'mujer del velo', simbología masónica oculta en algunas de sus esculturas y relatos de fenómenos inexplicables en las viviendas colindantes.",
        "phenomena": [
          "Aparición de una figura femenina con velo",
          "Simbología esotérica en las esculturas del parque",
          "Fenómenos reportados en casas vecinas al parque"
        ],
        "tags": ["apariciones", "parque urbano", "siglo XX", "mujer del velo", "simbolismo masónico"],
        "verificationLevel": "Leyenda Popular",
        "popularity": 3,
        "era": "Siglo XX",
        "activityHours": "Nocturno",
        "dangerLevel": "Baja",
        "accessibility": "Público - Parque abierto",
        "bestSeason": "Todo el año",
        "investigators": ["Rutas Misteriosas"],
        "fullHistory": "El Parque García Sanabria, corazón verde de Santa Cruz de Tenerife desde su remodelación en los años 20, es descrito por las rutas de misterio locales como un lugar que 'de noche se convierte en otro': un espacio mágico y tenebroso donde se cuenta la leyenda de la 'mujer del velo', una presencia femenina que se aparece entre los senderos y estanques tras el anochecer. A ello se suma la lectura esotérica de parte de su estatuaria, con simbología que algunos guías relacionan con sociedades secretas, y testimonios sueltos de fenómenos extraños en viviendas colindantes al parque.",
        "howToGetThere": "Entre las calles Méndez Núñez y Pilar, centro de Santa Cruz de Tenerife",
        "recommendations": "Recorrer el parque al anochecer, cuando se sitúa la aparición según la leyenda.",
        "sources": ["Rutas Misteriosas - Parque García Sanabria Misterioso"]
      },
      "geometry": { "type": "Point", "coordinates": [-16.2539, 28.4732] }
    },
    {
      "type": "Feature",
      "id": "pp-15",
      "properties": {
        "name": "Plaza del Príncipe",
        "municipality": "Santa Cruz de Tenerife",
        "province": "Santa Cruz de Tenerife",
        "autonomousCommunity": "Canarias",
        "category": "Apariciones",
        "categories": ["Apariciones"],
        "description": "Plaza romántica de 1855, construida sobre el antiguo huerto del convento franciscano, con laureles de Indias centenarios. Es uno de los puntos citados por las rutas nocturnas de la capital, con apariciones espectrales reportadas junto a sucesos inexplicables asociados a una casa histórica cercana a la plaza.",
        "phenomena": [
          "Apariciones espectrales bajo los laureles",
          "Sucesos inexplicables en una casa histórica próxima",
          "Sensación de presencias al anochecer"
        ],
        "tags": ["apariciones", "plaza histórica", "siglo XIX", "convento franciscano", "santa cruz tenebrosa"],
        "verificationLevel": "Testimonios Múltiples",
        "popularity": 2,
        "era": "Siglo XIX",
        "activityHours": "Nocturno",
        "dangerLevel": "Baja",
        "accessibility": "Público - Plaza abierta",
        "bestSeason": "Todo el año",
        "investigators": ["Rutas Misteriosas"],
        "fullHistory": "Levantada en 1855 sobre el antiguo huerto del convento de San Francisco y bautizada coincidiendo con el nacimiento de Alfonso XII, la Plaza del Príncipe es uno de los rincones más fotografiados de Santa Cruz por sus laureles de Indias centenarios. Las rutas de misterio de la ciudad la incluyen en sus recorridos citando apariciones espectrales en la propia plaza y sucesos inexplicables ligados a una vivienda histórica de la zona, sin que exista una única leyenda consolidada como en otros puntos de la ruta.",
        "howToGetThere": "Plaza del Príncipe, centro histórico de Santa Cruz de Tenerife, junto a la calle Villalba Hervás",
        "recommendations": "Visitar al anochecer; combinar con el resto de la ruta 'Santa Cruz Tenebrosa'.",
        "sources": ["Rutas Misteriosas - Santa Cruz Tenebrosa"]
      },
      "geometry": { "type": "Point", "coordinates": [-16.2516, 28.465] }
    },
    {
      "type": "Feature",
      "id": "pp-16",
      "properties": {
        "name": "Pueblo Viejo de Belchite",
        "municipality": "Belchite",
        "province": "Zaragoza",
        "autonomousCommunity": "Aragón",
        "category": "Apariciones",
        "categories": ["Apariciones", "Tragedias"],
        "description": "Pueblo destruido por completo durante la cruenta batalla de Belchite en 1937 y dejado como testimonio. Epicentro mundial de psicofonías donde se escuchan bombas, aviones, campanas y lamentos entre las ruinas.",
        "phenomena": [
          "Psicofonías de bombardeos y campanas",
          "Apariciones de soldados y siluetas humanas",
          "Sensación térmica gélida repentina",
          "Sombras errantes en la iglesia de San Martín"
        ],
        "tags": ["apariciones", "guerra civil", "ruinas", "psicofonías", "pueblo fantasma", "belchite"],
        "verificationLevel": "Científicamente Estudiado",
        "popularity": 5,
        "era": "Siglo XX (1937)",
        "activityHours": "Nocturno principalmente",
        "dangerLevel": "Media",
        "accessibility": "Visitas guiadas diurnas y nocturnas",
        "bestSeason": "Primavera-Otoño",
        "investigators": ["Iker Jiménez", "Germán de Argumosa", "Sociedad Española de Investigaciones Parapsicológicas"],
        "fullHistory": "Durante el verano de 1937, Belchite fue escenario de una de las batallas más sangrientas de la Guerra Civil Española, dejando miles de fallecidos en sus calles. Franco ordenó no reconstruir el pueblo viejo y levantar uno nuevo al lado. Desde los años 80, investigadores de todo el mundo han grabado en sus ruinas algunas de las psicofonías más claras de la historia de la parapsicología.",
        "howToGetThere": "Acceso por la A-222 desde Zaragoza, a unos 45 km al sur.",
        "recommendations": "No acceder fuera de las visitas guiadas autorizadas debido al peligro de derrumbe de las estructuras.",
        "sources": ["Cuarto Milenio", "Rutas Misteriosas de Aragón", "Ayuntamiento de Belchite"]
      },
      "geometry": { "type": "Point", "coordinates": [-0.7516, 41.3005] }
    },
    {
      "type": "Feature",
      "id": "pp-17",
      "properties": {
        "name": "Cortijo Jurado",
        "municipality": "Málaga",
        "province": "Málaga",
        "autonomousCommunity": "Andalucía",
        "category": "Apariciones",
        "categories": ["Apariciones", "Tragedias"],
        "description": "Mansión señorial de estilo neogótico del siglo XIX en Campanillas. Según la tradición popular, estuvo vinculada a desapariciones de jóvenes, rituales y la existencia de una red de túneles secretos.",
        "phenomena": [
          "Luces inexplicables en la torre mirador",
          "Psicofonías de gritos y llantos",
          "Figuras espectrales asomadas a los ventanales",
          "Ruidos de pasos en estancias vacías"
        ],
        "tags": ["apariciones", "mansión", "siglo XIX", "leyenda urbana", "málaga misteriosa", "cortijo jurado"],
        "verificationLevel": "Testimonios Múltiples",
        "popularity": 4,
        "era": "Siglo XIX",
        "activityHours": "Nocturno",
        "dangerLevel": "Media",
        "accessibility": "Propiedad privada - Visible desde el exterior",
        "bestSeason": "Todo el año",
        "investigators": ["Rutas Misteriosas Málaga", "Mundo del Misterio"],
        "fullHistory": "Construido a mediados del siglo XIX por la adinerada familia Heredia, Cortijo Jurado cuenta con 365 ventanas (una por cada día del año) y una capilla gótica. La leyenda negra surgió con la desaparición de varias muchachas entre finales del XIX y principios del XX, atribuidas popularmente a rituales de las élites locales.",
        "howToGetThere": "Barriada de Campanillas, junto a la autovía A-357 a las afueras de Málaga.",
        "recommendations": "No traspasar el perímetro por ser propiedad privada y presentar ruina parcial.",
        "sources": ["Sur Málaga", "España Tenebrosa"]
      },
      "geometry": { "type": "Point", "coordinates": [-4.5458, 36.7169] }
    },
    {
      "type": "Feature",
      "id": "pp-18",
      "properties": {
        "name": "Preventorio de Aguas de Busot",
        "municipality": "Aigües",
        "province": "Alicante",
        "autonomousCommunity": "Comunidad Valenciana",
        "category": "Apariciones",
        "categories": ["Apariciones", "Lugares de Poder"],
        "description": "Antiguo balneario termal del siglo XIX convertido en hospital antituberculoso infantil tras la Guerra Civil. Es famoso por las apariciones de 'La Dama Blanca' y múltiples experiencias paranormales.",
        "phenomena": [
          "Aparición del espectro de la Dama Blanca",
          "Risas y llantos de niños en las plantas superiores",
          "Variaciones drásticas del campo electromagnético",
          "Olor a cera quemada y flores en estancias vacías"
        ],
        "tags": ["apariciones", "sanatorio", "dama blanca", "siglo XIX", "aguas de busot", "alicante"],
        "verificationLevel": "Documentado",
        "popularity": 4,
        "era": "Siglo XIX - XX",
        "activityHours": "Atardecer y noche",
        "dangerLevel": "Alta",
        "accessibility": "Edificio ruinoso - Peligro de derrumbe",
        "bestSeason": "Primavera",
        "investigators": ["Grupo Fénix Parapsicología", "Iker Jiménez"],
        "fullHistory": "Inaugurado en 1838 como Hotel Balneario Miramar gracias a sus aguas termales curativas, el marqués de Bosch promovió un complejo de gran lujo. En 1936 fue adquirido por el Estado para tratar a niños con tuberculosis. Tras su abandono a finales de los 60, el edificio se convirtió en uno de los lugares favoritos de investigadores paranormales de la costa mediterránea.",
        "howToGetThere": "A las afueras de la localidad de Aigües (Alicante), en las faldas de la Sierra del Cabeçó d'Or.",
        "recommendations": "Extrema precaución; techos y suelos colapsados en el interior.",
        "sources": ["Alicante Misterioso", "Guía de la España Embrujada"]
      },
      "geometry": { "type": "Point", "coordinates": [-0.4192, 38.4841] }
    },
    {
      "type": "Feature",
      "id": "pp-19",
      "properties": {
        "name": "Pueblo Maldito de Ochate",
        "municipality": "Condado de Treviño",
        "province": "Burgos",
        "autonomousCommunity": "Castilla y León",
        "category": "Maldiciones",
        "categories": ["Maldiciones", "OVNIs"],
        "description": "Enclave legendario conocido como 'el pueblo maldito'. Sufrió tres epidemias fulminantes y consecutivas en el siglo XIX (viruela, tifus y cólera) que diezmaron a sus habitantes, respetando a las poblaciones vecinas.",
        "phenomena": [
          "Tres epidemias mortales selectivas",
          "Avistamientos OVNI y luces flotantes sobre la torre",
          "Nieblas repentinas e inexplicables",
          "Grabaciones de psicofonías infantiles cerca de la ermita"
        ],
        "tags": ["maldiciones", "ovnis", "siglo XIX", "pueblo deshabitado", "ochate", "treviño"],
        "verificationLevel": "Documentado",
        "popularity": 5,
        "era": "Siglos XIII al XIX",
        "activityHours": "Cualquier hora",
        "dangerLevel": "Baja",
        "accessibility": "Acceso libre a pie por pista de tierra",
        "bestSeason": "Primavera y verano",
        "investigators": ["Prudencio Muguruza", "Enrique de Vicente"],
        "fullHistory": "Ochate, cuyo nombre original significa 'Puerta del Lobo', quedó deshabitado tras la tercera epidemia de 1864. Solo queda en pie la torre de la iglesia de San Miguel y la cercana ermita de Burgondo. En la década de 1980 el fotógrafo Prudencio Muguruza captó una famosa imagen de una esfera blanca sobrevolando el lugar, catapultando a Ochate al mapa ufológico internacional.",
        "howToGetThere": "Desde Vitoria hacia el enclave de Treviño, tomando el camino rural desde Imiruri.",
        "recommendations": "Llevar calzado de montaña y respetar el entorno patrimonial.",
        "sources": ["Mundo Desconocido", "Ochate: Realidad y Leyenda"]
      },
      "geometry": { "type": "Point", "coordinates": [-2.7167, 42.7486] }
    },
    {
      "type": "Feature",
      "id": "pp-20",
      "properties": {
        "name": "Palacio de Linares (Casa de América)",
        "municipality": "Madrid",
        "province": "Madrid",
        "autonomousCommunity": "Comunidad de Madrid",
        "category": "Apariciones",
        "categories": ["Apariciones", "Tragedias"],
        "description": "Palacio neobarroco en plena plaza de Cibeles de Madrid. En los años 90 protagonizó el mayor escándalo mediático y científico de misterio en España por la grabación de psicofonías de 'Raimundita', la supuesta hija ilegítima emparedada de los primeros marqueses.",
        "phenomena": [
          "El fantasma de Raimundita cantando en los salones",
          "Psicofonías registradas por equipos multidisciplinares",
          "Figuras del marqués de Linares en la biblioteca",
          "Descensos térmicos abruptos en la sala de muñecas"
        ],
        "tags": ["apariciones", "palacio", "siglo XIX", "madrid", "cibeles", "raimundita", "psicofonías"],
        "verificationLevel": "Científicamente Estudiado",
        "popularity": 5,
        "era": "Siglo XIX (1877)",
        "activityHours": "Nocturno",
        "dangerLevel": "Baja",
        "accessibility": "Abierto al público como centro cultural y museo",
        "bestSeason": "Todo el año",
        "investigators": ["Sociedad Española de Parapsicología", "Doctor Argumosa"],
        "fullHistory": "José de Murga y Reolid, primer marqués de Linares, contrajo matrimonio con Raimunda de Osorio, descubriendo más tarde que eran medio hermanos por parte de padre. Según la leyenda, tuvieron una hija a la que apodaron Raimundita para ocultar el incesto, quien habría sido asesinada y enterrada en las paredes del palacio. Aunque historiadores modernos cuestionan la existencia física de la niña, los testimonios de vigilantes y visitantes persisten hasta el presente.",
        "howToGetThere": "Plaza de Cibeles 2, Madrid. Metro Banco de España (Línea 2).",
        "recommendations": "Asistir a las visitas teatralizadas y guiadas oficiales que organiza la Casa de América.",
        "sources": ["El País - Especial Psicofonías de Linares (1990)", "Madrid Secreto"]
      },
      "geometry": { "type": "Point", "coordinates": [-3.6914, 40.4197] }
    },
    {
      "type": "Feature",
      "id": "pp-21",
      "properties": {
        "name": "Hospital del Tórax",
        "municipality": "Terrassa",
        "province": "Barcelona",
        "autonomousCommunity": "Cataluña",
        "category": "Tragedias",
        "categories": ["Tragedias", "Apariciones"],
        "description": "Sanatorio inaugurado en 1952 en medio del bosque de la Pineda para enfermos pulmonares. Ostentó el récord de tasa de suicidios de España debido a la desesperación y el aislamiento de los pacientes.",
        "phenomena": [
          "Suicidios recurrentes lanzándose desde la planta novena",
          "Sombras humanas errantes en los largos pasillos",
          "Sonidos de toses y respiradores mecánicos",
          "Aparición del espectro de una enfermera con jeringuilla"
        ],
        "tags": ["tragedias", "hospital", "siglo XX", "suicidios", "terrassa", "barcelona"],
        "verificationLevel": "Documentado",
        "popularity": 4,
        "era": "Siglo XX (1952)",
        "activityHours": "Nocturno",
        "dangerLevel": "Media",
        "accessibility": "Reconvertido parcialmente en Parque Audiovisual de Cataluña",
        "bestSeason": "Otoño",
        "investigators": ["Sociedad Catalana de Parapsicología", "Equipo Milenio 3"],
        "fullHistory": "Ubicado en un frondoso pinar para aprovechar el aire puro, albergaba a enfermos terminales de tuberculosis y cáncer de pulmón. Los pacientes se tiraban con frecuencia desde la planta 9 hacia el jardín interior bautizado como 'la jungla'. Numerosas producciones de cine de terror han rodado allí debido a su atmósfera cargada.",
        "howToGetThere": "Carretera BV-1274 hacia Matadepera, al norte de Terrassa.",
        "recommendations": "El complejo actual alberga estudios de cine privados; no acceder a las zonas clausuradas sin autorización.",
        "sources": ["La Vanguardia", "Catalunya Misteriosa"]
      },
      "geometry": { "type": "Point", "coordinates": [2.0197, 41.5912] }
    },
    {
      "type": "Feature",
      "id": "pp-22",
      "properties": {
        "name": "Pueblo Fantasma de La Mussara",
        "municipality": "Vilaplana",
        "province": "Tarragona",
        "autonomousCommunity": "Cataluña",
        "category": "Portales",
        "categories": ["Portales", "Maldiciones"],
        "description": "Despoblado a 1.000 metros de altitud en las montañas de Prades. Famoso por sus espesas nieblas, desapariciones misteriosas de excursionistas y la mítica 'Piedra de las Seis Leguas', considerada una puerta dimensional a otro plano.",
        "phenomena": [
          "Portal dimensional asociado a la Piedra de las Seis Leguas",
          "Desapariciones sin rastro de senderistas",
          "Niebla densa y estática que desorienta brújulas y GPS",
          "Sensación de pérdida de noción temporal"
        ],
        "tags": ["portales", "niebla", "desapariciones", "montaña", "la mussara", "tarragona"],
        "verificationLevel": "Leyenda Popular",
        "popularity": 4,
        "era": "Siglo XIX - 1959",
        "activityHours": "Días de niebla o noche",
        "dangerLevel": "Media",
        "accessibility": "Acceso libre por senderos de montaña",
        "bestSeason": "Otoño y primavera",
        "investigators": ["Josep Guijarro", "Sebastià D'Arbó"],
        "fullHistory": "La Mussara quedó abandonada en 1959 tras una prolongada sequía. La iglesia de San Salvador y las ruinas de las masías emergen de una niebla que suele cubrir el altiplano de repente. En 1991, un excursionista desapareció en plena caminata a plena luz del día dejando su coche cerrado con todas sus pertenencias en el pueblo, caso que conmocionó a Cataluña.",
        "howToGetThere": "Carretera T-704 desde Vilaplana hacia Prades, desvío señalizado a pie.",
        "recommendations": "Precaución en días de niebla espesa; permanecer siempre en los senderos marcados.",
        "sources": ["Lugares Mágicos de Cataluña", "Rutas del Misterio"]
      },
      "geometry": { "type": "Point", "coordinates": [1.0264, 41.2508] }
    },
    {
      "type": "Feature",
      "id": "pp-23",
      "properties": {
        "name": "Cueva de Zugarramurdi",
        "municipality": "Zugarramurdi",
        "province": "Navarra",
        "autonomousCommunity": "Navarra",
        "category": "Brujería",
        "categories": ["Brujería", "Lugares de Poder"],
        "description": "Impresionante túnel cárstico natural de más de 120 metros de longitud donde la tradición sitúa los aquelarres paganos vascos más célebres, que desembocaron en el Auto de Fe de Logroño de 1610 organizado por la Inquisición española.",
        "phenomena": [
          "Celebración histórica de aquelarres y cultos a la fertilidad",
          "Lugar de poder telúrico atravesado por el arroyo Olabidea",
          "Ecos y susurros perceptibles en las galerías superiores",
          "Sensación de presencia ancestral durante los solsticios"
        ],
        "tags": ["brujería", "cueva", "aquelarre", "inquisición", "navarra", "zugarramurdi", "lugar sagrado"],
        "verificationLevel": "Documentado",
        "popularity": 5,
        "era": "Siglo XVII (1610)",
        "activityHours": "Diurno",
        "dangerLevel": "Baja",
        "accessibility": "Acceso turístico habilitado con pasarelas e iluminación",
        "bestSeason": "Verano (Solsticio de San Juan) y Otoño",
        "investigators": ["Julio Caro Baroja", "Museo de las Brujas de Zugarramurdi"],
        "fullHistory": "Las cuevas no contienen pinturas rupestres ni yacimientos prehistóricos notables, pero son el epicentro de la brujería en España. En 1610, el inquisidor Valle-Alvarado procesó a más de 30 vecinos acusados de rendir culto al macho cabrío (Akerbeltz) en esta cavidad natural. Once personas perecieron quemadas en la hoguera de Logroño.",
        "howToGetThere": "Valle de Baztán, a 400 metros del casco urbano de Zugarramurdi por camino señalizado.",
        "recommendations": "Visitar también el Museo de las Brujas en el pueblo antes de recorrer la cueva.",
        "sources": ["Gobierno de Navarra - Turismo", "Inquisición y Brujería en el País Vasco"]
      },
      "geometry": { "type": "Point", "coordinates": [-1.5414, 43.2708] }
    },
    {
      "type": "Feature",
      "id": "pp-24",
      "properties": {
        "name": "Las Caras de Bélmez",
        "municipality": "Bélmez de la Moraleda",
        "province": "Jaén",
        "autonomousCommunity": "Andalucía",
        "category": "Apariciones",
        "categories": ["Apariciones", "Lugares de Poder"],
        "description": "Vivienda particular donde desde agosto de 1971 aparecen espontáneamente rostros humanos pigmentados en el suelo de cemento de la cocina, mutando de forma y expresión a lo largo de décadas.",
        "phenomena": [
          "Pigmentaciones ectoplásmicas de rostros en el pavimento",
          "Mutaciones en las expresiones de las caras según la época",
          "Psicofonías desgarradoras registradas bajo el suelo",
          "Aparición de esqueletos del siglo XIII enterrados bajo la casa"
        ],
        "tags": ["apariciones", "teleplastias", "siglo XX", "bélmez", "jaén", "maría gómez cámara"],
        "verificationLevel": "Científicamente Estudiado",
        "popularity": 5,
        "era": "1971 - Presente",
        "activityHours": "Diurno",
        "dangerLevel": "Baja",
        "accessibility": "Casa museo visitable y Centro de Interpretación de las Caras",
        "bestSeason": "Todo el año",
        "investigators": ["Germán de Argumosa", "Hans Bender", "Iker Jiménez", "Pedro Amorós"],
        "fullHistory": "El 23 de agosto de 1971, María Gómez Cámara observó por primera vez una mancha con forma de rostro humano en su cocina. Aunque su marido picó el suelo con una azada y vertió hormigón nuevo, la cara volvió a surgir días más tarde con mayor nitidez. Análisis químicos, precintos notariales y sondeos geológicos han debatido durante más de 50 años entre el fraude químico y el fenómeno paranormal genuino más importante de Europa.",
        "howToGetThere": "Calle Real 5, Bélmez de la Moraleda, comarca de Sierra Mágina (Jaén).",
        "recommendations": "Visitar el Centro de Interpretación de las Caras en el edificio del antiguo colegio.",
        "sources": ["El Gran Misterio de las Caras de Bélmez", "Revista Año Cero"]
      },
      "geometry": { "type": "Point", "coordinates": [-3.3831, 37.7225] }
    },
    {
      "type": "Feature",
      "id": "pp-25",
      "properties": {
        "name": "Castillo y Parador de Cardona (Habitación 712)",
        "municipality": "Cardona",
        "province": "Barcelona",
        "autonomousCommunity": "Cataluña",
        "category": "Apariciones",
        "categories": ["Apariciones", "Tragedias"],
        "description": "Imponente fortaleza medieval del siglo IX reconvertida en Parador Nacional. Su famosa habitación 712 solo se asigna a clientes bajo petición expresa debido a recurrentes fenómenos de poltergeist y ruidos inexplicables.",
        "phenomena": [
          "Fenómenos poltergeist (muebles que se juntan solos en el centro)",
          "Grifos abiertos y luces que se encienden solas en la 712",
          "Aparición de la doncella Adalés vestida de época",
          "Sensación de pesadez y corrientes de aire helado"
        ],
        "tags": ["apariciones", "castillo medieval", "parador", "habitación 712", "cardona", "poltergeist"],
        "verificationLevel": "Testimonios Múltiples",
        "popularity": 4,
        "era": "Siglo IX - XI",
        "activityHours": "Nocturno",
        "dangerLevel": "Baja",
        "accessibility": "Hotel Parador en funcionamiento y visitas al castillo",
        "bestSeason": "Invierno y otoño",
        "investigators": ["Equipo del Parador", "Rutas del Misterio Cataluña"],
        "fullHistory": "Cuenta la leyenda medieval que la joven cristiana Adalés se enamoró de un príncipe musulmán de la corte. Su padre y hermanos la castigaron encerrándola a perpetuidad en la Torre Minyona, donde murió de pena. Tanto limpiadoras como huéspedes que pernoctaron en la habitación 712 han relatado durante años sueños angustiosos y ruidos de muebles arrastrados por encima cuando la planta estaba completamente vacía.",
        "howToGetThere": "En lo alto de la colina que domina Cardona, acceso rodado señalizado.",
        "recommendations": "Se puede visitar el conjunto monumental sin alojarse, incluyendo la colegiata y la Torre Minyona.",
        "sources": ["Paradores de Turismo", "Fantasmas de Barcelona y Cataluña"]
      },
      "geometry": { "type": "Point", "coordinates": [1.6853, 41.9142] }
    },
    {
      "type": "Feature",
      "id": "pp-26",
      "properties": {
        "name": "Sanatorio de la Alfaguara",
        "municipality": "Alfacar",
        "province": "Granada",
        "autonomousCommunity": "Andalucía",
        "category": "Apariciones",
        "categories": ["Apariciones", "Tragedias"],
        "description": "Hospital antituberculoso construido a principios del siglo XX en el Parque Natural Sierra de Huétor por la filántropa alemana Berta Wilhelmi. Testigos afirman ver la figura de la fundadora vagando entre las ruinas y los pinares.",
        "phenomena": [
          "Aparición de 'La Dama del Sanatorio' (Berta Wilhelmi)",
          "Luces flotantes entre los pinos de la sierra",
          "Descenso repentino de temperatura en el pabellón de reposo",
          "Voces de niños y ruidos de campana en días de calma"
        ],
        "tags": ["apariciones", "sanatorio", "sierra de huétor", "granada", "berta wilhelmi"],
        "verificationLevel": "Testimonios Múltiples",
        "popularity": 3,
        "era": "Siglo XX (1923)",
        "activityHours": "Atardecer",
        "dangerLevel": "Baja",
        "accessibility": "Acceso libre a pie por pista forestal",
        "bestSeason": "Primavera y verano",
        "investigators": ["Granada Secreta", "Rutas Misteriosas Granada"],
        "fullHistory": "Berta Wilhelmi fundó este sanatorio en 1923 en plena naturaleza para ofrecer a los enfermos de tuberculosis de familias humildes el tratamiento helioterápico. Durante la Guerra Civil el sanatorio cayó en desuso y fue finalmente abandonado en la posguerra. Hoy solo quedan algunos muros cubiertos por pinos que confieren al paraje un aspecto romántico y misterioso.",
        "howToGetThere": "Desde Alfacar subiendo hacia el Campamento de la Alfaguara por la pista forestal.",
        "recommendations": "Ideal para senderismo diurno; no adentrarse de noche sin linternas potentes.",
        "sources": ["Granada Hoy", "Misterios de Andalucía"]
      },
      "geometry": { "type": "Point", "coordinates": [-3.5358, 37.2483] }
    },
    {
      "type": "Feature",
      "id": "pp-27",
      "properties": {
        "name": "Sanatorio de Santo Ángel de la Guarda",
        "municipality": "Navacerrada",
        "province": "Madrid",
        "autonomousCommunity": "Comunidad de Madrid",
        "category": "Apariciones",
        "categories": ["Apariciones"],
        "description": "Enorme complejo hospitalario en el valle de la Barranca levantado en 1941 como sanatorio para tuberculosos y reconvertido después en psiquiátrico militar. Testimonios recurrentes de presencias en sus galerías y ruidos de camas metálicas.",
        "phenomena": [
          "Sombras humanas cruzando las ventanas de la quinta planta",
          "Ruidos de ruedas metálicas y camas rodantes",
          "Grabaciones de psicofonías en la antigua capilla",
          "Sensación de ser observado y toques físicos en la espalda"
        ],
        "tags": ["apariciones", "sanatorio", "sierra de guadarrama", "la barranca", "navacerrada", "madrid"],
        "verificationLevel": "Testimonios Múltiples",
        "popularity": 4,
        "era": "Siglo XX (1941)",
        "activityHours": "Nocturno",
        "dangerLevel": "Media",
        "accessibility": "Entorno del valle accesible; edificio con accesos tapiados",
        "bestSeason": "Primavera y verano",
        "investigators": ["Madrid Misterioso", "SEIP Madrid"],
        "fullHistory": "Situado en el hermoso valle de la Barranca, rodeado de pinares a 1.400 metros de altitud, el centro cerró sus puertas en los años noventa tras la transferencia de competencias sanitarias. A pesar de haber sido tapiado en diversas ocasiones, su imponente silueta de piedra y tejados de pizarra sigue atrayendo a entusiastas de los fenómenos extraños.",
        "howToGetThere": "Desde Navacerrada tomando el desvío hacia el Valle de la Barranca.",
        "recommendations": "Disfrutar del entorno natural de la Barranca; no intentar forzar el acceso al inmueble clausurado.",
        "sources": ["Lugares Abandonados de la Comunidad de Madrid", "Telemadrid"]
      },
      "geometry": { "type": "Point", "coordinates": [-4.0042, 40.7258] }
    },
    {
      "type": "Feature",
      "id": "pp-28",
      "properties": {
        "name": "Isla Fantasma de San Borondón",
        "municipality": "Atlántico",
        "province": "Santa Cruz de Tenerife",
        "autonomousCommunity": "Canarias",
        "category": "Portales",
        "categories": ["Portales", "Criaturas Míticas"],
        "description": "La legendaria 'octava isla' (o novena) canaria que aparece y desaparece en el horizonte occidental del archipiélago. Cartografiada en mapas oficiales desde el Medievo hasta el siglo XVIII.",
        "phenomena": [
          "Aparición nítida de una masa de tierra montañosa con valles",
          "Desvanecimiento súbito al intentar aproximarse en barco",
          "Fotografías históricas que captan su silueta desde Tenerife y La Palma",
          "Mito de la isla como ser vivo colosal o portal temporal"
        ],
        "tags": ["portales", "criaturas míticas", "isla fantasma", "san borondón", "canarias", "océano atlántico"],
        "verificationLevel": "Leyenda Popular",
        "popularity": 5,
        "era": "Siglo VI - Presente",
        "activityHours": "Atardecer despejado",
        "dangerLevel": "Baja",
        "accessibility": "Observación desde miradores altos de La Palma, Tenerife y El Hierro",
        "bestSeason": "Días claros de invierno",
        "investigators": ["José Gregorio González", "Historiadores de la Cartografía Canaria"],
        "fullHistory": "Inspirada en el viaje del monje irlandés San Brandán de Clonfert en el siglo VI, la isla fue avistada por navegantes y marineros durante siglos. Expediciones reales partieron de Canarias en los siglos XVI y XVIII para tomar posesión de ella en nombre de la Corona de España. La famosa foto tomada en 1958 por Manuel Rodríguez Quintero desde Los Realejos avivó de nuevo el enigma.",
        "howToGetThere": "Visible en días diáfanos hacia el oeste desde miradores de La Palma (El Paso, Fuencaliente) y Tenerife (Icod, Los Realejos).",
        "recommendations": "Mirar al horizonte al atardecer cuando el sol perfila la bruma marina.",
        "sources": ["Canarias Mágica", "El Enigma de San Borondón - Ediciones Idea"]
      },
      "geometry": { "type": "Point", "coordinates": [-18.5, 28.5] }
    },
    {
      "type": "Feature",
      "id": "pp-29",
      "properties": {
        "name": "Dolmen de Guadalperal (El Stonehenge Español)",
        "municipality": "El Gordo",
        "province": "Cáceres",
        "autonomousCommunity": "Extremadura",
        "category": "Lugares de Poder",
        "categories": ["Lugares de Poder"],
        "description": "Monumento megalítico de más de 150 piedras en pie erigido hace 5.000 años. Sumergido bajo las aguas del embalse de Valdecañas en 1963 y visible únicamente en periodos de grave sequía.",
        "phenomena": [
          "Alineación astronómica solar ancestral en el solsticio",
          "Menhir con grabado serpentiforme o curso hidrográfico sagrado",
          "Concentración de energía telúrica en el anillo interior",
          "Cámara funeraria megalítica orientada hacia el este"
        ],
        "tags": ["lugares de poder", "megalitismo", "prehistoria", "dolmen", "guadalperal", "extremadura"],
        "verificationLevel": "Documentado",
        "popularity": 4,
        "era": "IV - III Milenio a.C.",
        "activityHours": "Diurno",
        "dangerLevel": "Baja",
        "accessibility": "Visible cuando el nivel del embalse desciende por debajo del 30%",
        "bestSeason": "Verano y otoño en años secos",
        "investigators": ["Hugo Obermaier", "Asociación Raíces de Peraleda"],
        "fullHistory": "Excavado en los años 1920 por el arqueólogo alemán Hugo Obermaier, el dolmen de Guadalperal cuenta con un anillo de 140 piedras de hasta dos metros de altura y un corredor de entrada. En 1963 la construcción de la presa del Tajo lo sumergió. En 2019, una histórica sequía lo dejó al descubierto por primera vez en 50 años, asombrando a la comunidad arqueológica internacional.",
        "howToGetThere": "Orilla norte del embalse de Valdecañas, término municipal de El Gordo (Cáceres).",
        "recommendations": "Respetar escrupulosamente los megalitos; no tocar ni mover las piedras.",
        "sources": ["National Geographic España", "Junta de Extremadura - Patrimonio Cultural"]
      },
      "geometry": { "type": "Point", "coordinates": [-5.4053, 39.8408] }
    },
    {
      "type": "Feature",
      "id": "pp-30",
      "properties": {
        "name": "Monasterio de San Jerónimo (El Monasterio del Diablo)",
        "municipality": "Carmona",
        "province": "Sevilla",
        "autonomousCommunity": "Andalucía",
        "category": "Brujería",
        "categories": ["Brujería", "Maldiciones"],
        "description": "Antiguo monasterio en ruinas del siglo XV en la Vega de Carmona. Rodeado de leyendas sobre la misteriosa muerte colectiva de los frailes en una sola noche y rituales esotéricos nocturnos.",
        "phenomena": [
          "Leyenda de la muerte repentina de la comunidad religiosa",
          "Ruidos de cadenas y rezos gregorianos en la cripta",
          "Aparición de sombras encapuchadas en el claustro",
          "Marcas de rituales y restos de velas en el altar derruido"
        ],
        "tags": ["brujería", "maldiciones", "monasterio", "siglo XV", "carmona", "sevilla", "cripta"],
        "verificationLevel": "Leyenda Popular",
        "popularity": 3,
        "era": "Siglo XV (1430)",
        "activityHours": "Nocturno",
        "dangerLevel": "Media",
        "accessibility": "Ruinas en campo abierto - Precaución con pozos y huecos",
        "bestSeason": "Primavera y otoño",
        "investigators": ["Sevilla Oculta", "Rutas Misteriosas Sevilla"],
        "fullHistory": "Fundado en el siglo XV en una finca aislada, el monasterio vivió siglos de esplendor antes de ser abandonado con las desamortizaciones del siglo XIX. La leyenda popular afirma que una noche de tormenta los monjes fueron hallados muertos en el refectorio con expresiones de horror, lo que dio origen al sobrenombre de 'Monasterio del Diablo'. En décadas recientes ha sido frecuentado por aficionados al misterio.",
        "howToGetThere": "Camino rural desde Carmona hacia la campiña sevillana.",
        "recommendations": "Visitar preferentemente con luz diurna debido a derrumbes en el suelo.",
        "sources": ["Sevilla Misteriosa", "Diario de Sevilla"]
      },
      "geometry": { "type": "Point", "coordinates": [-5.6416, 37.4715] }
    }
  ]
}

