{
  "type": "FeatureCollection",
  "features": [
    {
      "type": "Feature",
      "id": "pp-1",
      "properties": {
        "name": "Iglesia de la Concepción",
        "municipality": "La Orotava",
        "province": "Santa Cruz de Tenerife",
        "autonomousCommunity": "Canarias",
        "category": "Lugares de Poder",
        "categories": ["Lugares de Poder", "Brujería"],
        "description": "Templo parroquial del siglo XVI con misterios relacionados con el simbolismo de su arquitectura y decoración. La potencia energética de este lugar es especialmente palpable cerca del altar. Las columnas muestran figuras triangulares (convencional e invertida) formando parte de escenas como el Sueño de Jacob. En el exterior destacan gárgolas exhibicionistas que recuerdan a ídolos paganos celtas de fertilidad (Sheela na Gigs).",
        "phenomena": [
          "Energía telúrica intensa",
          "Simbolismo masónico oculto",
          "Gárgolas con simbolismo pagano",
          "Punto de poder energético"
        ],
        "tags": [
          "lugares de poder",
          "siglo XVI",
          "iglesia",
          "visitable",
          "energía telúrica",
          "simbolismo masónico",
          "arquitectura sagrada"
        ],
        "verificationLevel": "Documentado",
        "popularity": 4,
        "era": "Siglo XVI",
        "activityHours": "Diurno - Energía constante",
        "dangerLevel": "Baja",
        "accessibility": "Público - Horario de culto",
        "bestSeason": "Todo el año",
        "investigators": ["José Gregorio González", "Expertos en arquitectura masónica"],
        "video": {
          "title": "Free Tour Misterios La Orotava",
          "url": "https://www.civitatis.com/es/la-orotava/free-tour-misterios-leyendas-orotava/"
        },
        "fullHistory": "La Iglesia de la Concepción es uno de los templos más enigmáticos de Canarias. Su ubicación fue elegida con criterios telúricos, aprovechando las líneas de energía natural del terreno. Los arquitectos incorporaron simbología masónica y hermética en su diseño, visible en las columnas con triángulos invertidos que representan conceptos esotéricos. Las gárgolas de la parte trasera son especialmente curiosas, ya que representan figuras exhibicionistas similares a los antiguos ídolos celtas de fertilidad, algo muy inusual en una iglesia católica.",
        "howToGetThere": "Centro histórico de La Orotava, cerca de la Plaza de la Constitución",
        "recommendations": "Visitar durante el día. Observar las columnas del altar y buscar las gárgolas en la parte trasera del templo.",
        "sources": [
          "Diario de Avisos - Los 10 lugares más misteriosos de Tenerife",
          "Rutas Misteriosas - La Orotava Misteriosa"
        ]
      },
      "geometry": { "type": "Point", "coordinates": [-16.5245, 28.389] }
    },
    {
      "type": "Feature",
      "id": "pp-2",
      "properties": {
        "name": "Casa Lercaro",
        "municipality": "La Orotava",
        "province": "Santa Cruz de Tenerife",
        "autonomousCommunity": "Canarias",
        "category": "Apariciones",
        "categories": ["Apariciones", "Tragedias"],
        "description": "Antigua mansión relacionada con la famosa Casa Lercaro de La Laguna. Según la leyenda local, tras el suicidio de Catalina Lercaro en La Laguna, la familia se trasladó al Valle de La Orotava, posiblemente huyendo de la vergüenza o del fantasma de Catalina. Se reportan apariciones fantasmales y presencias en esta ubicación.",
        "phenomena": [
          "Apariciones fantasmales",
          "Presencias invisibles",
          "Ruidos inexplicables",
          "Cambios de temperatura"
        ],
        "tags": [
          "apariciones",
          "siglo XVII",
          "casa",
          "historia trágica",
          "muy activo",
          "novia suicida"
        ],
        "verificationLevel": "Leyenda Popular",
        "popularity": 3,
        "era": "Siglo XVII-XVIII",
        "activityHours": "Nocturno principalmente",
        "dangerLevel": "Baja",
        "accessibility": "Acceso restringido - Propiedad privada",
        "bestSeason": "Otoño-Invierno",
        "fullHistory": "La conexión de La Orotava con la tragedia de Catalina Lercaro es menos conocida que la casa principal en La Laguna, pero igualmente inquietante. Tras el suicidio de Catalina, que se arrojó a un pozo antes de su boda forzada, la familia Lercaro abandonó su residencia en La Laguna y se estableció en el Valle de La Orotava. Algunos creen que buscaban huir del fantasma de Catalina, otros que simplemente escapaban de la vergüenza social. Las leyendas locales sugieren que el espíritu de Catalina siguió a la familia.",
        "howToGetThere": "Casco antiguo de La Orotava",
        "recommendations": "Respetar la propiedad privada. Se puede observar desde el exterior.",
        "sources": ["Princess Hotels - Historias de miedo de Tenerife"]
      },
      "geometry": { "type": "Point", "coordinates": [-16.525, 28.39] }
    },
    {
      "type": "Feature",
      "id": "pp-3",
      "properties": {
        "name": "Liceo de Taoro",
        "municipality": "La Orotava",
        "province": "Santa Cruz de Tenerife",
        "autonomousCommunity": "Canarias",
        "category": "Apariciones",
        "categories": ["Apariciones"],
        "description": "Emblemático edificio cultural de La Orotava donde se reportan fenómenos paranormales inexplicables. Los testigos describen presencias, ruidos sin explicación y fenómenos que han sido objeto de investigación por parte de expertos en lo paranormal.",
        "phenomena": [
          "Fenómenos paranormales variados",
          "Presencias invisibles",
          "Ruidos inexplicables",
          "Actividad nocturna"
        ],
        "tags": [
          "apariciones",
          "edificio histórico",
          "siglo XIX",
          "actividad esporádica",
          "visitable"
        ],
        "verificationLevel": "Testimonios Múltiples",
        "popularity": 3,
        "era": "Siglo XIX-XX",
        "activityHours": "Nocturno",
        "dangerLevel": "Baja",
        "accessibility": "Público - Eventos culturales",
        "bestSeason": "Todo el año",
        "investigators": ["Rutas Misteriosas"],
        "video": {
          "title": "Rutas Misteriosas - La Orotava",
          "url": "https://rutasmisteriosas.es/reservar/la-orotava-misteriosa/"
        },
        "fullHistory": "El Liceo de Taoro es un importante centro cultural de La Orotava con más de un siglo de historia. A lo largo de los años, trabajadores y visitantes han reportado experiencias inexplicables en el edificio, especialmente durante la noche. Las investigaciones paranormales han documentado estos fenómenos, aunque se mantiene cierta reserva para no afectar las actividades culturales del centro.",
        "howToGetThere": "Centro de La Orotava, edificio histórico emblemático",
        "recommendations": "Visitar durante eventos culturales. Preguntar a los trabajadores antiguos sobre las historias.",
        "sources": ["Rutas Misteriosas - La Orotava Misteriosa"]
      },
      "geometry": { "type": "Point", "coordinates": [-16.524, 28.3895] }
    },
    {
      "type": "Feature",
      "id": "pp-4",
      "properties": {
        "name": "Auditorio Teobaldo Power",
        "municipality": "La Orotava",
        "province": "Santa Cruz de Tenerife",
        "autonomousCommunity": "Canarias",
        "category": "Apariciones",
        "categories": ["Apariciones"],
        "description": "Auditorio municipal donde se han reportado sucesos inexplicables, especialmente durante ensayos nocturnos y en áreas poco transitadas del edificio. Algunos trabajadores y artistas han descrito experiencias paranormales.",
        "phenomena": [
          "Ruidos en zonas vacías",
          "Sensación de presencias",
          "Fenómenos durante ensayos nocturnos"
        ],
        "tags": [
          "apariciones",
          "edificio moderno",
          "siglo XX",
          "actividad esporádica",
          "teatro"
        ],
        "verificationLevel": "Testimonios Múltiples",
        "popularity": 2,
        "era": "Contemporáneo",
        "activityHours": "Nocturno - Durante ensayos",
        "dangerLevel": "Baja",
        "accessibility": "Público - Durante eventos",
        "bestSeason": "Todo el año",
        "fullHistory": "El Auditorio Teobaldo Power, a pesar de ser una construcción relativamente moderna, ha acumulado reportes de fenómenos inexplicables. Los testimonios provienen principalmente de personal técnico y artistas que ensayan en horarios nocturnos. Se describen ruidos sin fuente aparente, especialmente en los camerinos y zonas técnicas.",
        "howToGetThere": "Centro de La Orotava",
        "recommendations": "Asistir a eventos culturales. El personal puede compartir experiencias.",
        "sources": ["Rutas Misteriosas"]
      },
      "geometry": { "type": "Point", "coordinates": [-16.5235, 28.3885] }
    },
    {
      "type": "Feature",
      "id": "pp-5",
      "properties": {
        "name": "Placita Rosales - Sombra Verde",
        "municipality": "La Orotava",
        "province": "Santa Cruz de Tenerife",
        "autonomousCommunity": "Canarias",
        "category": "Apariciones",
        "categories": ["Apariciones"],
        "description": "Pequeña plaza del casco histórico conocida por la leyenda de la 'Sombra Verde', una presencia fantasmal que se manifiesta como una figura de color verde que deambula por la zona, especialmente al atardecer y durante la noche.",
        "phenomena": [
          "Aparición de figura verdosa",
          "Sombra que se desplaza",
          "Avistamientos al atardecer",
          "Presencia inquietante"
        ],
        "tags": [
          "apariciones",
          "figura verde",
          "nocturno",
          "plaza",
          "leyenda local",
          "muy activo"
        ],
        "verificationLevel": "Leyenda Popular",
        "popularity": 3,
        "era": "Indeterminada",
        "activityHours": "Atardecer y noche",
        "dangerLevel": "Baja",
        "accessibility": "Público - Plaza abierta",
        "bestSeason": "Todo el año",
        "investigators": ["Rutas Misteriosas"],
        "fullHistory": "La Sombra Verde es una de las leyendas urbanas más persistentes de La Orotava. Los vecinos de la zona han reportado durante generaciones el avistamiento de una figura de tonalidad verdosa que aparece en la placita Rosales, especialmente cuando cae el sol. No se conoce el origen de esta aparición, aunque algunos la relacionan con antiguas historias del barrio.",
        "howToGetThere": "Casco antiguo de La Orotava, cerca de la calle San Francisco",
        "recommendations": "Visitar al atardecer. Preguntar a vecinos antiguos de la zona.",
        "sources": ["Rutas Misteriosas - La Orotava Misteriosa"]
      },
      "geometry": { "type": "Point", "coordinates": [-16.5248, 28.3892] }
    },
    {
      "type": "Feature",
      "id": "pp-6",
      "properties": {
        "name": "Cruz de los Ahorcados",
        "municipality": "La Orotava",
        "province": "Santa Cruz de Tenerife",
        "autonomousCommunity": "Canarias",
        "category": "Tragedias",
        "categories": ["Tragedias", "Apariciones"],
        "description": "Lugar histórico marcado por ejecuciones del pasado. La cruz señala el punto donde se realizaban ahorcamientos públicos. Se reportan apariciones y fenómenos relacionados con las almas de los ajusticiados.",
        "phenomena": [
          "Apariciones de ajusticiados",
          "Presencias inquietantes",
          "Sensaciones de angustia",
          "Fenómenos nocturnos"
        ],
        "tags": [
          "tragedias",
          "ejecuciones",
          "historia negra",
          "cruz",
          "siglos pasados",
          "muy activo"
        ],
        "verificationLevel": "Documentado",
        "popularity": 3,
        "era": "Siglos XVI-XIX",
        "activityHours": "Nocturno",
        "dangerLevel": "Media - Zona poco iluminada",
        "accessibility": "Público",
        "bestSeason": "Todo el año",
        "investigators": ["Rutas Misteriosas"],
        "fullHistory": "La Cruz de los Ahorcados marca un lugar de triste memoria en La Orotava. Durante siglos, este fue el punto donde se ejecutaban las sentencias de muerte por ahorcamiento. Las almas de los condenados, según la tradición, permanecen ligadas a este lugar, manifestándose especialmente durante la noche.",
        "howToGetThere": "Indicaciones disponibles en tours de misterios",
        "recommendations": "Visitar en grupo y con guía. Zona poco iluminada por la noche.",
        "sources": ["Rutas Misteriosas"]
      },
      "geometry": { "type": "Point", "coordinates": [-16.5242, 28.3888] }
    },
    {
      "type": "Feature",
      "id": "pp-7",
      "properties": {
        "name": "Barranco de Araujo",
        "municipality": "La Orotava",
        "province": "Santa Cruz de Tenerife",
        "autonomousCommunity": "Canarias",
        "category": "Tragedias",
        "categories": ["Tragedias", "Apariciones"],
        "description": "Barranco que esconde una historia relacionada con una muerte trágica. El lugar mantiene una atmósfera inquietante y se reportan fenómenos paranormales relacionados con el suceso que tuvo lugar allí.",
        "phenomena": [
          "Apariciones fantasmales",
          "Sensación de tragedia",
          "Presencias",
          "Atmósfera inquietante"
        ],
        "tags": [
          "tragedias",
          "barranco",
          "muerte trágica",
          "naturaleza",
          "historia local"
        ],
        "verificationLevel": "Leyenda Popular",
        "popularity": 2,
        "era": "Indeterminada",
        "activityHours": "Todo el día",
        "dangerLevel": "Media - Terreno irregular",
        "accessibility": "Acceso restringido - Barranco",
        "bestSeason": "Primavera-Verano",
        "fullHistory": "El Barranco de Araujo es conocido en La Orotava por una tragedia del pasado cuyos detalles específicos se han difuminado con el tiempo. Los tours de misterios locales incluyen este punto en sus recorridos, relatando la historia de la muerte trágica que marcó el lugar.",
        "howToGetThere": "Desde el casco histórico de La Orotava",
        "recommendations": "Ir con guía local. Calzado apropiado para barranco.",
        "sources": ["Civitatis - Free Tour Misterios y Leyendas"]
      },
      "geometry": { "type": "Point", "coordinates": [-16.526, 28.388] }
    },
    {
      "type": "Feature",
      "id": "pp-8",
      "properties": {
        "name": "Casa de los Balcones",
        "municipality": "La Orotava",
        "province": "Santa Cruz de Tenerife",
        "autonomousCommunity": "Canarias",
        "category": "Apariciones",
        "categories": ["Apariciones"],
        "description": "Hermosa mansión canaria del siglo XVII, joya arquitectónica de La Orotava. Se reportan fenómenos paranormales como apariciones de figuras fantasmales y la sensación constante de ser observado por presencias invisibles. Según las leyendas, la casa fue construida sobre un antiguo cementerio, y los espíritus de los difuntos aún rondan el lugar.",
        "phenomena": [
          "Figuras fantasmales",
          "Sensación de ser observado",
          "Presencias invisibles",
          "Actividad paranormal variada"
        ],
        "tags": [
          "apariciones",
          "siglo XVII",
          "mansión",
          "muy activo",
          "visitable",
          "cementerio antiguo",
          "arquitectura canaria"
        ],
        "verificationLevel": "Testimonios Múltiples",
        "popularity": 4,
        "era": "Siglo XVII",
        "activityHours": "Todo el día - Más intenso de noche",
        "dangerLevel": "Baja",
        "accessibility": "Público - Museo y tienda",
        "bestSeason": "Todo el año",
        "fullHistory": "La Casa de los Balcones es uno de los edificios más emblemáticos de La Orotava y un importante atractivo turístico. Esta mansión del siglo XVII alberga actualmente un museo de artesanía canaria. Sin embargo, bajo su belleza arquitectónica se esconde una historia más oscura. Según la tradición local, el edificio se construyó sobre terreno que anteriormente fue un cementerio. Los visitantes y trabajadores han reportado durante años la aparición de figuras fantasmales en diferentes zonas de la casa, así como una constante sensación de ser observados por presencias invisibles. Algunos testigos describen cambios bruscos de temperatura y una atmósfera particularmente densa en ciertas habitaciones.",
        "howToGetThere": "Calle San Francisco, centro histórico de La Orotava. Edificio emblemático fácilmente reconocible.",
        "recommendations": "Abierto al público como museo. Se puede visitar durante el horario comercial. Prestar atención a las sensaciones en las habitaciones del piso superior.",
        "sources": ["Informativos Canarias - Lugares aterradores de Tenerife"]
      },
      "geometry": { "type": "Point", "coordinates": [-16.5244, 28.3891] }
    }
  ]
}
