{
  "type": "FeatureCollection",
  "features": [
    {
      "type": "Feature",
      "id": "la-orotava",
      "properties": {
        "name": "La Orotava",
        "province": "Santa Cruz de Tenerife",
        "autonomousCommunity": "Canarias",
        "osmRelationId": 345388,
        "source": "OpenStreetMap contributors, via Overpass API"
      },
      "geometry": {
        "type": "Polygon",
        "coordinates": [
          [
            [
              -16.5043193,
              28.4242652
            ],
            [
              -16.5047062,
              28.4240824
            ],
            [
              -16.505485,
              28.4235959
            ],
            [
              -16.5059844,
              28.423285
            ],
            [
              -16.5066476,
              28.4229902
            ],
            [
              -16.5067314,
              28.4231031
            ],
            [
              -16.5070439,
              28.4233507
            ],
            [
              -16.50708,
              28.4233443
            ],
            [
              -16.5071919,
              28.4233627
            ],
            [
              -16.5072405,
              28.4233468
            ],
            [
              -16.5073031,
              28.4232898
            ],
            [
              -16.5074439,
              28.423299
            ],
            [
              -16.5075429,
              28.423252
            ],
            [
              -16.5076291,
              28.4232464
            ],
            [
              -16.5076987,
              28.423219
            ],
            [
              -16.5076407,
              28.4230394
            ],
            [
              -16.5075853,
              28.4230091
            ],
            [
              -16.5075801,
              28.4229444
            ],
            [
              -16.5073619,
              28.42262
            ],
            [
              -16.5072224,
              28.4224795
            ],
            [
              -16.5071112,
              28.4223886
            ],
            [
              -16.5073898,
              28.4221584
            ],
            [
              -16.5077976,
              28.4218894
            ],
            [
              -16.5086099,
              28.4214458
            ],
            [
              -16.5100726,
              28.4207069
            ],
            [
              -16.5116478,
              28.4200406
            ],
            [
              -16.5121546,
              28.4198145
            ],
            [
              -16.5126016,
              28.4196739
            ],
            [
              -16.5129899,
              28.4195764
            ],
            [
              -16.5131939,
              28.4195548
            ],
            [
              -16.513228,
              28.4195072
            ],
            [
              -16.5133086,
              28.4194917
            ],
            [
              -16.5134073,
              28.4195028
            ],
            [
              -16.5134673,
              28.4194627
            ],
            [
              -16.5134324,
              28.4193862
            ],
            [
              -16.5140705,
              28.4191955
            ],
            [
              -16.5146562,
              28.4191028
            ],
            [
              -16.5150931,
              28.4190623
            ],
            [
              -16.5156338,
              28.4190659
            ],
            [
              -16.5163007,
              28.4190995
            ],
            [
              -16.5164835,
              28.4191461
            ],
            [
              -16.5165913,
              28.4191613
            ],
            [
              -16.5166191,
              28.4191782
            ],
            [
              -16.5168356,
              28.4192233
            ],
            [
              -16.517001,
              28.4192718
            ],
            [
              -16.5171675,
              28.4192894
            ],
            [
              -16.5172952,
              28.4192807
            ],
            [
              -16.5173982,
              28.4193192
            ],
            [
              -16.5175458,
              28.4193313
            ],
            [
              -16.517843,
              28.419298
            ],
            [
              -16.5179727,
              28.4193008
            ],
            [
              -16.5182086,
              28.4193856
            ],
            [
              -16.5180908,
              28.4195495
            ],
            [
              -16.5180832,
              28.4196052
            ],
            [
              -16.5180998,
              28.4196361
            ],
            [
              -16.5181428,
              28.4196392
            ],
            [
              -16.5182163,
              28.4197378
            ],
            [
              -16.5182939,
              28.4197646
            ],
            [
              -16.5183831,
              28.4197328
            ],
            [
              -16.5184489,
              28.4197767
            ],
            [
              -16.518488,
              28.4198498
            ],
            [
              -16.5185774,
              28.4198617
            ],
            [
              -16.5186509,
              28.4198211
            ],
            [
              -16.5186888,
              28.4197622
            ],
            [
              -16.5187521,
              28.4197024
            ],
            [
              -16.5188011,
              28.4196411
            ],
            [
              -16.5188471,
              28.4195361
            ],
            [
              -16.5189153,
              28.4195399
            ],
            [
              -16.5189945,
              28.4195157
            ],
            [
              -16.5190503,
              28.419482
            ],
            [
              -16.5191403,
              28.4194763
            ],
            [
              -16.5191941,
              28.4194155
            ],
            [
              -16.5191207,
              28.4193598
            ],
            [
              -16.5189398,
              28.4192922
            ],
            [
              -16.5188325,
              28.4191998
            ],
            [
              -16.5186611,
              28.4191241
            ],
            [
              -16.5187002,
              28.4189039
            ],
            [
              -16.5187733,
              28.4187185
            ],
            [
              -16.5188881,
              28.4185532
            ],
            [
              -16.5190047,
              28.4184341
            ],
            [
              -16.5191236,
              28.4183319
            ],
            [
              -16.5192612,
              28.4184123
            ],
            [
              -16.5193167,
              28.4183835
            ],
            [
              -16.5193042,
              28.4183154
            ],
            [
              -16.5192737,
              28.4182513
            ],
            [
              -16.5198072,
              28.4181145
            ],
            [
              -16.5203407,
              28.4180105
            ],
            [
              -16.5208288,
              28.417945
            ],
            [
              -16.5209485,
              28.4179442
            ],
            [
              -16.5209619,
              28.4179941
            ],
            [
              -16.5209945,
              28.4180326
            ],
            [
              -16.5210384,
              28.4180282
            ],
            [
              -16.5210647,
              28.4179864
            ],
            [
              -16.521052,
              28.4179435
            ],
            [
              -16.5213954,
              28.4179412
            ],
            [
              -16.5213974,
              28.4180355
            ],
            [
              -16.5215283,
              28.4181447
            ],
            [
              -16.521522,
              28.4183177
            ],
            [
              -16.5214216,
              28.4184172
            ],
            [
              -16.5215316,
              28.4184934
            ],
            [
              -16.5217535,
              28.4185506
            ],
            [
              -16.5219932,
              28.4186883
            ],
            [
              -16.5221957,
              28.4187685
            ],
            [
              -16.5222788,
              28.4187397
            ],
            [
              -16.5220429,
              28.4186523
            ],
            [
              -16.5219738,
              28.4185401
            ],
            [
              -16.5218371,
              28.4184522
            ],
            [
              -16.5218347,
              28.4183111
            ],
            [
              -16.5218733,
              28.4181694
            ],
            [
              -16.5223099,
              28.4176746
            ],
            [
              -16.5225035,
              28.4175108
            ],
            [
              -16.5227789,
              28.4173861
            ],
            [
              -16.5230854,
              28.4173151
            ],
            [
              -16.5233129,
              28.4172887
            ],
            [
              -16.5232129,
              28.4169957
            ],
            [
              -16.5231286,
              28.4168071
            ],
            [
              -16.5230636,
              28.4165461
            ],
            [
              -16.5230402,
              28.4163388
            ],
            [
              -16.5229872,
              28.416204
            ],
            [
              -16.5229242,
              28.4160784
            ],
            [
              -16.522923,
              28.4159971
            ],
            [
              -16.5229519,
              28.4158795
            ],
            [
              -16.5230518,
              28.4157249
            ],
            [
              -16.5231793,
              28.4153625
            ],
            [
              -16.5232187,
              28.4152628
            ],
            [
              -16.5232462,
              28.4150459
            ],
            [
              -16.5232434,
              28.4148473
            ],
            [
              -16.523096,
              28.4145331
            ],
            [
              -16.523019,
              28.4141459
            ],
            [
              -16.5228722,
              28.4138768
            ],
            [
              -16.5227872,
              28.4136431
            ],
            [
              -16.5227314,
              28.4133097
            ],
            [
              -16.5228097,
              28.4130742
            ],
            [
              -16.5227871,
              28.412921
            ],
            [
              -16.5227137,
              28.4127865
            ],
            [
              -16.5225779,
              28.4125714
            ],
            [
              -16.5224522,
              28.4123472
            ],
            [
              -16.5223465,
              28.4120956
            ],
            [
              -16.5223123,
              28.4118433
            ],
            [
              -16.5223182,
              28.4115454
            ],
            [
              -16.5223364,
              28.4113918
            ],
            [
              -16.522343,
              28.411139
            ],
            [
              -16.5222578,
              28.4108872
            ],
            [
              -16.5221436,
              28.4107531
            ],
            [
              -16.5220094,
              28.4106554
            ],
            [
              -16.5217321,
              28.4105321
            ],
            [
              -16.5214748,
              28.4103906
            ],
            [
              -16.521238,
              28.4102488
            ],
            [
              -16.5210308,
              28.4100345
            ],
            [
              -16.5208017,
              28.4097212
            ],
            [
              -16.5206204,
              28.4092449
            ],
            [
              -16.5203902,
              28.4088504
            ],
            [
              -16.5202107,
              28.4084372
            ],
            [
              -16.5200932,
              28.4080685
            ],
            [
              -16.5200194,
              28.4079068
            ],
            [
              -16.5209657,
              28.4076977
            ],
            [
              -16.5220235,
              28.4074242
            ],
            [
              -16.5223689,
              28.407312
            ],
            [
              -16.5230808,
              28.4071235
            ],
            [
              -16.5234462,
              28.4069841
            ],
            [
              -16.5236798,
              28.4069002
            ],
            [
              -16.523894,
              28.4068888
            ],
            [
              -16.524058,
              28.4069321
            ],
            [
              -16.5241709,
              28.4069759
            ],
            [
              -16.524356,
              28.4070731
            ],
            [
              -16.5246016,
              28.4071155
            ],
            [
              -16.5248162,
              28.4071312
            ],
            [
              -16.5250708,
              28.4070922
            ],
            [
              -16.5255979,
              28.4068336
            ],
            [
              -16.5259023,
              28.4067038
            ],
            [
              -16.5262778,
              28.4065552
            ],
            [
              -16.5266438,
              28.4064518
            ],
            [
              -16.5269189,
              28.4064126
            ],
            [
              -16.5272342,
              28.4063369
            ],
            [
              -16.527519,
              28.4062615
            ],
            [
              -16.527804,
              28.4062042
            ],
            [
              -16.5280382,
              28.4061654
            ],
            [
              -16.5282224,
              28.4061995
            ],
            [
              -16.5284583,
              28.406278
            ],
            [
              -16.5288902,
              28.4064988
            ],
            [
              -16.5290859,
              28.406623
            ],
            [
              -16.5293823,
              28.4066467
            ],
            [
              -16.5298424,
              28.4066957
            ],
            [
              -16.5302396,
              28.4066371
            ],
            [
              -16.5307439,
              28.4062163
            ],
            [
              -16.5316477,
              28.4058902
            ],
            [
              -16.5321448,
              28.405677
            ],
            [
              -16.5325509,
              28.405519
            ],
            [
              -16.5328857,
              28.4053799
            ],
            [
              -16.5330578,
              28.4052787
            ],
            [
              -16.5332601,
              28.40515
            ],
            [
              -16.5334213,
              28.4050038
            ],
            [
              -16.5336915,
              28.4046307
            ],
            [
              -16.5338412,
              28.4043944
            ],
            [
              -16.5339106,
              28.4042492
            ],
            [
              -16.5340111,
              28.4041398
            ],
            [
              -16.5343353,
              28.4039737
            ],
            [
              -16.5344366,
              28.4039184
            ],
            [
              -16.534558,
              28.4038448
            ],
            [
              -16.5349468,
              28.4031996
            ],
            [
              -16.5354178,
              28.4025896
            ],
            [
              -16.5354763,
              28.4023994
            ],
            [
              -16.5354734,
              28.4022009
            ],
            [
              -16.5354801,
              28.4019571
            ],
            [
              -16.535508,
              28.4017673
            ],
            [
              -16.5355058,
              28.4016139
            ],
            [
              -16.5355442,
              28.401451
            ],
            [
              -16.5356522,
              28.4011519
            ],
            [
              -16.5358923,
              28.4008153
            ],
            [
              -16.5361213,
              28.4004156
            ],
            [
              -16.5361901,
              28.4002343
            ],
            [
              -16.536299,
              28.3999984
            ],
            [
              -16.5363579,
              28.3998353
            ],
            [
              -16.5363749,
              28.3996005
            ],
            [
              -16.5364408,
              28.3992116
            ],
            [
              -16.5364679,
              28.3989677
            ],
            [
              -16.5365166,
              28.3988047
            ],
            [
              -16.5365146,
              28.3986693
            ],
            [
              -16.5365037,
              28.3986243
            ],
            [
              -16.5365223,
              28.3984977
            ],
            [
              -16.5366018,
              28.3983434
            ],
            [
              -16.5368328,
              28.3980881
            ],
            [
              -16.5371446,
              28.3977687
            ],
            [
              -16.5374872,
              28.397458
            ],
            [
              -16.5377596,
              28.3972383
            ],
            [
              -16.5379821,
              28.3971004
            ],
            [
              -16.5381351,
              28.3970896
            ],
            [
              -16.5382579,
              28.3971153
            ],
            [
              -16.5383701,
              28.397105
            ],
            [
              -16.5384611,
              28.3970498
            ],
            [
              -16.5385106,
              28.396941
            ],
            [
              -16.5386108,
              28.3968135
            ],
            [
              -16.5387219,
              28.396731
            ],
            [
              -16.5389155,
              28.3967108
            ],
            [
              -16.5392429,
              28.3967612
            ],
            [
              -16.5396724,
              28.3968195
            ],
            [
              -16.5402351,
              28.3969125
            ],
            [
              -16.5404918,
              28.3970179
            ],
            [
              -16.5406564,
              28.3971062
            ],
            [
              -16.5407094,
              28.397241
            ],
            [
              -16.5407715,
              28.3973035
            ],
            [
              -16.5409042,
              28.397302
            ],
            [
              -16.5412916,
              28.3972705
            ],
            [
              -16.5415971,
              28.3972219
            ],
            [
              -16.5419349,
              28.3972903
            ],
            [
              -16.5427126,
              28.3974259
            ],
            [
              -16.543153,
              28.3975292
            ],
            [
              -16.5436024,
              28.3975512
            ],
            [
              -16.544114,
              28.3976357
            ],
            [
              -16.544431,
              28.3976772
            ],
            [
              -16.5447481,
              28.3977286
            ],
            [
              -16.545095,
              28.3977157
            ],
            [
              -16.5454111,
              28.397694
            ],
            [
              -16.5456972,
              28.3977179
            ],
            [
              -16.5461267,
              28.3977762
            ],
            [
              -16.5462908,
              28.3978285
            ],
            [
              -16.5464854,
              28.3978714
            ],
            [
              -16.5468522,
              28.3978311
            ],
            [
              -16.5475631,
              28.3976515
            ],
            [
              -16.5479502,
              28.397602
            ],
            [
              -16.5482145,
              28.3975268
            ],
            [
              -16.5485598,
              28.3974056
            ],
            [
              -16.5488943,
              28.3972483
            ],
            [
              -16.5489852,
              28.3971841
            ],
            [
              -16.5491176,
              28.3971646
            ],
            [
              -16.5493326,
              28.3972072
            ],
            [
              -16.5495786,
              28.3972766
            ],
            [
              -16.5498851,
              28.3973002
            ],
            [
              -16.5502526,
              28.3973051
            ],
            [
              -16.5507741,
              28.3973713
            ],
            [
              -16.5511528,
              28.3974392
            ],
            [
              -16.5515003,
              28.3974714
            ],
            [
              -16.5518363,
              28.3974134
            ],
            [
              -16.5522337,
              28.3973727
            ],
            [
              -16.5527537,
              28.3973307
            ],
            [
              -16.5532757,
              28.3974331
            ],
            [
              -16.5538684,
              28.3974804
            ],
            [
              -16.5541861,
              28.3975671
            ],
            [
              -16.5544414,
              28.3975822
            ],
            [
              -16.5547347,
              28.3966944
            ],
            [
              -16.5548382,
              28.3960975
            ],
            [
              -16.5550441,
              28.3955176
            ],
            [
              -16.5551714,
              28.3951461
            ],
            [
              -16.5553799,
              28.3947466
            ],
            [
              -16.5554764,
              28.3943664
            ],
            [
              -16.5555139,
              28.3941404
            ],
            [
              -16.5556017,
              28.3938596
            ],
            [
              -16.5557221,
              28.3937228
            ],
            [
              -16.5560145,
              28.3934758
            ],
            [
              -16.5563277,
              28.3932556
            ],
            [
              -16.556621,
              28.3930718
            ],
            [
              -16.5570354,
              28.3927963
            ],
            [
              -16.5571462,
              28.3926957
            ],
            [
              -16.5573267,
              28.3924771
            ],
            [
              -16.5574253,
              28.3922413
            ],
            [
              -16.5574507,
              28.39188
            ],
            [
              -16.5574362,
              28.3915913
            ],
            [
              -16.5574842,
              28.3913832
            ],
            [
              -16.5576333,
              28.3911107
            ],
            [
              -16.557772,
              28.3908204
            ],
            [
              -16.5579932,
              28.3905922
            ],
            [
              -16.5583066,
              28.39039
            ],
            [
              -16.5586512,
              28.3902237
            ],
            [
              -16.5589035,
              28.3900312
            ],
            [
              -16.559224,
              28.3896124
            ],
            [
              -16.5593627,
              28.389331
            ],
            [
              -16.5595117,
              28.3890495
            ],
            [
              -16.5596499,
              28.3887321
            ],
            [
              -16.5597675,
              28.3883968
            ],
            [
              -16.5598357,
              28.3881794
            ],
            [
              -16.5599699,
              28.3875822
            ],
            [
              -16.5600961,
              28.3871385
            ],
            [
              -16.5601741,
              28.386894
            ],
            [
              -16.5602114,
              28.3866498
            ],
            [
              -16.5603,
              28.3864322
            ],
            [
              -16.5604311,
              28.3863224
            ],
            [
              -16.5607138,
              28.3861116
            ],
            [
              -16.5609062,
              28.3860101
            ],
            [
              -16.5611198,
              28.3859625
            ],
            [
              -16.5612619,
              28.3859068
            ],
            [
              -16.5613727,
              28.3858062
            ],
            [
              -16.5614906,
              28.385498
            ],
            [
              -16.5615968,
              28.3850816
            ],
            [
              -16.5616951,
              28.3848278
            ],
            [
              -16.5617843,
              28.3846463
            ],
            [
              -16.5619124,
              28.3843379
            ],
            [
              -16.5619804,
              28.3841025
            ],
            [
              -16.5620279,
              28.3838583
            ],
            [
              -16.5620864,
              28.3836771
            ],
            [
              -16.5620748,
              28.383578
            ],
            [
              -16.5620108,
              28.3833892
            ],
            [
              -16.5619677,
              28.3832362
            ],
            [
              -16.5618632,
              28.3830659
            ],
            [
              -16.561841,
              28.3829489
            ],
            [
              -16.5618577,
              28.382696
            ],
            [
              -16.5619048,
              28.3824247
            ],
            [
              -16.5619529,
              28.3822256
            ],
            [
              -16.5619901,
              28.3819815
            ],
            [
              -16.5619986,
              28.381864
            ],
            [
              -16.5621089,
              28.3817274
            ],
            [
              -16.5621269,
              28.3815647
            ],
            [
              -16.5621341,
              28.3813571
            ],
            [
              -16.5621213,
              28.3811857
            ],
            [
              -16.5620266,
              28.3809883
            ],
            [
              -16.5618603,
              28.3807826
            ],
            [
              -16.5617654,
              28.3805761
            ],
            [
              -16.5616702,
              28.3803425
            ],
            [
              -16.5616272,
              28.3801986
            ],
            [
              -16.5616144,
              28.3800183
            ],
            [
              -16.5616125,
              28.3798919
            ],
            [
              -16.5616005,
              28.3797657
            ],
            [
              -16.5615365,
              28.3795769
            ],
            [
              -16.5614112,
              28.3793888
            ],
            [
              -16.5614083,
              28.3791903
            ],
            [
              -16.5615174,
              28.3789725
            ],
            [
              -16.5616258,
              28.3787095
            ],
            [
              -16.5616732,
              28.3784653
            ],
            [
              -16.5617092,
              28.3781309
            ],
            [
              -16.5616866,
              28.3779868
            ],
            [
              -16.5616441,
              28.3778699
            ],
            [
              -16.5615292,
              28.3776907
            ],
            [
              -16.5613847,
              28.3775751
            ],
            [
              -16.5613306,
              28.3773681
            ],
            [
              -16.5612971,
              28.3771699
            ],
            [
              -16.5612538,
              28.376999
            ],
            [
              -16.5612413,
              28.3768457
            ],
            [
              -16.5612593,
              28.376683
            ],
            [
              -16.5614295,
              28.3764554
            ],
            [
              -16.5617502,
              28.3760546
            ],
            [
              -16.5618902,
              28.3758635
            ],
            [
              -16.5619491,
              28.3757004
            ],
            [
              -16.5619555,
              28.3755108
            ],
            [
              -16.5619438,
              28.3754116
            ],
            [
              -16.56187,
              28.37525
            ],
            [
              -16.561674,
              28.3751079
            ],
            [
              -16.5614783,
              28.3749838
            ],
            [
              -16.5613228,
              28.3748141
            ],
            [
              -16.561229,
              28.3746798
            ],
            [
              -16.561114,
              28.3744915
            ],
            [
              -16.5611018,
              28.3743563
            ],
            [
              -16.5611288,
              28.3741123
            ],
            [
              -16.5611768,
              28.3739042
            ],
            [
              -16.5612138,
              28.373642
            ],
            [
              -16.5612313,
              28.3734433
            ],
            [
              -16.5613196,
              28.3732076
            ],
            [
              -16.5613987,
              28.3730352
            ],
            [
              -16.5615545,
              28.372519
            ],
            [
              -16.5615829,
              28.3723743
            ],
            [
              -16.5615904,
              28.3721846
            ],
            [
              -16.5615265,
              28.3720049
            ],
            [
              -16.5614636,
              28.3718883
            ],
            [
              -16.5613899,
              28.3717357
            ],
            [
              -16.5613458,
              28.3715106
            ],
            [
              -16.5613609,
              28.3711494
            ],
            [
              -16.5614401,
              28.3706758
            ],
            [
              -16.5614547,
              28.3705887
            ],
            [
              -16.5613791,
              28.3703008
            ],
            [
              -16.5612324,
              28.3700407
            ],
            [
              -16.5610549,
              28.369763
            ],
            [
              -16.5608577,
              28.3695396
            ],
            [
              -16.5605779,
              28.369245
            ],
            [
              -16.5604111,
              28.3690032
            ],
            [
              -16.5602956,
              28.3687789
            ],
            [
              -16.5602107,
              28.3685543
            ],
            [
              -16.5601671,
              28.3683652
            ],
            [
              -16.5601929,
              28.36804
            ],
            [
              -16.5602042,
              28.3674172
            ],
            [
              -16.5601707,
              28.367219
            ],
            [
              -16.5602354,
              28.366758
            ],
            [
              -16.560299,
              28.3662247
            ],
            [
              -16.5603345,
              28.3658624
            ],
            [
              -16.5603504,
              28.3655554
            ],
            [
              -16.5603152,
              28.3652399
            ],
            [
              -16.5602207,
              28.3650605
            ],
            [
              -16.5600224,
              28.3647559
            ],
            [
              -16.5598459,
              28.3645503
            ],
            [
              -16.5597406,
              28.3643259
            ],
            [
              -16.5596561,
              28.3641283
            ],
            [
              -16.5596028,
              28.3639755
            ],
            [
              -16.5595899,
              28.3637861
            ],
            [
              -16.5596079,
              28.3636234
            ],
            [
              -16.5596576,
              28.3635326
            ],
            [
              -16.5597367,
              28.3633602
            ],
            [
              -16.5597745,
              28.3631522
            ],
            [
              -16.5597417,
              28.3630082
            ],
            [
              -16.5596774,
              28.3627923
            ],
            [
              -16.559563,
              28.3626492
            ],
            [
              -16.5592749,
              28.3624811
            ],
            [
              -16.5590976,
              28.3622213
            ],
            [
              -16.5589809,
              28.3619158
            ],
            [
              -16.5589584,
              28.3617717
            ],
            [
              -16.5587919,
              28.360853
            ],
            [
              -16.5585886,
              28.3602055
            ],
            [
              -16.5585318,
              28.3598091
            ],
            [
              -16.5585693,
              28.359583
            ],
            [
              -16.558648,
              28.3593835
            ],
            [
              -16.558706,
              28.3591663
            ],
            [
              -16.5587238,
              28.3589856
            ],
            [
              -16.5587295,
              28.3586786
            ],
            [
              -16.5586538,
              28.3583817
            ],
            [
              -16.5585278,
              28.3581394
            ],
            [
              -16.55835,
              28.3578436
            ],
            [
              -16.558122,
              28.3576026
            ],
            [
              -16.5578324,
              28.3573351
            ],
            [
              -16.5577084,
              28.3572282
            ],
            [
              -16.5575227,
              28.3570859
            ],
            [
              -16.5572964,
              28.3569622
            ],
            [
              -16.5570594,
              28.3568024
            ],
            [
              -16.5569757,
              28.356659
            ],
            [
              -16.5568695,
              28.3563714
            ],
            [
              -16.5568665,
              28.3561638
            ],
            [
              -16.5569544,
              28.3559011
            ],
            [
              -16.5569611,
              28.3556573
            ],
            [
              -16.5569272,
              28.3554321
            ],
            [
              -16.5569341,
              28.3552064
            ],
            [
              -16.5569998,
              28.3548175
            ],
            [
              -16.5569841,
              28.3544387
            ],
            [
              -16.5569999,
              28.3541226
            ],
            [
              -16.5570362,
              28.3538153
            ],
            [
              -16.5570429,
              28.3535716
            ],
            [
              -16.5570286,
              28.3532919
            ],
            [
              -16.5569741,
              28.3530579
            ],
            [
              -16.5568688,
              28.3528335
            ],
            [
              -16.5567531,
              28.3525911
            ],
            [
              -16.5565974,
              28.3524124
            ],
            [
              -16.5564496,
              28.3520711
            ],
            [
              -16.5563329,
              28.3517656
            ],
            [
              -16.5562886,
              28.3515224
            ],
            [
              -16.5563354,
              28.3512331
            ],
            [
              -16.5564212,
              28.350826
            ],
            [
              -16.5565298,
              28.350572
            ],
            [
              -16.5566294,
              28.3504084
            ],
            [
              -16.5567684,
              28.3501451
            ],
            [
              -16.5568569,
              28.3499185
            ],
            [
              -16.5569449,
              28.3496557
            ],
            [
              -16.5569926,
              28.3494295
            ],
            [
              -16.5570385,
              28.349077
            ],
            [
              -16.5570145,
              28.3488336
            ],
            [
              -16.5569595,
              28.3485635
            ],
            [
              -16.5567659,
              28.3478798
            ],
            [
              -16.5567224,
              28.3476907
            ],
            [
              -16.5565474,
              28.3475844
            ],
            [
              -16.5563534,
              28.3475776
            ],
            [
              -16.5560975,
              28.3475174
            ],
            [
              -16.5559125,
              28.3474202
            ],
            [
              -16.5557575,
              28.3472866
            ],
            [
              -16.5556327,
              28.3471256
            ],
            [
              -16.5555988,
              28.3469003
            ],
            [
              -16.5556052,
              28.3466385
            ],
            [
              -16.5556923,
              28.3463126
            ],
            [
              -16.5557487,
              28.3459871
            ],
            [
              -16.5557041,
              28.3457258
            ],
            [
              -16.5556203,
              28.3455734
            ],
            [
              -16.5554546,
              28.3454038
            ],
            [
              -16.5552683,
              28.3452254
            ],
            [
              -16.555123,
              28.3450556
            ],
            [
              -16.5550902,
              28.3449025
            ],
            [
              -16.5551273,
              28.3446494
            ],
            [
              -16.5552447,
              28.3443051
            ],
            [
              -16.5553208,
              28.3439252
            ],
            [
              -16.5554177,
              28.3435721
            ],
            [
              -16.5554622,
              28.3431293
            ],
            [
              -16.555557,
              28.3426318
            ],
            [
              -16.5555613,
              28.3422257
            ],
            [
              -16.5554606,
              28.3416221
            ],
            [
              -16.5558906,
              28.3403266
            ],
            [
              -16.5563209,
              28.3369552
            ],
            [
              -16.5565076,
              28.3350668
            ],
            [
              -16.5566822,
              28.3331244
            ],
            [
              -16.5567917,
              28.3322387
            ],
            [
              -16.5569567,
              28.3302602
            ],
            [
              -16.5571706,
              28.3281459
            ],
            [
              -16.5573996,
              28.3256613
            ],
            [
              -16.5576132,
              28.3235199
            ],
            [
              -16.5577714,
              28.3217852
            ],
            [
              -16.5579789,
              28.3199236
            ],
            [
              -16.5580206,
              28.3185874
            ],
            [
              -16.5580062,
              28.3176038
            ],
            [
              -16.5579792,
              28.3164489
            ],
            [
              -16.5579909,
              28.3158531
            ],
            [
              -16.5579102,
              28.3138143
            ],
            [
              -16.5578914,
              28.31043
            ],
            [
              -16.5581204,
              28.3100483
            ],
            [
              -16.5587107,
              28.3092654
            ],
            [
              -16.5598356,
              28.3073843
            ],
            [
              -16.5608813,
              28.3056665
            ],
            [
              -16.5618466,
              28.3040309
            ],
            [
              -16.56341,
              28.301522
            ],
            [
              -16.5649719,
              28.2988507
            ],
            [
              -16.5653379,
              28.2980793
            ],
            [
              -16.5657046,
              28.2980571
            ],
            [
              -16.5664778,
              28.2979309
            ],
            [
              -16.5688562,
              28.2974072
            ],
            [
              -16.5719052,
              28.2967132
            ],
            [
              -16.5742836,
              28.2961894
            ],
            [
              -16.5791412,
              28.2950683
            ],
            [
              -16.5820483,
              28.294448
            ],
            [
              -16.5842029,
              28.2939627
            ],
            [
              -16.5864286,
              28.2934675
            ],
            [
              -16.5890199,
              28.2928688
            ],
            [
              -16.5892698,
              28.2945897
            ],
            [
              -16.5901283,
              28.3002024
            ],
            [
              -16.591401,
              28.3082932
            ],
            [
              -16.5915559,
              28.3091036
            ],
            [
              -16.5919168,
              28.3121048
            ],
            [
              -16.5921767,
              28.3138076
            ],
            [
              -16.5922649,
              28.3146612
            ],
            [
              -16.6078397,
              28.306926
            ],
            [
              -16.6080933,
              28.30687
            ],
            [
              -16.6408727,
              28.2998471
            ],
            [
              -16.6666749,
              28.2917143
            ],
            [
              -16.6683923,
              28.2913504
            ],
            [
              -16.6719375,
              28.2761637
            ],
            [
              -16.6728747,
              28.2728817
            ],
            [
              -16.6755236,
              28.2704931
            ],
            [
              -16.683866,
              28.2494722
            ],
            [
              -16.6834845,
              28.2370807
            ],
            [
              -16.6807882,
              28.2129791
            ],
            [
              -16.6773649,
              28.2123119
            ],
            [
              -16.6747245,
              28.2079393
            ],
            [
              -16.6710984,
              28.2066661
            ],
            [
              -16.6690238,
              28.2055904
            ],
            [
              -16.6676072,
              28.2055535
            ],
            [
              -16.6666701,
              28.2055559
            ],
            [
              -16.6649802,
              28.2056306
            ],
            [
              -16.6642642,
              28.2054498
            ],
            [
              -16.6633624,
              28.2050998
            ],
            [
              -16.6621387,
              28.2043656
            ],
            [
              -16.6608407,
              28.2034338
            ],
            [
              -16.6603443,
              28.2029525
            ],
            [
              -16.6600522,
              28.2011727
            ],
            [
              -16.6579535,
              28.2015428
            ],
            [
              -16.6576497,
              28.2014029
            ],
            [
              -16.6572147,
              28.2009282
            ],
            [
              -16.6562274,
              28.200484
            ],
            [
              -16.6558954,
              28.200407
            ],
            [
              -16.6557026,
              28.2003623
            ],
            [
              -16.6552469,
              28.2006118
            ],
            [
              -16.6542941,
              28.2006301
            ],
            [
              -16.6535622,
              28.2006422
            ],
            [
              -16.6528097,
              28.2006848
            ],
            [
              -16.6520433,
              28.2003258
            ],
            [
              -16.6520018,
              28.1999851
            ],
            [
              -16.6516152,
              28.1997904
            ],
            [
              -16.6512838,
              28.1999547
            ],
            [
              -16.6504414,
              28.1998147
            ],
            [
              -16.6486739,
              28.1988959
            ],
            [
              -16.6481328,
              28.1987909
            ],
            [
              -16.6456152,
              28.1987498
            ],
            [
              -16.643392,
              28.1987316
            ],
            [
              -16.642598,
              28.1989993
            ],
            [
              -16.6413897,
              28.1995652
            ],
            [
              -16.6399053,
              28.199979
            ],
            [
              -16.638842,
              28.1998755
            ],
            [
              -16.6376337,
              28.1997599
            ],
            [
              -16.636819,
              28.2001433
            ],
            [
              -16.6362943,
              28.2004414
            ],
            [
              -16.635666,
              28.20091
            ],
            [
              -16.6349134,
              28.2012507
            ],
            [
              -16.6341953,
              28.2017193
            ],
            [
              -16.632697,
              28.2020539
            ],
            [
              -16.6317719,
              28.2026563
            ],
            [
              -16.6309019,
              28.2028389
            ],
            [
              -16.6285406,
              28.2040375
            ],
            [
              -16.6277466,
              28.2043661
            ],
            [
              -16.6271679,
              28.2044192
            ],
            [
              -16.6265935,
              28.2048321
            ],
            [
              -16.6254405,
              28.2057717
            ],
            [
              -16.6247846,
              28.2061002
            ],
            [
              -16.6233692,
              28.2062767
            ],
            [
              -16.6226373,
              28.2069034
            ],
            [
              -16.6224419,
              28.2075825
            ],
            [
              -16.6226079,
              28.2080945
            ],
            [
              -16.6226616,
              28.2084645
            ],
            [
              -16.6225591,
              28.208813
            ],
            [
              -16.6223931,
              28.2092647
            ],
            [
              -16.6223394,
              28.2096241
            ],
            [
              -16.6221148,
              28.2098629
            ],
            [
              -16.6219048,
              28.2102436
            ],
            [
              -16.621704,
              28.2106663
            ],
            [
              -16.6214071,
              28.2111713
            ],
            [
              -16.6213035,
              28.2118679
            ],
            [
              -16.621086,
              28.2120961
            ],
            [
              -16.6208168,
              28.2126924
            ],
            [
              -16.6206735,
              28.212853
            ],
            [
              -16.6200573,
              28.2131882
            ],
            [
              -16.6197566,
              28.2131957
            ],
            [
              -16.6192511,
              28.2131915
            ],
            [
              -16.6189423,
              28.2132415
            ],
            [
              -16.6161915,
              28.2136874
            ],
            [
              -16.6118717,
              28.2155028
            ],
            [
              -16.6088759,
              28.2159488
            ],
            [
              -16.605898,
              28.2162956
            ],
            [
              -16.6046394,
              28.2163454
            ],
            [
              -16.6010978,
              28.2166996
            ],
            [
              -16.6001465,
              28.2176717
            ],
            [
              -16.5994938,
              28.2182201
            ],
            [
              -16.5987424,
              28.2188515
            ],
            [
              -16.598289,
              28.2192325
            ],
            [
              -16.5961017,
              28.2195471
            ],
            [
              -16.5925291,
              28.21874
            ],
            [
              -16.5914447,
              28.2191317
            ],
            [
              -16.5905307,
              28.2200177
            ],
            [
              -16.5900024,
              28.220809
            ],
            [
              -16.5892398,
              28.2216031
            ],
            [
              -16.58693,
              28.2231912
            ],
            [
              -16.5857739,
              28.2242515
            ],
            [
              -16.5853687,
              28.2250955
            ],
            [
              -16.5849974,
              28.2261738
            ],
            [
              -16.584498,
              28.2268564
            ],
            [
              -16.5815909,
              28.2280272
            ],
            [
              -16.5808671,
              28.2286944
            ],
            [
              -16.5789837,
              28.2308822
            ],
            [
              -16.5779992,
              28.2318411
            ],
            [
              -16.5775825,
              28.2326131
            ],
            [
              -16.5773252,
              28.2338254
            ],
            [
              -16.5768911,
              28.234796
            ],
            [
              -16.5763742,
              28.2349825
            ],
            [
              -16.5755898,
              28.2350006
            ],
            [
              -16.5747154,
              28.235137
            ],
            [
              -16.5741612,
              28.2355585
            ],
            [
              -16.57312,
              28.23613
            ],
            [
              -16.5701201,
              28.2372565
            ],
            [
              -16.5684955,
              28.2376542
            ],
            [
              -16.5674812,
              28.2379817
            ],
            [
              -16.5668983,
              28.238539
            ],
            [
              -16.566101,
              28.2390715
            ],
            [
              -16.564125,
              28.2398342
            ],
            [
              -16.5637446,
              28.2403078
            ],
            [
              -16.5634595,
              28.2410241
            ],
            [
              -16.5629744,
              28.2413004
            ],
            [
              -16.561897,
              28.2414932
            ],
            [
              -16.5595146,
              28.2423507
            ],
            [
              -16.5590421,
              28.2427983
            ],
            [
              -16.5577005,
              28.245151
            ],
            [
              -16.557106,
              28.2456181
            ],
            [
              -16.5560851,
              28.2461983
            ],
            [
              -16.5534981,
              28.2470129
            ],
            [
              -16.5526804,
              28.2475456
            ],
            [
              -16.5521395,
              28.2482016
            ],
            [
              -16.5509325,
              28.2500112
            ],
            [
              -16.5499074,
              28.2517105
            ],
            [
              -16.5499056,
              28.2530011
            ],
            [
              -16.5494772,
              28.2543868
            ],
            [
              -16.5484989,
              28.2551018
            ],
            [
              -16.5475762,
              28.257549
            ],
            [
              -16.5473458,
              28.2592393
            ],
            [
              -16.5479624,
              28.2610012
            ],
            [
              -16.5471565,
              28.2616601
            ],
            [
              -16.5445313,
              28.2626826
            ],
            [
              -16.5444342,
              28.2637215
            ],
            [
              -16.5425319,
              28.2675245
            ],
            [
              -16.5428071,
              28.2689383
            ],
            [
              -16.5434834,
              28.2698873
            ],
            [
              -16.5435364,
              28.270735
            ],
            [
              -16.5431369,
              28.2720211
            ],
            [
              -16.543634,
              28.272557
            ],
            [
              -16.5436345,
              28.273297
            ],
            [
              -16.5431283,
              28.2749543
            ],
            [
              -16.5446354,
              28.2776718
            ],
            [
              -16.5440587,
              28.2808009
            ],
            [
              -16.5425657,
              28.2819008
            ],
            [
              -16.5422608,
              28.2826714
            ],
            [
              -16.5405145,
              28.2838824
            ],
            [
              -16.5358773,
              28.2854057
            ],
            [
              -16.5321555,
              28.2867922
            ],
            [
              -16.5326405,
              28.2879058
            ],
            [
              -16.5297863,
              28.2929377
            ],
            [
              -16.5233362,
              28.2953563
            ],
            [
              -16.5215285,
              28.2980117
            ],
            [
              -16.5216539,
              28.3003749
            ],
            [
              -16.5192983,
              28.3018
            ],
            [
              -16.5146803,
              28.3026004
            ],
            [
              -16.5114227,
              28.3000689
            ],
            [
              -16.5113842,
              28.3000389
            ],
            [
              -16.5057448,
              28.3036521
            ],
            [
              -16.5024477,
              28.3060767
            ],
            [
              -16.5020448,
              28.3068179
            ],
            [
              -16.5014758,
              28.3074689
            ],
            [
              -16.5003281,
              28.3079231
            ],
            [
              -16.4993706,
              28.3089052
            ],
            [
              -16.4986816,
              28.3117211
            ],
            [
              -16.4974342,
              28.3137178
            ],
            [
              -16.4963776,
              28.3152879
            ],
            [
              -16.4937333,
              28.318532
            ],
            [
              -16.4937474,
              28.3197826
            ],
            [
              -16.4921676,
              28.3224565
            ],
            [
              -16.4916375,
              28.3231798
            ],
            [
              -16.4892976,
              28.325878
            ],
            [
              -16.4852651,
              28.3307603
            ],
            [
              -16.4852773,
              28.3313145
            ],
            [
              -16.485655,
              28.3319451
            ],
            [
              -16.4848164,
              28.3345305
            ],
            [
              -16.4839407,
              28.3369462
            ],
            [
              -16.4822502,
              28.3405197
            ],
            [
              -16.4817439,
              28.341434
            ],
            [
              -16.4821099,
              28.3422839
            ],
            [
              -16.4824094,
              28.3429515
            ],
            [
              -16.4821624,
              28.3447699
            ],
            [
              -16.4820819,
              28.3458819
            ],
            [
              -16.48195,
              28.3469688
            ],
            [
              -16.4815667,
              28.3476493
            ],
            [
              -16.4810645,
              28.3481332
            ],
            [
              -16.4803218,
              28.3485195
            ],
            [
              -16.4799673,
              28.3488018
            ],
            [
              -16.4794356,
              28.3492326
            ],
            [
              -16.4790558,
              28.3496634
            ],
            [
              -16.4788026,
              28.3499011
            ],
            [
              -16.4781724,
              28.3502961
            ],
            [
              -16.4776406,
              28.3506452
            ],
            [
              -16.4772397,
              28.3509497
            ],
            [
              -16.4765603,
              28.3517928
            ],
            [
              -16.4763156,
              28.3520602
            ],
            [
              -16.4760117,
              28.3522496
            ],
            [
              -16.4757712,
              28.3524019
            ],
            [
              -16.4750369,
              28.3526321
            ],
            [
              -16.4745727,
              28.3527844
            ],
            [
              -16.4741453,
              28.3528538
            ],
            [
              -16.4736401,
              28.3529292
            ],
            [
              -16.4727044,
              28.3528063
            ],
            [
              -16.4719141,
              28.3527287
            ],
            [
              -16.4710363,
              28.3527101
            ],
            [
              -16.4701226,
              28.3535875
            ],
            [
              -16.4699016,
              28.3539401
            ],
            [
              -16.469171,
              28.3543627
            ],
            [
              -16.4687985,
              28.3547509
            ],
            [
              -16.4684966,
              28.3549911
            ],
            [
              -16.4678923,
              28.3552414
            ],
            [
              -16.4667442,
              28.3551025
            ],
            [
              -16.4672627,
              28.3569933
            ],
            [
              -16.4667828,
              28.3580377
            ],
            [
              -16.4668752,
              28.3592117
            ],
            [
              -16.466819,
              28.3602715
            ],
            [
              -16.4665923,
              28.3611115
            ],
            [
              -16.4657382,
              28.3626629
            ],
            [
              -16.4655104,
              28.363204
            ],
            [
              -16.465234,
              28.3636803
            ],
            [
              -16.4646584,
              28.3644187
            ],
            [
              -16.4644683,
              28.3654481
            ],
            [
              -16.4643836,
              28.36627
            ],
            [
              -16.4642591,
              28.3670794
            ],
            [
              -16.4648803,
              28.3689001
            ],
            [
              -16.4643107,
              28.369626
            ],
            [
              -16.4640397,
              28.3699568
            ],
            [
              -16.4637559,
              28.3703688
            ],
            [
              -16.4636065,
              28.3708621
            ],
            [
              -16.4635678,
              28.3718599
            ],
            [
              -16.4644932,
              28.3721183
            ],
            [
              -16.4652727,
              28.3722707
            ],
            [
              -16.4655613,
              28.3723469
            ],
            [
              -16.4658558,
              28.3725704
            ],
            [
              -16.466081,
              28.3728879
            ],
            [
              -16.4664043,
              28.3730353
            ],
            [
              -16.46675,
              28.3732554
            ],
            [
              -16.4671253,
              28.3735527
            ],
            [
              -16.467365,
              28.3737813
            ],
            [
              -16.4676018,
              28.3741345
            ],
            [
              -16.4677144,
              28.3743606
            ],
            [
              -16.4678386,
              28.3744089
            ],
            [
              -16.4679656,
              28.3746807
            ],
            [
              -16.4681433,
              28.3749186
            ],
            [
              -16.4683117,
              28.375085
            ],
            [
              -16.4684312,
              28.3752765
            ],
            [
              -16.4685415,
              28.3753519
            ],
            [
              -16.4685983,
              28.3755625
            ],
            [
              -16.4687312,
              28.3759845
            ],
            [
              -16.4688317,
              28.3761508
            ],
            [
              -16.468879,
              28.376364
            ],
            [
              -16.4689469,
              28.3765979
            ],
            [
              -16.4690296,
              28.3767539
            ],
            [
              -16.4691006,
              28.3770893
            ],
            [
              -16.4691419,
              28.377214
            ],
            [
              -16.4693026,
              28.3773303
            ],
            [
              -16.4694738,
              28.3774173
            ],
            [
              -16.4697417,
              28.3775234
            ],
            [
              -16.4699928,
              28.3776871
            ],
            [
              -16.470241,
              28.3777573
            ],
            [
              -16.470371,
              28.3778041
            ],
            [
              -16.4704803,
              28.3780641
            ],
            [
              -16.4705601,
              28.3782226
            ],
            [
              -16.4706664,
              28.3783136
            ],
            [
              -16.4706605,
              28.3784722
            ],
            [
              -16.4705483,
              28.3785762
            ],
            [
              -16.470566,
              28.3787893
            ],
            [
              -16.4705246,
              28.3789713
            ],
            [
              -16.4705749,
              28.3791039
            ],
            [
              -16.4706664,
              28.3791714
            ],
            [
              -16.4707964,
              28.3794028
            ],
            [
              -16.4709324,
              28.3794158
            ],
            [
              -16.4710712,
              28.3793638
            ],
            [
              -16.4711758,
              28.3794708
            ],
            [
              -16.4712386,
              28.3796024
            ],
            [
              -16.4714461,
              28.3796449
            ],
            [
              -16.4716102,
              28.3797086
            ],
            [
              -16.471755,
              28.3798657
            ],
            [
              -16.4718515,
              28.3802563
            ],
            [
              -16.4718708,
              28.3805578
            ],
            [
              -16.4717357,
              28.3807106
            ],
            [
              -16.4716971,
              28.3809314
            ],
            [
              -16.4716971,
              28.3811565
            ],
            [
              -16.4717646,
              28.3814239
            ],
            [
              -16.4719142,
              28.3815598
            ],
            [
              -16.4721217,
              28.381598
            ],
            [
              -16.4723582,
              28.3816065
            ],
            [
              -16.472503,
              28.3816362
            ],
            [
              -16.4727057,
              28.3818103
            ],
            [
              -16.4728987,
              28.3820396
            ],
            [
              -16.47314,
              28.3820778
            ],
            [
              -16.4732992,
              28.3822748
            ],
            [
              -16.4735068,
              28.3827572
            ],
            [
              -16.4737674,
              28.3830416
            ],
            [
              -16.4740425,
              28.3832327
            ],
            [
              -16.4742452,
              28.3832752
            ],
            [
              -16.4743948,
              28.3833601
            ],
            [
              -16.4745782,
              28.3835639
            ],
            [
              -16.4749691,
              28.383997
            ],
            [
              -16.475278,
              28.3845532
            ],
            [
              -16.4754707,
              28.3850744
            ],
            [
              -16.4754033,
              28.3855563
            ],
            [
              -16.4753544,
              28.3860171
            ],
            [
              -16.4754382,
              28.3863795
            ],
            [
              -16.475551,
              28.3869265
            ],
            [
              -16.4757368,
              28.3873539
            ],
            [
              -16.4757797,
              28.3877122
            ],
            [
              -16.4759512,
              28.3879448
            ],
            [
              -16.4761513,
              28.3880014
            ],
            [
              -16.4762584,
              28.3879825
            ],
            [
              -16.47658,
              28.3878191
            ],
            [
              -16.4767943,
              28.3877562
            ],
            [
              -16.4770087,
              28.3878254
            ],
            [
              -16.4771516,
              28.3878945
            ],
            [
              -16.4772802,
              28.3880328
            ],
            [
              -16.4773945,
              28.3882654
            ],
            [
              -16.4773445,
              28.3884666
            ],
            [
              -16.4772802,
              28.3886112
            ],
            [
              -16.4772588,
              28.3888123
            ],
            [
              -16.4776804,
              28.389026
            ],
            [
              -16.4779162,
              28.3890009
            ],
            [
              -16.4782877,
              28.3891015
            ],
            [
              -16.4784878,
              28.3890763
            ],
            [
              -16.4789022,
              28.3889946
            ],
            [
              -16.4792023,
              28.3889758
            ],
            [
              -16.479531,
              28.388938
            ],
            [
              -16.4802313,
              28.3890072
            ],
            [
              -16.4806242,
              28.3890826
            ],
            [
              -16.4808458,
              28.3892398
            ],
            [
              -16.4809601,
              28.3893592
            ],
            [
              -16.4811887,
              28.3893781
            ],
            [
              -16.4813459,
              28.3896358
            ],
            [
              -16.4814745,
              28.3897866
            ],
            [
              -16.481646,
              28.3898369
            ],
            [
              -16.481889,
              28.3898369
            ],
            [
              -16.4820319,
              28.3898684
            ],
            [
              -16.4821676,
              28.3901827
            ],
            [
              -16.4824106,
              28.3902707
            ],
            [
              -16.4826392,
              28.3902644
            ],
            [
              -16.4827536,
              28.3903964
            ],
            [
              -16.4827035,
              28.3907107
            ],
            [
              -16.4827393,
              28.3909684
            ],
            [
              -16.4829679,
              28.3911696
            ],
            [
              -16.4830965,
              28.391333
            ],
            [
              -16.483268,
              28.3915216
            ],
            [
              -16.4834752,
              28.391641
            ],
            [
              -16.4838039,
              28.3918799
            ],
            [
              -16.4841588,
              28.3921709
            ],
            [
              -16.4842001,
              28.392321
            ],
            [
              -16.4842777,
              28.3923892
            ],
            [
              -16.4843811,
              28.3924347
            ],
            [
              -16.4846085,
              28.392421
            ],
            [
              -16.4850852,
              28.3924182
            ],
            [
              -16.4854667,
              28.3924438
            ],
            [
              -16.4856024,
              28.3924596
            ],
            [
              -16.4859956,
              28.3925482
            ],
            [
              -16.4862597,
              28.3928007
            ],
            [
              -16.4863362,
              28.393033
            ],
            [
              -16.4865122,
              28.3931643
            ],
            [
              -16.4867304,
              28.3933495
            ],
            [
              -16.4868797,
              28.3934673
            ],
            [
              -16.4870289,
              28.3935178
            ],
            [
              -16.4872318,
              28.393464
            ],
            [
              -16.4874423,
              28.3933529
            ],
            [
              -16.4875724,
              28.3933899
            ],
            [
              -16.4876528,
              28.3934909
            ],
            [
              -16.4877867,
              28.3936323
            ],
            [
              -16.4880202,
              28.3936929
            ],
            [
              -16.4882881,
              28.393767
            ],
            [
              -16.4884373,
              28.3939757
            ],
            [
              -16.4885636,
              28.3941878
            ],
            [
              -16.4886329,
              28.3945736
            ],
            [
              -16.4888198,
              28.3948465
            ],
            [
              -16.4893382,
              28.3955813
            ],
            [
              -16.4893795,
              28.3956781
            ],
            [
              -16.4894849,
              28.3957789
            ],
            [
              -16.4897233,
              28.3958959
            ],
            [
              -16.4901955,
              28.3960451
            ],
            [
              -16.4902963,
              28.3960935
            ],
            [
              -16.4905026,
              28.3962588
            ],
            [
              -16.4906447,
              28.3963959
            ],
            [
              -16.4908785,
              28.3965774
            ],
            [
              -16.4910252,
              28.3967548
            ],
            [
              -16.4910711,
              28.3968476
            ],
            [
              -16.4911261,
              28.3971621
            ],
            [
              -16.4911994,
              28.397271
            ],
            [
              -16.491314,
              28.3973678
            ],
            [
              -16.4915478,
              28.3974807
            ],
            [
              -16.4918687,
              28.3975614
            ],
            [
              -16.49202,
              28.3976622
            ],
            [
              -16.4924374,
              28.3980333
            ],
            [
              -16.4926319,
              28.3981474
            ],
            [
              -16.4926837,
              28.3981987
            ],
            [
              -16.492768,
              28.3983299
            ],
            [
              -16.4928264,
              28.3985181
            ],
            [
              -16.4928393,
              28.3985979
            ],
            [
              -16.4928175,
              28.3987609
            ],
            [
              -16.4929082,
              28.3988864
            ],
            [
              -16.4932194,
              28.3995479
            ],
            [
              -16.4935112,
              28.4000041
            ],
            [
              -16.493576,
              28.4001353
            ],
            [
              -16.4936556,
              28.4003734
            ],
            [
              -16.4936733,
              28.4004262
            ],
            [
              -16.4937446,
              28.4005516
            ],
            [
              -16.4938678,
              28.4006486
            ],
            [
              -16.4941076,
              28.4006999
            ],
            [
              -16.4941789,
              28.4007455
            ],
            [
              -16.4943345,
              28.4008995
            ],
            [
              -16.494555,
              28.400985
            ],
            [
              -16.4949504,
              28.401025
            ],
            [
              -16.4950866,
              28.4011105
            ],
            [
              -16.4952033,
              28.4012074
            ],
            [
              -16.4956109,
              28.4016474
            ],
            [
              -16.495661,
              28.4017855
            ],
            [
              -16.4956393,
              28.4020857
            ],
            [
              -16.495685,
              28.4023992
            ],
            [
              -16.4957843,
              28.4025749
            ],
            [
              -16.4958614,
              28.4026698
            ],
            [
              -16.4962098,
              28.4029736
            ],
            [
              -16.4966939,
              28.4031689
            ],
            [
              -16.4969221,
              28.4032015
            ],
            [
              -16.497178,
              28.4032666
            ],
            [
              -16.4977331,
              28.4034618
            ],
            [
              -16.4980476,
              28.4036164
            ],
            [
              -16.4982048,
              28.4037412
            ],
            [
              -16.4983683,
              28.4038144
            ],
            [
              -16.4986088,
              28.4038226
            ],
            [
              -16.4989325,
              28.4038714
            ],
            [
              -16.4989695,
              28.4038904
            ],
            [
              -16.4992255,
              28.4041535
            ],
            [
              -16.4992748,
              28.4042321
            ],
            [
              -16.4993396,
              28.4044084
            ],
            [
              -16.4993951,
              28.4044871
            ],
            [
              -16.4994968,
              28.4045658
            ],
            [
              -16.499873,
              28.4047882
            ],
            [
              -16.4999994,
              28.4048288
            ],
            [
              -16.5005267,
              28.4047556
            ],
            [
              -16.5008912,
              28.40467
            ],
            [
              -16.5011194,
              28.4046781
            ],
            [
              -16.5013106,
              28.4047459
            ],
            [
              -16.5013784,
              28.4048056
            ],
            [
              -16.5014185,
              28.4049493
            ],
            [
              -16.5016066,
              28.4052775
            ],
            [
              -16.5017269,
              28.4053345
            ],
            [
              -16.5020044,
              28.4053806
            ],
            [
              -16.5021616,
              28.405443
            ],
            [
              -16.5025687,
              28.4054511
            ],
            [
              -16.5028523,
              28.4055705
            ],
            [
              -16.5030682,
              28.4057332
            ],
            [
              -16.5032563,
              28.4060424
            ],
            [
              -16.5033118,
              28.4061048
            ],
            [
              -16.5036726,
              28.4062485
            ],
            [
              -16.5037774,
              28.4064113
            ],
            [
              -16.5038391,
              28.4064628
            ],
            [
              -16.504465,
              28.4068398
            ],
            [
              -16.5046669,
              28.4071922
            ],
            [
              -16.5048614,
              28.4073363
            ],
            [
              -16.5050833,
              28.4073453
            ],
            [
              -16.505535,
              28.4073063
            ],
            [
              -16.5056306,
              28.407309
            ],
            [
              -16.5057971,
              28.4072629
            ],
            [
              -16.5058967,
              28.407205
            ],
            [
              -16.505979,
              28.4071571
            ],
            [
              -16.5060685,
              28.4071571
            ],
            [
              -16.5061579,
              28.4071897
            ],
            [
              -16.5062905,
              28.4071843
            ],
            [
              -16.5064076,
              28.4071436
            ],
            [
              -16.5064711,
              28.4071185
            ],
            [
              -16.5066956,
              28.4075276
            ],
            [
              -16.5067577,
              28.4076188
            ],
            [
              -16.5068186,
              28.4076844
            ],
            [
              -16.5070601,
              28.4078772
            ],
            [
              -16.5071723,
              28.4079979
            ],
            [
              -16.5072091,
              28.4080771
            ],
            [
              -16.5072457,
              28.408156
            ],
            [
              -16.5073216,
              28.4083193
            ],
            [
              -16.5074218,
              28.4085351
            ],
            [
              -16.507751,
              28.4092453
            ],
            [
              -16.5080111,
              28.4098397
            ],
            [
              -16.5080725,
              28.410045
            ],
            [
              -16.5080911,
              28.4101578
            ],
            [
              -16.5088031,
              28.4100203
            ],
            [
              -16.5088184,
              28.4101931
            ],
            [
              -16.5089515,
              28.4107753
            ],
            [
              -16.5090573,
              28.4113092
            ],
            [
              -16.5090766,
              28.4114591
            ],
            [
              -16.5090615,
              28.4115944
            ],
            [
              -16.5090089,
              28.4117936
            ],
            [
              -16.5088515,
              28.4121349
            ],
            [
              -16.5086892,
              28.4124225
            ],
            [
              -16.5085333,
              28.4126828
            ],
            [
              -16.5083701,
              28.41288
            ],
            [
              -16.5081923,
              28.4129927
            ],
            [
              -16.5080036,
              28.4130927
            ],
            [
              -16.5076922,
              28.4133405
            ],
            [
              -16.5068617,
              28.4142603
            ],
            [
              -16.5075068,
              28.4146645
            ],
            [
              -16.5087665,
              28.4152043
            ],
            [
              -16.5088003,
              28.4153325
            ],
            [
              -16.5087742,
              28.4156389
            ],
            [
              -16.5085225,
              28.4159924
            ],
            [
              -16.5084581,
              28.4161018
            ],
            [
              -16.5084151,
              28.4161935
            ],
            [
              -16.5083415,
              28.4162799
            ],
            [
              -16.5080776,
              28.4165444
            ],
            [
              -16.5077891,
              28.4170113
            ],
            [
              -16.5074561,
              28.4174229
            ],
            [
              -16.5071094,
              28.4177659
            ],
            [
              -16.5066015,
              28.4183811
            ],
            [
              -16.5065166,
              28.4185218
            ],
            [
              -16.5059095,
              28.4193028
            ],
            [
              -16.5056364,
              28.419852
            ],
            [
              -16.5055065,
              28.4200952
            ],
            [
              -16.5043367,
              28.4214174
            ],
            [
              -16.5040355,
              28.421672
            ],
            [
              -16.5024551,
              28.4222733
            ],
            [
              -16.5026039,
              28.4226663
            ],
            [
              -16.5027926,
              28.4230165
            ],
            [
              -16.5030964,
              28.4232654
            ],
            [
              -16.5036413,
              28.4235234
            ],
            [
              -16.5039033,
              28.4237814
            ],
            [
              -16.5043193,
              28.4242652
            ]
          ]
        ]
      }
    }
  ]
}
